{"type":"Feature","properties":{"name":"Missing La Porte Road climb","source":"OpenStreetMap contributors","sourceUrl":"https://www.openstreetmap.org/copyright","trailforksReference":"https://www.trailforks.com/ridelog/view/80488775/","roadVerifiedOn":"https://www.trailforks.com/map/?lat=39.8406&lon=-120.8625&z=15","retrievedAt":"2026-09-28","osmWayIds":[10494068]},"geometry":{"type":"LineString","coordinates":[[-120.856356,39.840827],[-120.85636869583158,39.84081973416485],[-120.8563837,39.8408352],[-120.8564199,39.8408601],[-120.8564858,39.840888],[-120.8567057,39.8409453],[-120.8569108,39.8410171],[-120.8570958,39.8411251],[-120.8574658,39.8414015],[-120.8577181,39.8415574],[-120.8578639,39.8416184],[-120.8580217,39.8416462],[-120.858272,39.8416716],[-120.8583444,39.8416925],[-120.8584106,39.8417309],[-120.8584732,39.8418011],[-120.85863,39.842133],[-120.8587406,39.8422951],[-120.8588492,39.8424024],[-120.8589739,39.8425383],[-120.8590161,39.8426101],[-120.8590221,39.8426818],[-120.859001,39.8428069],[-120.8590121,39.8429404],[-120.8590603,39.8430616],[-120.8591136,39.8431311],[-120.8591739,39.8431766],[-120.8592795,39.8432631],[-120.8593338,39.8433503],[-120.8593609,39.8434329],[-120.859369,39.8436359],[-120.8593921,39.8437733],[-120.8594383,39.8439632],[-120.8594524,39.8441214],[-120.8594514,39.8443229],[-120.8594705,39.8444217],[-120.8595137,39.8445259],[-120.8595791,39.8446216],[-120.8596635,39.8447111],[-120.8598415,39.8448416],[-120.859946,39.844884],[-120.8600073,39.844891],[-120.8600757,39.8448817],[-120.8601652,39.844847],[-120.8602456,39.8447829],[-120.8603733,39.8446648],[-120.8604511,39.844613],[-120.860552,39.8445732],[-120.8606551,39.844559],[-120.8607515,39.8445643],[-120.8608312,39.844596],[-120.8608987,39.8446494],[-120.8609485,39.8447264],[-120.8609968,39.8448781],[-120.8610345,39.8449567],[-120.8610899,39.8450178],[-120.8611781,39.8450757],[-120.8613509,39.8451658],[-120.8615382,39.8452409],[-120.8622189,39.8455332],[-120.8622869,39.8455724],[-120.862316,39.8456002],[-120.8623288,39.845627],[-120.8623388,39.8456963],[-120.8623267,39.8459594],[-120.8623416,39.8460401],[-120.8623736,39.8461198],[-120.8624454,39.8462051],[-120.862621,39.8464525],[-120.8629317,39.8468068],[-120.8631161,39.8469776],[-120.8631404,39.8470259],[-120.8631511,39.8470733],[-120.8631404,39.847141],[-120.8629847,39.8474701],[-120.8629677,39.8475498],[-120.8629741,39.84763],[-120.862994,39.847677],[-120.863038,39.8477195],[-120.863112,39.847755],[-120.8632175,39.8477901],[-120.8634065,39.8478179],[-120.8637333,39.8478989],[-120.8638555,39.8479161],[-120.8639806,39.8479161],[-120.8642523,39.8479031],[-120.8646021,39.8479278],[-120.8648736,39.8479733],[-120.8653752,39.8481184],[-120.8654748,39.848164],[-120.8656527,39.8482928],[-120.8657586,39.8483578],[-120.8659332,39.8484355],[-120.8660137,39.8484849],[-120.8661411,39.8485818],[-120.8662457,39.8486385],[-120.8664187,39.8486918],[-120.8666168,39.8487351],[-120.8667002,39.848769],[-120.8667851,39.8488155],[-120.8668454,39.848875],[-120.8669922,39.8490834],[-120.8671098,39.8491984],[-120.8672807,39.8492964],[-120.8675401,39.8494438],[-120.8677281,39.8495874],[-120.8678699,39.8497456],[-120.8679201,39.8498753],[-120.8679905,39.8503013],[-120.8680257,39.8503843],[-120.8680654,39.8504167],[-120.8681192,39.8504367],[-120.8681629,39.8504472],[-120.8682051,39.8504472],[-120.8682469,39.850434],[-120.8682896,39.8504059],[-120.8683237,39.8503584],[-120.8683408,39.850302],[-120.8683428,39.8502353],[-120.8683146,39.8501651],[-120.8681958,39.849991],[-120.8681584,39.8498924],[-120.8681397,39.8497723],[-120.8681164,39.8496414],[-120.868072,39.8495088],[-120.8680043,39.8493779],[-120.8678572,39.8491987],[-120.8677498,39.8490517],[-120.8676681,39.84891],[-120.8675093,39.8486178],[-120.8674498,39.8484936],[-120.8673954,39.8483379],[-120.8673602,39.8482051],[-120.867314,39.848138],[-120.8672557,39.848087],[-120.8671732,39.8480446],[-120.8669154,39.8479764],[-120.8668223,39.8479377],[-120.8667308,39.8478668],[-120.866486,39.8476166],[-120.8661538,39.847365],[-120.8660211,39.8472755],[-120.8659075,39.8472207],[-120.8657637,39.8471643],[-120.8656994,39.8471281],[-120.8656347,39.8470673],[-120.8655998,39.8470083],[-120.8655767,39.8469224],[-120.8655336,39.8466604],[-120.8654968,39.8465261],[-120.8654428,39.8464074],[-120.8653572,39.8462757],[-120.865297,39.8461649],[-120.8652669,39.846073],[-120.8652638,39.8459626],[-120.8652956,39.8458247],[-120.8653597,39.8456898],[-120.8655941,39.8452693],[-120.8656288,39.8451784],[-120.8656348,39.8450989],[-120.8656217,39.844997],[-120.86548,39.8447631],[-120.8654267,39.8445964],[-120.8654106,39.844466],[-120.8654217,39.8443749],[-120.8654579,39.8442869],[-120.8655212,39.8441958],[-120.8656137,39.8441094],[-120.8657424,39.8440206],[-120.865865,39.8439511],[-120.8660259,39.8438824],[-120.8662641,39.8438076],[-120.8666844,39.8436887],[-120.8669267,39.8435961],[-120.8671136,39.8435027],[-120.8675439,39.8432572],[-120.8678134,39.8431221],[-120.868126,39.8429924],[-120.8682436,39.8429315],[-120.8683241,39.8428713],[-120.8683814,39.8427987],[-120.8684095,39.8427385],[-120.8684316,39.8426505],[-120.8684286,39.842422],[-120.8684457,39.8423371],[-120.8684789,39.8422653],[-120.8685442,39.8421742],[-120.8686216,39.8420947],[-120.8687302,39.8420175],[-120.8688609,39.841962],[-120.8690881,39.8418963],[-120.8692138,39.8418454],[-120.8693304,39.8417798],[-120.8694239,39.8417034],[-120.8694892,39.8416239],[-120.8695251,39.8415473],[-120.8695521,39.841465],[-120.8695657,39.8413997],[-120.8695617,39.8413287],[-120.8695385,39.841243],[-120.8694785,39.8411476],[-120.8693297,39.8409858],[-120.8688903,39.8405697],[-120.8688042,39.8405045],[-120.8687281,39.8404625],[-120.8686428,39.8404253],[-120.86857176956782,39.84040401824238],[-120.868586,39.840376]]}}
