{"type":"Feature","properties":{"name":"Downieville Adventure Mode","sourceLabel":"Trailforks route plan 785607 — Downieville Adventure Mode","sourceUrl":"https://www.trailforks.com/routeplan/view/785607/","importedAt":"2026-09-29T06:06:45.255584+00:00","gpxSha256":"a2b4d8a6616d44616df1efdf87390dd29f9fb3952bef3d1ffa87f79aae417a71","elevationSource":"AWS Terrain Tiles; GPX elevations are zero","sourceStats":{"distanceMiles":22.28,"climbingFt":2028,"descendingFt":6214,"movingMinutes":271,"movingTimeEstimated":true}},"geometry":{"type":"LineString","coordinates":[[-120.66595,39.6147,2153.83],[-120.66596,39.61468,2154.25],[-120.66593,39.61471,2153.17],[-120.66597,39.6147,2154.39],[-120.66608,39.61477,2157.39],[-120.66611,39.61481,2158.14],[-120.66613,39.6149,2157.54],[-120.66621,39.615,2157.95],[-120.66629,39.61523,2157.83],[-120.66632,39.61528,2158.28],[-120.66633,39.61537,2157.87],[-120.66635,39.61543,2157.88],[-120.66637,39.61548,2158.08],[-120.66642,39.6155,2159.72],[-120.66648,39.61558,2160.51],[-120.66656,39.61583,2159.75],[-120.66664,39.61594,2161.06],[-120.66672,39.61616,2162.22],[-120.66678,39.61627,2163.48],[-120.66684,39.61632,2164.11],[-120.66693,39.61646,2164.6],[-120.66697,39.61665,2164.07],[-120.66704,39.61677,2164.59],[-120.66711,39.61692,2165.08],[-120.66711,39.61703,2164.38],[-120.66713,39.61708,2164.47],[-120.66719,39.6172,2164.37],[-120.6673,39.61734,2164.65],[-120.66736,39.61749,2164.47],[-120.6674,39.61753,2164.77],[-120.66731,39.61801,2160.25],[-120.66725,39.61822,2156.45],[-120.66724,39.61846,2151.39],[-120.66728,39.61859,2148.82],[-120.66732,39.61863,2148.06],[-120.66738,39.61862,2148.4],[-120.66743,39.61863,2148.25],[-120.66743,39.61866,2147.52],[-120.66741,39.61869,2146.78],[-120.66736,39.61869,2146.77],[-120.66723,39.61865,2147.52],[-120.66715,39.61858,2148.66],[-120.66714,39.61854,2149.32],[-120.66704,39.6185,2148.65],[-120.66708,39.61855,2148.41],[-120.66708,39.61862,2147.29],[-120.66732,39.61893,2142.74],[-120.66732,39.61897,2142.19],[-120.6673,39.61901,2141.73],[-120.66723,39.61906,2141.52],[-120.66714,39.6191,2141.8],[-120.6671,39.6192,2141.16],[-120.66711,39.61924,2141.06],[-120.66714,39.61927,2141.06],[-120.66721,39.61928,2140.52],[-120.66724,39.61936,2140.2],[-120.66714,39.6195,2141.3],[-120.66694,39.61983,2142.15],[-120.66687,39.6199,2142.91],[-120.66677,39.61996,2143.6],[-120.66667,39.62,2143.62],[-120.66658,39.62001,2143.31],[-120.6665,39.62005,2143.44],[-120.66652,39.62014,2144.8],[-120.66651,39.62022,2145.92],[-120.66647,39.62028,2146.48],[-120.66641,39.62041,2147.22],[-120.66638,39.62073,2151.25],[-120.66635,39.62079,2151.67],[-120.66632,39.62081,2151.44],[-120.6663,39.62087,2152.13],[-120.66621,39.62098,2152.6],[-120.66608,39.62105,2151.7],[-120.66603,39.62109,2151.45],[-120.66598,39.62118,2152.3],[-120.66596,39.62127,2153.67],[-120.66593,39.6213,2153.75],[-120.66578,39.6214,2153.56],[-120.66565,39.62144,2152.94],[-120.66557,39.6215,2153.62],[-120.66556,39.62154,2154.59],[-120.66548,39.62163,2156.53],[-120.66531,39.62224,2161.99],[-120.66528,39.62241,2162.12],[-120.66536,39.62251,2163.73],[-120.66539,39.62252,2164.21],[-120.66559,39.62271,2165.17],[-120.66586,39.62281,2167.01],[-120.66611,39.62296,2165.96],[-120.6662,39.62299,2165.74],[-120.66663,39.62324,2163.64],[-120.66675,39.62327,2164.35],[-120.66694,39.62335,2164.46],[-120.66701,39.62341,2164.38],[-120.66704,39.62346,2164.23],[-120.66708,39.62361,2163.45],[-120.66712,39.62369,2163.55],[-120.66728,39.62386,2164.06],[-120.66736,39.62389,2164.77],[-120.66754,39.62406,2165.81],[-120.66759,39.62414,2165.39],[-120.66761,39.6242,2165.23],[-120.66768,39.62427,2165.06],[-120.66774,39.62437,2165.07],[-120.66787,39.62469,2165.42],[-120.66801,39.62484,2166.53],[-120.66805,39.62491,2166.87],[-120.66817,39.62524,2167.73],[-120.6683,39.62547,2167.36],[-120.66833,39.62558,2166.94],[-120.66831,39.62574,2166.43],[-120.66832,39.62585,2166.35],[-120.66829,39.62598,2166.23],[-120.66827,39.62619,2166.82],[-120.66829,39.62637,2168.32],[-120.66838,39.62664,2171.06],[-120.66859,39.62694,2174.44],[-120.66864,39.62705,2175.34],[-120.66865,39.62718,2176.46],[-120.66858,39.62738,2178.51],[-120.6685,39.62748,2179.33],[-120.66844,39.62761,2180.67],[-120.66837,39.62769,2181.23],[-120.66832,39.62774,2181.57],[-120.6682,39.62791,2184.64],[-120.66791,39.62811,2187.58],[-120.66785,39.6282,2189.96],[-120.6676,39.62832,2192.86],[-120.66755,39.62836,2194.05],[-120.66738,39.62844,2195.81],[-120.66724,39.62853,2197.74],[-120.66692,39.62865,2197.85],[-120.66669,39.62867,2196.87],[-120.66653,39.62865,2196.19],[-120.66641,39.62867,2197.33],[-120.66623,39.62864,2197.83],[-120.66616,39.62864,2198.47],[-120.66615,39.62866,2199.2],[-120.66618,39.62863,2197.97],[-120.66615,39.62862,2197.93],[-120.66603,39.62868,2199.28],[-120.66593,39.62877,2201.25],[-120.66581,39.62881,2201.66],[-120.66573,39.62885,2202.74],[-120.66572,39.62887,2203.57],[-120.66573,39.62889,2204.5],[-120.66582,39.62887,2204.15],[-120.66608,39.62887,2205.81],[-120.6663,39.62896,2208.22],[-120.66643,39.62897,2208.26],[-120.66657,39.62895,2207.33],[-120.66662,39.62895,2207.25],[-120.66678,39.629,2208.73],[-120.66685,39.62903,2210.26],[-120.66706,39.62909,2213.87],[-120.66707,39.62913,2215.04],[-120.66698,39.62915,2214.99],[-120.66676,39.62926,2217.21],[-120.66654,39.62928,2218.31],[-120.66628,39.62936,2221.68],[-120.66635,39.62934,2220.75],[-120.66643,39.62934,2220.49],[-120.66657,39.62938,2221.51],[-120.66677,39.62947,2224.14],[-120.66695,39.62952,2226.04],[-120.66731,39.62955,2227.92],[-120.66746,39.62961,2229.98],[-120.66759,39.62962,2230.66],[-120.66773,39.62967,2232.83],[-120.6679,39.62979,2236.74],[-120.66802,39.62995,2240.85],[-120.66812,39.63002,2242.01],[-120.66819,39.63009,2243.16],[-120.66833,39.63021,2244.21],[-120.66833,39.63024,2244.63],[-120.66832,39.63027,2245.12],[-120.66798,39.63035,2248.13],[-120.66794,39.63034,2248.21],[-120.66774,39.63036,2249.58],[-120.66752,39.6304,2251.6],[-120.66719,39.63043,2254.51],[-120.66679,39.63039,2257.74],[-120.66644,39.63041,2261.14],[-120.66634,39.63037,2260.75],[-120.66624,39.63036,2261.21],[-120.66614,39.63037,2262.3],[-120.66608,39.63039,2263.6],[-120.66599,39.63048,2265.54],[-120.66599,39.63064,2264.95],[-120.66596,39.63068,2264.61],[-120.66588,39.63072,2263.02],[-120.66584,39.63077,2261.18],[-120.66583,39.63082,2259.55],[-120.66605,39.63092,2261.58],[-120.66614,39.63103,2260.94],[-120.66622,39.63106,2261.06],[-120.66643,39.63125,2260.29],[-120.66655,39.6313,2259.1],[-120.66675,39.63133,2258.52],[-120.66689,39.6313,2259.07],[-120.66696,39.6313,2258.71],[-120.66712,39.63129,2258.24],[-120.66737,39.63132,2255.64],[-120.66752,39.63129,2255.63],[-120.6679,39.63126,2253.93],[-120.66808,39.63128,2253],[-120.66879,39.63152,2252.4],[-120.66906,39.63157,2251.74],[-120.66914,39.63161,2251.75],[-120.66926,39.63164,2250.58],[-120.6693,39.63169,2250.56],[-120.66947,39.63183,2249.42],[-120.66953,39.63191,2249.11],[-120.66956,39.63202,2249.92],[-120.66964,39.6321,2248.61],[-120.6697,39.6322,2247.76],[-120.66974,39.63237,2246.77],[-120.66971,39.63246,2247.41],[-120.66959,39.6326,2249.91],[-120.66946,39.63265,2252.49],[-120.66922,39.63292,2254.77],[-120.66918,39.63299,2255.27],[-120.66916,39.63305,2255.27],[-120.66923,39.63309,2255.4],[-120.66931,39.6331,2254.28],[-120.66945,39.63319,2254],[-120.66964,39.63324,2250.77],[-120.66966,39.63329,2251.2],[-120.66971,39.63333,2250.43],[-120.66971,39.6334,2251.93],[-120.66967,39.63348,2255.06],[-120.66957,39.63356,2260.56],[-120.66956,39.63363,2262.98],[-120.66958,39.63366,2263.2],[-120.66962,39.63368,2262.36],[-120.66986,39.63375,2255.72],[-120.66998,39.63381,2253.27],[-120.67006,39.63387,2252.16],[-120.67018,39.634,2251.78],[-120.67023,39.63413,2253.67],[-120.67035,39.63428,2252.81],[-120.67045,39.63447,2251.97],[-120.67047,39.6346,2253.19],[-120.67049,39.63463,2252.63],[-120.67049,39.63475,2255.81],[-120.67052,39.63479,2255.32],[-120.67052,39.63484,2256.73],[-120.6705,39.6349,2259.5],[-120.67052,39.63501,2262.4],[-120.67051,39.63524,2270.73],[-120.67053,39.63528,2270.87],[-120.67052,39.63535,2273.19],[-120.67055,39.6354,2273.24],[-120.6706,39.63573,2276.52],[-120.67066,39.63592,2276.96],[-120.67065,39.63598,2278.36],[-120.67068,39.63636,2284.33],[-120.67078,39.63668,2284.77],[-120.67076,39.63679,2286.14],[-120.67071,39.6369,2288.14],[-120.67072,39.63702,2288.4],[-120.67067,39.63709,2289.89],[-120.67067,39.63716,2289.97],[-120.6707,39.63727,2289.46],[-120.67067,39.63731,2290.08],[-120.67069,39.63746,2289.64],[-120.67068,39.63751,2289.77],[-120.6707,39.63771,2289.89],[-120.67083,39.638,2289.61],[-120.67087,39.63806,2289.3],[-120.67089,39.63813,2289.33],[-120.67108,39.63846,2287.49],[-120.67127,39.6387,2283.47],[-120.67138,39.63879,2281.44],[-120.67147,39.63889,2280],[-120.67159,39.63909,2279.57],[-120.67164,39.63919,2280],[-120.67178,39.63936,2280.39],[-120.67201,39.63956,2279.61],[-120.67229,39.63964,2275.02],[-120.67235,39.6398,2274.21],[-120.67243,39.63995,2272.12],[-120.67247,39.64011,2270.78],[-120.67249,39.64025,2269.95],[-120.67248,39.6404,2269.97],[-120.67244,39.64053,2271.21],[-120.67244,39.64062,2271],[-120.67239,39.64073,2272.73],[-120.67239,39.64103,2272.84],[-120.67243,39.64116,2272.18],[-120.67243,39.64121,2272.44],[-120.67239,39.64127,2273.58],[-120.67238,39.64139,2273.71],[-120.67244,39.64143,2273.03],[-120.67248,39.64149,2272.95],[-120.67252,39.64155,2272.94],[-120.67254,39.64167,2272.97],[-120.67256,39.64181,2273.31],[-120.67255,39.64193,2273.45],[-120.67254,39.64201,2273.5],[-120.67248,39.64208,2272.95],[-120.67249,39.6421,2273.13],[-120.67248,39.64205,2272.86],[-120.67251,39.64202,2273.17],[-120.67252,39.64204,2273.32],[-120.67249,39.64203,2272.95],[-120.67255,39.64202,2273.63],[-120.67261,39.64205,2274.41],[-120.67268,39.64212,2273.96],[-120.67282,39.64233,2273.41],[-120.67283,39.64245,2274.69],[-120.67283,39.64251,2275.4],[-120.67281,39.64254,2275.84],[-120.67277,39.64257,2276.32],[-120.67266,39.6426,2276.84],[-120.67261,39.64264,2276.61],[-120.67259,39.64277,2276.31],[-120.67272,39.64322,2273.84],[-120.67278,39.64326,2274.05],[-120.67288,39.64341,2273.76],[-120.673,39.64353,2274.7],[-120.6731,39.64378,2273.61],[-120.67314,39.64398,2273.26],[-120.67315,39.64447,2272.54],[-120.67312,39.64464,2272.26],[-120.67301,39.64492,2271.59],[-120.67294,39.64518,2268.04],[-120.67294,39.64524,2267.19],[-120.67288,39.64536,2264.46],[-120.67263,39.64554,2261.76],[-120.67254,39.64568,2259.96],[-120.67223,39.64594,2259.5],[-120.67217,39.64605,2260.39],[-120.67214,39.64606,2260.22],[-120.67219,39.64609,2260.87],[-120.67223,39.64616,2261.45],[-120.67224,39.64632,2261.79],[-120.67227,39.64643,2260.98],[-120.67224,39.64668,2260.61],[-120.67221,39.64678,2261.04],[-120.6722,39.64713,2259.16],[-120.67215,39.6474,2256.58],[-120.67218,39.64756,2254.21],[-120.67212,39.64783,2253.43],[-120.67215,39.64797,2253],[-120.67225,39.64814,2251.55],[-120.67242,39.64832,2248.62],[-120.67246,39.64826,2248.19],[-120.6724,39.64809,2249.39],[-120.67254,39.64804,2247.33],[-120.6726,39.64798,2246.32],[-120.67266,39.64801,2245.63],[-120.67274,39.64809,2244.77],[-120.67293,39.64817,2241.89],[-120.67304,39.64829,2239.19],[-120.67312,39.64832,2237.82],[-120.67321,39.6483,2236.49],[-120.67329,39.64835,2235.38],[-120.67324,39.64866,2233.51],[-120.6733,39.64882,2229.33],[-120.67331,39.64894,2226.62],[-120.67321,39.64905,2227.13],[-120.67313,39.64936,2223.9],[-120.67314,39.64942,2222.52],[-120.67301,39.64987,2220.42],[-120.67303,39.65,2218.94],[-120.67309,39.65016,2216.8],[-120.67312,39.65019,2216],[-120.67318,39.65018,2214.66],[-120.67331,39.65004,2211.89],[-120.67345,39.65,2209.85],[-120.67356,39.64993,2208.33],[-120.67361,39.64987,2207.72],[-120.67361,39.64975,2207.99],[-120.67366,39.64972,2207.32],[-120.67375,39.64958,2207.97],[-120.67385,39.64947,2208.09],[-120.67389,39.64945,2207.9],[-120.67402,39.64943,2207.08],[-120.67408,39.64939,2207.36],[-120.67417,39.64938,2206.94],[-120.67426,39.64937,2206.48],[-120.67452,39.64942,2204.38],[-120.6747,39.6494,2203.3],[-120.67478,39.64931,2202.52],[-120.67481,39.64912,2201.25],[-120.67473,39.649,2202.58],[-120.67461,39.64889,2205.35],[-120.67453,39.64874,2207.71],[-120.67456,39.64869,2207.12],[-120.6746,39.64867,2206.13],[-120.67481,39.64858,2202.07],[-120.67501,39.64856,2199.18],[-120.67507,39.64852,2199.12],[-120.67511,39.64847,2199.51],[-120.67512,39.6483,2201.64],[-120.67521,39.64822,2201.66],[-120.67533,39.64818,2200.6],[-120.67555,39.64816,2198.19],[-120.67584,39.64807,2194.83],[-120.67605,39.64791,2193.63],[-120.67617,39.64787,2192.1],[-120.67627,39.64786,2190.65],[-120.67632,39.6479,2189.6],[-120.67633,39.64799,2188.9],[-120.67643,39.64804,2187.05],[-120.67646,39.64804,2186.61],[-120.67647,39.64806,2186.39],[-120.67644,39.64803,2186.95],[-120.67685,39.64839,2183.44],[-120.67694,39.6483,2181.81],[-120.677,39.64827,2180.92],[-120.67713,39.64825,2179.23],[-120.67726,39.64828,2177.77],[-120.67743,39.6484,2176.42],[-120.67754,39.64839,2175.39],[-120.67768,39.64824,2172.43],[-120.67752,39.64808,2172.48],[-120.6777,39.64808,2169.97],[-120.67782,39.6482,2169.9],[-120.67796,39.64839,2169.98],[-120.67799,39.6485,2170.02],[-120.67801,39.64869,2170.22],[-120.67798,39.64882,2169.53],[-120.67798,39.64911,2165.64],[-120.67796,39.64935,2163.77],[-120.6778,39.64944,2165.61],[-120.67773,39.64952,2164.77],[-120.6777,39.64957,2163.86],[-120.67775,39.64953,2164.71],[-120.67777,39.64948,2165.48],[-120.67788,39.64942,2164.55],[-120.67804,39.64954,2161.16],[-120.67802,39.64969,2159.99],[-120.67822,39.6498,2154.67],[-120.67831,39.64973,2154.82],[-120.67834,39.64969,2154.82],[-120.67834,39.64956,2155.89],[-120.6784,39.64946,2155.62],[-120.67855,39.64933,2153.71],[-120.67888,39.64934,2147.23],[-120.67905,39.64942,2143.33],[-120.67904,39.64949,2142.7],[-120.67899,39.64957,2142.83],[-120.67885,39.64962,2145.14],[-120.67879,39.64966,2146.03],[-120.67877,39.64971,2146.04],[-120.67876,39.64994,2142.55],[-120.67872,39.65004,2141.2],[-120.67848,39.65013,2142.28],[-120.67833,39.65033,2139.17],[-120.67823,39.65037,2139.34],[-120.67802,39.65028,2142.42],[-120.67782,39.65024,2143.76],[-120.67773,39.65025,2143.43],[-120.67771,39.65032,2141.96],[-120.6779,39.65038,2140.3],[-120.67801,39.65047,2138.2],[-120.67788,39.65052,2137.23],[-120.67802,39.65059,2136.58],[-120.67819,39.6509,2132.43],[-120.67826,39.65095,2131.06],[-120.67848,39.65092,2129.56],[-120.67867,39.65085,2129.78],[-120.67891,39.65083,2128.6],[-120.67896,39.65086,2127.96],[-120.67899,39.65091,2127.29],[-120.67908,39.65099,2126.34],[-120.67925,39.65106,2125.07],[-120.67931,39.65117,2124.12],[-120.67932,39.65124,2123.73],[-120.6793,39.65137,2123.13],[-120.67932,39.65149,2121.67],[-120.6793,39.65153,2121.64],[-120.67925,39.65157,2122.14],[-120.67916,39.6516,2123.18],[-120.67914,39.65166,2122.07],[-120.67917,39.65171,2120.75],[-120.67923,39.65173,2119.33],[-120.6792,39.6518,2118.43],[-120.67919,39.6519,2116.27],[-120.6792,39.65222,2110.63],[-120.67907,39.65236,2111.28],[-120.67918,39.65249,2111.19],[-120.67922,39.65264,2111.6],[-120.67919,39.65289,2111.84],[-120.67921,39.65317,2112.28],[-120.67918,39.65326,2112.52],[-120.67929,39.65338,2111.48],[-120.67944,39.65347,2110.07],[-120.67956,39.6535,2108.01],[-120.67976,39.65372,2103.98],[-120.67981,39.65379,2103],[-120.67987,39.65395,2101.22],[-120.67984,39.65409,2102.09],[-120.6798,39.65417,2102.22],[-120.67966,39.65424,2101.94],[-120.67949,39.65447,2098.12],[-120.67946,39.6546,2094.45],[-120.67951,39.65474,2091.86],[-120.67948,39.65484,2089.42],[-120.67943,39.65492,2087.24],[-120.67943,39.65501,2085.63],[-120.67957,39.65528,2083.48],[-120.67976,39.65538,2083.32],[-120.67987,39.65538,2083.51],[-120.68018,39.65531,2084.09],[-120.68031,39.65523,2083.89],[-120.68053,39.65523,2081.5],[-120.68058,39.6552,2081.28],[-120.68072,39.65516,2079.99],[-120.68076,39.65512,2079.99],[-120.68071,39.65512,2080.66],[-120.68074,39.65513,2080.12],[-120.68077,39.65508,2080.38],[-120.68087,39.65506,2079.29],[-120.68098,39.65507,2078.05],[-120.68106,39.655,2078.04],[-120.6811,39.65493,2078.06],[-120.68115,39.65488,2077.86],[-120.68125,39.65489,2076.7],[-120.68155,39.65479,2074.17],[-120.68162,39.65478,2072.7],[-120.68172,39.65473,2070.88],[-120.68174,39.65468,2070.4],[-120.68167,39.65451,2071.56],[-120.68172,39.6544,2069.96],[-120.68172,39.65435,2069.49],[-120.68165,39.65426,2069.6],[-120.68163,39.65411,2068.37],[-120.68164,39.65406,2067.75],[-120.68171,39.65395,2065.78],[-120.68169,39.65392,2065.85],[-120.68169,39.65384,2065.39],[-120.68164,39.65379,2065.72],[-120.68164,39.65372,2065.31],[-120.6817,39.65365,2064.17],[-120.68177,39.65361,2063.13],[-120.68183,39.65364,2062.62],[-120.68188,39.65362,2061.95],[-120.68198,39.65371,2061.29],[-120.68221,39.65383,2059.27],[-120.68234,39.65392,2058.08],[-120.68254,39.65413,2055.74],[-120.68248,39.65409,2056.59],[-120.68247,39.65407,2056.71],[-120.68268,39.65424,2054.04],[-120.68269,39.65431,2054.08],[-120.68272,39.65434,2053.89],[-120.68277,39.65431,2053.37],[-120.68275,39.65425,2053.35],[-120.68271,39.6542,2053.67],[-120.68268,39.65408,2054.08],[-120.68269,39.65393,2054.07],[-120.68256,39.65387,2055.36],[-120.68247,39.65384,2056.33],[-120.68236,39.65378,2057.41],[-120.68231,39.65373,2057.8],[-120.68226,39.65371,2058.27],[-120.68221,39.65368,2058.69],[-120.68205,39.65309,2056.96],[-120.68202,39.65306,2056.92],[-120.68211,39.65326,2057.69],[-120.68204,39.6532,2058],[-120.6819,39.65295,2056.66],[-120.68177,39.6528,2055.29],[-120.68177,39.65275,2054.57],[-120.68168,39.6526,2053.04],[-120.68156,39.65235,2052.12],[-120.6815,39.65217,2054.3],[-120.68158,39.65208,2053.96],[-120.68168,39.65202,2052.74],[-120.68169,39.65198,2052.8],[-120.68178,39.65194,2051.23],[-120.6818,39.65191,2050.91],[-120.68176,39.65184,2052.02],[-120.68176,39.65164,2050.87],[-120.68181,39.65145,2048.15],[-120.68175,39.65138,2048.98],[-120.68175,39.65134,2048.62],[-120.68177,39.65131,2047.88],[-120.68183,39.65125,2046.28],[-120.68181,39.65117,2046.6],[-120.68184,39.65107,2045.73],[-120.68193,39.65102,2043.84],[-120.68202,39.65099,2042.09],[-120.68204,39.65095,2041.96],[-120.68205,39.65085,2042.53],[-120.68212,39.65078,2041.25],[-120.68239,39.65067,2037.67],[-120.68294,39.65035,2031.99],[-120.68303,39.65025,2030.65],[-120.68306,39.65019,2030.31],[-120.68324,39.65004,2027.82],[-120.6833,39.64991,2027.87],[-120.6833,39.64971,2029.89],[-120.68347,39.64969,2028.86],[-120.68347,39.64967,2029.41],[-120.68363,39.64958,2030.32],[-120.68376,39.64955,2029.19],[-120.68389,39.64954,2027.45],[-120.68415,39.64958,2022.76],[-120.68429,39.64956,2020.93],[-120.68437,39.64953,2020.32],[-120.68445,39.64955,2018.97],[-120.68447,39.64962,2017.62],[-120.68434,39.64973,2017.81],[-120.68433,39.64977,2017.71],[-120.68437,39.64976,2017.23],[-120.68436,39.64978,2017.25],[-120.68439,39.6498,2016.73],[-120.68449,39.6498,2015.39],[-120.68458,39.64991,2013.6],[-120.68476,39.64997,2011.88],[-120.68488,39.65005,2011.57],[-120.68491,39.6501,2011.68],[-120.68493,39.65018,2011.99],[-120.68497,39.65026,2012.36],[-120.68497,39.65035,2013.21],[-120.68506,39.65042,2014.67],[-120.68509,39.65044,2015.21],[-120.68522,39.65042,2016.42],[-120.6853,39.65044,2017.55],[-120.68535,39.65047,2018.45],[-120.68543,39.65046,2019.02],[-120.68556,39.65049,2020.58],[-120.68579,39.65045,2021.68],[-120.68602,39.65045,2022.98],[-120.68607,39.6504,2022.53],[-120.68614,39.65037,2022.5],[-120.68627,39.65036,2023.13],[-120.68667,39.65017,2021.89],[-120.68681,39.65013,2021.08],[-120.68693,39.65012,2020.82],[-120.68707,39.65007,2019.7],[-120.68708,39.65004,2019.08],[-120.68725,39.65,2017.63],[-120.68773,39.64967,2007.13],[-120.68789,39.6496,2004.54],[-120.68823,39.64961,2003.17],[-120.68935,39.64942,1994.46],[-120.6895,39.64936,1993.51],[-120.68981,39.64921,1991.37],[-120.69034,39.64903,1988.95],[-120.69048,39.64895,1987.15],[-120.69074,39.6489,1983.16],[-120.69092,39.64891,1981.28],[-120.69117,39.64898,1979.62],[-120.69134,39.64905,1978.99],[-120.69148,39.64915,1979.26],[-120.69152,39.6492,1979.65],[-120.69171,39.64932,1978.5],[-120.69198,39.64941,1975.79],[-120.69221,39.64951,1973.64],[-120.69237,39.64961,1972.84],[-120.69244,39.64961,1972.02],[-120.69282,39.64979,1970.72],[-120.69317,39.64992,1968.96],[-120.69322,39.64996,1968.89],[-120.69336,39.65004,1968.33],[-120.69338,39.65017,1969.05],[-120.69346,39.65027,1968.81],[-120.69367,39.65032,1967.06],[-120.69374,39.65036,1966.62],[-120.69382,39.65039,1966.08],[-120.69388,39.65046,1965.6],[-120.69395,39.65052,1964.91],[-120.6941,39.6506,1962.73],[-120.69427,39.65068,1959.6],[-120.69471,39.65102,1950.55],[-120.69517,39.65133,1945.87],[-120.69538,39.65141,1943.42],[-120.69556,39.65151,1941.4],[-120.69561,39.65155,1940.56],[-120.69562,39.65161,1940.01],[-120.69561,39.65166,1939.77],[-120.69558,39.6517,1939.64],[-120.69554,39.65192,1938.69],[-120.69556,39.6521,1938.15],[-120.69559,39.65216,1938],[-120.69574,39.6523,1938.93],[-120.69581,39.65235,1939.67],[-120.69589,39.65238,1940.45],[-120.69634,39.65241,1940.03],[-120.69654,39.65244,1937.72],[-120.69718,39.65259,1931.47],[-120.6973,39.65257,1931],[-120.69749,39.65252,1930.27],[-120.69756,39.65247,1930.18],[-120.69768,39.65232,1929.85],[-120.69766,39.65217,1928.33],[-120.69777,39.65187,1924.89],[-120.69788,39.65178,1923.87],[-120.6983,39.6517,1920.46],[-120.69834,39.65165,1919.07],[-120.69857,39.65148,1914.01],[-120.69872,39.65146,1912.95],[-120.69901,39.65152,1912.34],[-120.69897,39.65134,1909.59],[-120.69904,39.65128,1908.48],[-120.69919,39.65139,1909.03],[-120.69918,39.65141,1909.45],[-120.69921,39.6514,1909.07],[-120.69936,39.65141,1908.23],[-120.69968,39.65146,1906.53],[-120.69978,39.6515,1906.31],[-120.70003,39.65162,1905.03],[-120.70024,39.65177,1903.21],[-120.70035,39.65177,1901.45],[-120.70059,39.65182,1898.02],[-120.7009,39.65184,1893.26],[-120.70096,39.65187,1892.62],[-120.70107,39.65194,1891.46],[-120.7012,39.65209,1890.26],[-120.70134,39.65221,1888.82],[-120.70139,39.6523,1889.07],[-120.70155,39.65241,1891.65],[-120.70176,39.65244,1894.56],[-120.70201,39.6524,1894.3],[-120.70226,39.65242,1894.35],[-120.70238,39.65246,1894.88],[-120.70247,39.65252,1896.13],[-120.70287,39.65264,1897.21],[-120.7029,39.65267,1896.77],[-120.70291,39.65274,1896.89],[-120.70297,39.6528,1895.84],[-120.70319,39.65285,1890.83],[-120.70316,39.65286,1891.63],[-120.70309,39.65283,1893.21],[-120.70296,39.6528,1896.06],[-120.70285,39.65274,1898.17],[-120.70283,39.65263,1897.79],[-120.70287,39.65257,1895.89],[-120.7029,39.65257,1895.35],[-120.70293,39.65265,1896.08],[-120.703,39.65266,1894.72],[-120.70299,39.65272,1895.12],[-120.70301,39.65279,1894.91],[-120.70299,39.65282,1895.46],[-120.70312,39.65286,1892.56],[-120.70323,39.65292,1889.25],[-120.70328,39.65297,1887.49],[-120.70331,39.65308,1886.59],[-120.70332,39.6532,1886.96],[-120.70338,39.6533,1887.27],[-120.70352,39.65332,1885.68],[-120.70358,39.6533,1884.46],[-120.7037,39.65333,1883.25],[-120.7038,39.65339,1882.93],[-120.70398,39.65364,1879.44],[-120.70408,39.65369,1877.31],[-120.70415,39.6537,1875.96],[-120.70435,39.65385,1876.16],[-120.70468,39.654,1875.61],[-120.7048,39.65399,1873.51],[-120.70494,39.65401,1871.39],[-120.70497,39.65407,1871.73],[-120.70502,39.65411,1871.13],[-120.70513,39.65418,1869.31],[-120.70525,39.65423,1866.56],[-120.70537,39.65432,1863.05],[-120.70543,39.65433,1860.9],[-120.70549,39.65425,1857.91],[-120.70551,39.65421,1856.81],[-120.70554,39.65402,1853.96],[-120.70553,39.65386,1852.7],[-120.70563,39.65355,1847.16],[-120.70571,39.65337,1843.85],[-120.70573,39.65326,1842.1],[-120.70577,39.65313,1840.01],[-120.70581,39.65312,1839.38],[-120.70594,39.65312,1837.49],[-120.70601,39.65305,1835.54],[-120.70604,39.65294,1834.19],[-120.70611,39.65285,1832.6],[-120.70619,39.65268,1830.93],[-120.70643,39.65237,1827.24],[-120.70659,39.65211,1824.22],[-120.70667,39.652,1822.65],[-120.70673,39.65198,1821.92],[-120.70687,39.65197,1820.44],[-120.70701,39.65201,1818.76],[-120.70704,39.65205,1818.4],[-120.70705,39.65215,1818.34],[-120.70709,39.65223,1817.44],[-120.70714,39.65241,1815.81],[-120.70722,39.65254,1813.03],[-120.70731,39.65262,1810.4],[-120.70747,39.65263,1807.13],[-120.70752,39.65258,1806.64],[-120.70767,39.65253,1804.12],[-120.70776,39.65258,1802.01],[-120.70783,39.65269,1799.64],[-120.70799,39.65288,1795],[-120.708,39.65293,1794.55],[-120.708,39.65306,1793.61],[-120.70797,39.65306,1793.93],[-120.70804,39.65308,1793.29],[-120.70801,39.65313,1793.07],[-120.70806,39.65314,1792.83],[-120.7082,39.6531,1792.51],[-120.70827,39.65305,1792.38],[-120.70832,39.65292,1792.44],[-120.7084,39.65283,1792.46],[-120.70869,39.65267,1791.79],[-120.70897,39.65254,1790.34],[-120.70969,39.65239,1785.58],[-120.70987,39.65229,1784.25],[-120.71005,39.65223,1783],[-120.71012,39.65224,1782.8],[-120.71019,39.6522,1782.42],[-120.71045,39.65215,1781.47],[-120.71058,39.65207,1781.09],[-120.71073,39.65204,1780.87],[-120.71086,39.65207,1780.88],[-120.71108,39.65201,1780.58],[-120.71125,39.6519,1780.24],[-120.71131,39.6518,1780.18],[-120.7114,39.65175,1780.38],[-120.71151,39.65173,1781.3],[-120.71156,39.65173,1781.78],[-120.71168,39.6518,1782.65],[-120.71188,39.65185,1784.62],[-120.71198,39.6518,1786.04],[-120.71199,39.65172,1786.48],[-120.71196,39.65162,1786.54],[-120.71198,39.65157,1786.97],[-120.71195,39.65149,1786.82],[-120.71191,39.65129,1786.77],[-120.71202,39.65043,1788.97],[-120.71195,39.65022,1789.15],[-120.71181,39.65012,1787.92],[-120.71175,39.65005,1787.47],[-120.71177,39.64999,1788.16],[-120.71164,39.64971,1788],[-120.71145,39.64956,1785.79],[-120.71141,39.64945,1786.02],[-120.71131,39.64937,1784.81],[-120.71133,39.64932,1785.67],[-120.71121,39.64913,1784.87],[-120.71119,39.64907,1784.84],[-120.71122,39.64903,1785.63],[-120.71122,39.64899,1785.85],[-120.71116,39.64896,1784.95],[-120.71115,39.6489,1785.06],[-120.71117,39.64874,1785.8],[-120.71109,39.64852,1784.8],[-120.71111,39.6483,1784.25],[-120.71105,39.64818,1782.6],[-120.7111,39.64785,1778.94],[-120.71123,39.64758,1777.49],[-120.71122,39.64755,1777.3],[-120.71123,39.64746,1777.1],[-120.71122,39.64742,1776.86],[-120.71125,39.64733,1776.89],[-120.71124,39.64711,1776.15],[-120.71133,39.64671,1775.76],[-120.71159,39.64668,1777.59],[-120.71164,39.64664,1777.74],[-120.71168,39.64655,1777.59],[-120.71157,39.64643,1776.66],[-120.71149,39.64638,1776.02],[-120.71144,39.64632,1775.54],[-120.71137,39.6463,1775.04],[-120.71134,39.64619,1774.82],[-120.71144,39.64609,1775.41],[-120.71146,39.64605,1775.53],[-120.71146,39.64592,1775.6],[-120.7115,39.64572,1776.03],[-120.71165,39.64554,1777.33],[-120.71172,39.64548,1777.91],[-120.71175,39.64541,1778.33],[-120.71172,39.64502,1779.26],[-120.71179,39.64488,1780.04],[-120.71179,39.64469,1780.52],[-120.71175,39.64465,1780.1],[-120.71168,39.6446,1779.37],[-120.71151,39.64423,1775.61],[-120.71146,39.64416,1774.72],[-120.71134,39.64406,1773.4],[-120.71131,39.644,1772.9],[-120.71127,39.64386,1772],[-120.71133,39.64376,1771.42],[-120.71132,39.64367,1770.93],[-120.71124,39.64358,1770.85],[-120.7112,39.64351,1770.82],[-120.71118,39.64342,1770.68],[-120.71122,39.64314,1769.65],[-120.71135,39.64288,1767.74],[-120.71151,39.64267,1764.59],[-120.71153,39.64237,1763.06],[-120.71167,39.64201,1757.87],[-120.71168,39.64191,1756],[-120.71164,39.64174,1753.38],[-120.71155,39.64167,1753.01],[-120.71134,39.64161,1753.33],[-120.71124,39.64143,1750.96],[-120.71107,39.64133,1750.18],[-120.711,39.6411,1745.41],[-120.71124,39.64108,1746.23],[-120.71152,39.6413,1748.31],[-120.71177,39.64137,1746.59],[-120.71189,39.64142,1745.57],[-120.71199,39.64151,1745.31],[-120.71208,39.64162,1745.95],[-120.71229,39.64199,1746.67],[-120.71228,39.64217,1747.9],[-120.71231,39.64225,1747.35],[-120.71232,39.64235,1747.4],[-120.71234,39.64238,1746.91],[-120.7124,39.64239,1745.18],[-120.71246,39.64233,1743.14],[-120.71256,39.64227,1740.29],[-120.71256,39.64225,1740.25],[-120.71269,39.64216,1736.5],[-120.71274,39.64207,1734.86],[-120.7128,39.64193,1733.84],[-120.71296,39.6418,1731.34],[-120.71295,39.64172,1731.66],[-120.71291,39.64168,1732.56],[-120.71276,39.64163,1735.64],[-120.71272,39.64156,1736.24],[-120.71268,39.6414,1735.59],[-120.71229,39.64092,1733.64],[-120.71226,39.64085,1731.98],[-120.71215,39.64077,1730.48],[-120.71213,39.64072,1728.79],[-120.71222,39.64074,1729.09],[-120.71232,39.64078,1729.52],[-120.71243,39.64088,1731.11],[-120.71258,39.64103,1732.55],[-120.71268,39.64109,1732.22],[-120.71281,39.64111,1731.13],[-120.71289,39.64116,1730.77],[-120.71313,39.64115,1727.75],[-120.71329,39.64118,1724.4],[-120.71331,39.64112,1723.93],[-120.71321,39.641,1725.74],[-120.7132,39.64096,1725.48],[-120.7132,39.64093,1725.08],[-120.71327,39.64094,1724.05],[-120.71334,39.64093,1722.81],[-120.71333,39.64089,1722.61],[-120.71322,39.64087,1724],[-120.71324,39.64082,1723.12],[-120.71331,39.64075,1721.57],[-120.7133,39.64071,1721.05],[-120.71327,39.64069,1720.83],[-120.71323,39.6407,1721.42],[-120.71304,39.64062,1720.47],[-120.71296,39.64061,1720.57],[-120.71286,39.64055,1719.25],[-120.71287,39.64048,1717.12],[-120.71299,39.64049,1716.97],[-120.7131,39.64046,1715.69],[-120.71327,39.64044,1714.65],[-120.71333,39.64048,1715.62],[-120.71339,39.64048,1715.46],[-120.71341,39.64045,1714.69],[-120.71346,39.64044,1714.32],[-120.71354,39.6404,1712.09],[-120.71364,39.64026,1706.98],[-120.71371,39.64021,1704.88],[-120.71374,39.64016,1702.93],[-120.71383,39.64011,1700.11],[-120.71389,39.63994,1693.68],[-120.71396,39.63988,1690.66],[-120.71397,39.63985,1689.54],[-120.71391,39.63975,1686.5],[-120.71383,39.63973,1686.12],[-120.71377,39.63962,1682.46],[-120.71365,39.63955,1680.53],[-120.71368,39.63945,1677.14],[-120.71361,39.63934,1674.01],[-120.71364,39.63917,1670.39],[-120.71363,39.63911,1669.24],[-120.71366,39.63906,1668.69],[-120.71362,39.63898,1667.33],[-120.7136,39.63887,1665.77],[-120.71362,39.63882,1665.37],[-120.7136,39.63887,1665.77],[-120.71358,39.63873,1664.81],[-120.7136,39.63872,1664.63],[-120.71362,39.6386,1663.5],[-120.71361,39.63857,1663.41],[-120.71357,39.63854,1663.71],[-120.7135,39.63852,1664.53],[-120.71349,39.63848,1664.51],[-120.71348,39.63837,1664.28],[-120.7135,39.63829,1663.4],[-120.71357,39.63822,1661.6],[-120.71363,39.6381,1659.59],[-120.71369,39.63793,1657.7],[-120.71367,39.63788,1657.88],[-120.71368,39.63772,1657.74],[-120.71367,39.63768,1658.09],[-120.71381,39.63756,1655.32],[-120.71386,39.63748,1654.85],[-120.71389,39.63736,1655.01],[-120.71391,39.63714,1656.16],[-120.71406,39.63698,1653.2],[-120.71412,39.63694,1651.8],[-120.71425,39.63679,1649.14],[-120.71426,39.6367,1649.48],[-120.71437,39.63662,1646.99],[-120.71443,39.63655,1645.77],[-120.71446,39.63642,1645.6],[-120.71455,39.63629,1643.65],[-120.71462,39.63615,1642.55],[-120.7147,39.63608,1641.2],[-120.71478,39.63595,1640.99],[-120.71489,39.63582,1641.73],[-120.71491,39.63577,1642.38],[-120.7154,39.6351,1642.31],[-120.7158,39.63475,1635.53],[-120.71565,39.63498,1637.53],[-120.71575,39.63488,1635.84],[-120.71586,39.63469,1634.62],[-120.71592,39.63464,1633.6],[-120.71597,39.63457,1632.88],[-120.716,39.6345,1632.71],[-120.71599,39.63442,1633.47],[-120.71607,39.63431,1632.43],[-120.71614,39.63427,1631.19],[-120.71633,39.63412,1627.58],[-120.71644,39.63401,1626.25],[-120.71647,39.63395,1626.28],[-120.71662,39.6338,1624.83],[-120.7167,39.63359,1625.09],[-120.71669,39.63354,1626.03],[-120.71672,39.63348,1626.33],[-120.71668,39.63344,1627.68],[-120.71663,39.63345,1628.48],[-120.71654,39.63353,1629],[-120.71648,39.63355,1629.6],[-120.71639,39.6336,1630.28],[-120.71639,39.63349,1631.75],[-120.71645,39.63339,1632.24],[-120.71653,39.63331,1632.29],[-120.7166,39.6333,1631.41],[-120.71674,39.63321,1631.4],[-120.71679,39.63314,1632.35],[-120.71685,39.63312,1631.77],[-120.71695,39.63312,1629.95],[-120.71705,39.63307,1629.51],[-120.71717,39.63306,1627.7],[-120.71721,39.63303,1627.92],[-120.71731,39.63301,1626.37],[-120.71738,39.63304,1623.83],[-120.71746,39.63305,1621.63],[-120.71754,39.63309,1618.65],[-120.71758,39.63308,1617.95],[-120.71773,39.63299,1616.54],[-120.71776,39.63295,1616.91],[-120.71785,39.63291,1615.84],[-120.71815,39.6328,1612.34],[-120.71822,39.6328,1610.79],[-120.71834,39.63277,1609.21],[-120.71849,39.63276,1606.96],[-120.71857,39.63277,1605.4],[-120.71864,39.63282,1602.96],[-120.71891,39.63288,1597.99],[-120.71887,39.63303,1593.74],[-120.71918,39.63306,1588.03],[-120.71944,39.63297,1585.2],[-120.71953,39.63289,1584.79],[-120.7196,39.63286,1583.59],[-120.71965,39.63279,1583.6],[-120.71973,39.63276,1582.52],[-120.7198,39.63267,1583.14],[-120.71979,39.63264,1584.1],[-120.71989,39.63255,1583.87],[-120.71994,39.63254,1582.89],[-120.7201,39.63237,1582.22],[-120.72015,39.63231,1582.18],[-120.7202,39.63214,1583.57],[-120.72042,39.63189,1582.24],[-120.72055,39.63175,1582.08],[-120.72068,39.63158,1584.04],[-120.72074,39.63154,1584.06],[-120.72076,39.63149,1585.01],[-120.72096,39.63134,1585.46],[-120.72107,39.63116,1587.35],[-120.72112,39.63111,1587.36],[-120.72135,39.63101,1583.84],[-120.72146,39.63091,1582.3],[-120.72149,39.63078,1582.11],[-120.72148,39.63073,1582.52],[-120.72149,39.63068,1582.51],[-120.72154,39.63065,1581.34],[-120.72166,39.63063,1578.9],[-120.72171,39.63058,1577.73],[-120.72171,39.63053,1577.52],[-120.72183,39.63044,1575.22],[-120.7219,39.63036,1573.95],[-120.72197,39.63032,1572.57],[-120.722,39.63026,1571.71],[-120.72204,39.63013,1570.34],[-120.72202,39.62994,1572.02],[-120.72198,39.62985,1574.3],[-120.72198,39.6298,1575.23],[-120.72207,39.62968,1574.62],[-120.72232,39.62956,1569.14],[-120.72238,39.62949,1567.91],[-120.72255,39.62941,1564.83],[-120.72261,39.62937,1563.79],[-120.72262,39.62921,1565.4],[-120.72268,39.62907,1565.63],[-120.7227,39.62903,1565.7],[-120.72286,39.62893,1563.82],[-120.72311,39.62867,1560.61],[-120.72315,39.62851,1561.28],[-120.72325,39.62843,1561.18],[-120.72336,39.62828,1561.58],[-120.7234,39.62812,1563.05],[-120.72367,39.62781,1561.04],[-120.72371,39.62769,1560.72],[-120.72384,39.62751,1558.76],[-120.72392,39.62726,1558.71],[-120.72401,39.62712,1557.6],[-120.72402,39.62688,1557.91],[-120.72398,39.62675,1558.34],[-120.7239,39.62663,1558.94],[-120.72381,39.62659,1559.9],[-120.72373,39.62651,1560.27],[-120.72373,39.62647,1559.94],[-120.7238,39.62639,1558.52],[-120.72381,39.6264,1558.47],[-120.72384,39.62637,1557.94],[-120.72385,39.62633,1557.59],[-120.7239,39.62628,1556.74],[-120.72391,39.62615,1555.94],[-120.7239,39.62613,1555.97],[-120.72386,39.62553,1554.39],[-120.72378,39.62538,1554.8],[-120.72363,39.62503,1554.99],[-120.72373,39.62474,1554.15],[-120.7238,39.62465,1553.66],[-120.72388,39.6246,1552.85],[-120.72398,39.62456,1551.65],[-120.72429,39.62453,1546.32],[-120.72442,39.62445,1542.67],[-120.72437,39.62448,1544.09],[-120.72442,39.62441,1542.29],[-120.72471,39.62411,1534.98],[-120.72464,39.62405,1535.72],[-120.72461,39.62407,1536.33],[-120.72458,39.62406,1536.75],[-120.72459,39.624,1536.26],[-120.72465,39.62398,1535.08],[-120.72467,39.62392,1534.28],[-120.72465,39.62382,1533.98],[-120.72462,39.6238,1534.46],[-120.72461,39.62378,1534.42],[-120.72462,39.62369,1533.01],[-120.72467,39.62365,1531.32],[-120.72466,39.62358,1530.59],[-120.72463,39.62357,1531.18],[-120.72461,39.62353,1531.14],[-120.72457,39.62337,1530.08],[-120.72461,39.62333,1528.68],[-120.72473,39.62316,1525.59],[-120.72497,39.62314,1523.52],[-120.72503,39.62311,1523.27],[-120.72505,39.62301,1522.82],[-120.72503,39.62295,1523.2],[-120.72497,39.62289,1523.99],[-120.7249,39.62295,1524.17],[-120.72491,39.62297,1523.95],[-120.72495,39.62295,1523.79],[-120.72497,39.62297,1523.53],[-120.72495,39.62296,1523.73],[-120.72495,39.62292,1523.98],[-120.72491,39.62289,1524.53],[-120.72502,39.62279,1524],[-120.72509,39.62268,1523.99],[-120.72509,39.62263,1524.49],[-120.72506,39.6226,1525.19],[-120.72502,39.62257,1526.05],[-120.72493,39.62254,1527.61],[-120.7249,39.6225,1528.48],[-120.7249,39.62243,1529.25],[-120.72488,39.6224,1529.85],[-120.72486,39.6224,1530.12],[-120.72486,39.62238,1530.33],[-120.72486,39.62234,1530.75],[-120.72489,39.62227,1531.11],[-120.72496,39.62225,1530.45],[-120.72494,39.62226,1530.59],[-120.72501,39.6223,1529.24],[-120.72498,39.6223,1529.63],[-120.72496,39.62225,1530.45],[-120.72496,39.62227,1530.23],[-120.72499,39.62225,1530.08],[-120.72513,39.62211,1530.02],[-120.72534,39.62194,1530.51],[-120.72549,39.62191,1529.76],[-120.72575,39.62181,1529.39],[-120.7258,39.62175,1530.03],[-120.72612,39.62164,1528.22],[-120.72663,39.62154,1520.97],[-120.72688,39.62146,1516.97],[-120.72699,39.62138,1516.49],[-120.72708,39.62131,1516.38],[-120.72717,39.6212,1517.31],[-120.72727,39.62112,1517.44],[-120.7272,39.62102,1523.12],[-120.72723,39.62098,1524.1],[-120.72748,39.62092,1522.11],[-120.72764,39.62083,1523.91],[-120.72776,39.62074,1526.75],[-120.72794,39.62069,1526.79],[-120.72799,39.62063,1529.22],[-120.72816,39.62053,1530.37],[-120.72857,39.62035,1533.51],[-120.72867,39.62032,1531.95],[-120.72875,39.62032,1529.88],[-120.729,39.62035,1522.1],[-120.72911,39.62029,1520.68],[-120.72936,39.62029,1513.94],[-120.72976,39.62023,1509.03],[-120.73014,39.6202,1503.01],[-120.73035,39.62013,1500.72],[-120.73067,39.61993,1496.86],[-120.73085,39.6197,1498.93],[-120.73108,39.61946,1501.15],[-120.73119,39.61922,1507.3],[-120.73124,39.61921,1505.58],[-120.73134,39.61913,1505.09],[-120.73154,39.61908,1501.23],[-120.73183,39.61889,1504.61],[-120.73197,39.61883,1504.93],[-120.73234,39.6188,1494.07],[-120.73246,39.61874,1496.86],[-120.73258,39.61867,1502.32],[-120.73269,39.61863,1505.44],[-120.7328,39.61861,1509.89],[-120.73286,39.61863,1509.49],[-120.73301,39.61873,1503.35],[-120.73303,39.61881,1496.35],[-120.73316,39.61886,1495.27],[-120.73336,39.6189,1495.75],[-120.73354,39.6189,1495.97],[-120.73369,39.61894,1491.41],[-120.73407,39.61891,1494.36],[-120.73419,39.61888,1498.55],[-120.73439,39.61889,1499.41],[-120.73506,39.61899,1501.47],[-120.73552,39.61898,1510.68],[-120.73562,39.61906,1505.65],[-120.73587,39.61913,1502.44],[-120.73591,39.61916,1500.39],[-120.73601,39.61918,1499.12],[-120.73605,39.61921,1497.09],[-120.73612,39.61921,1497.18],[-120.7363,39.61917,1499.59],[-120.7364,39.61918,1498.65],[-120.73656,39.61923,1494.46],[-120.73776,39.61911,1474.35],[-120.73806,39.61905,1469.9],[-120.73818,39.61901,1470.2],[-120.73839,39.61886,1475.78],[-120.73847,39.61878,1478.86],[-120.7385,39.61872,1477.92],[-120.73852,39.61843,1478.22],[-120.7385,39.61834,1478.62],[-120.73851,39.61814,1477.11],[-120.73829,39.6181,1485.47],[-120.73835,39.61796,1482.7],[-120.73868,39.61758,1473.22],[-120.73877,39.61742,1472.59],[-120.73882,39.61726,1471.8],[-120.73885,39.61705,1471.19],[-120.73918,39.61673,1458.79],[-120.73928,39.61675,1453.2],[-120.73961,39.61661,1446.68],[-120.74021,39.6166,1434.36],[-120.74032,39.61654,1434.47],[-120.74038,39.61645,1438.06],[-120.74049,39.61636,1441.08],[-120.74081,39.61625,1445.08],[-120.74138,39.61628,1434.71],[-120.74159,39.61624,1431.6],[-120.74172,39.61624,1427.56],[-120.74173,39.61622,1428.25],[-120.74189,39.61622,1422.77],[-120.74197,39.61617,1422.41],[-120.74203,39.6161,1422.37],[-120.74204,39.61605,1422.98],[-120.74211,39.61603,1420.27],[-120.74218,39.61591,1419.05],[-120.74274,39.61529,1403.49],[-120.74304,39.6148,1401.42],[-120.74317,39.61467,1398.07],[-120.74335,39.61455,1391.32],[-120.74372,39.61406,1385.24],[-120.74387,39.61395,1381.35],[-120.74393,39.61396,1377.9],[-120.74404,39.61391,1374.21],[-120.74406,39.61386,1375.21],[-120.74406,39.61398,1370.42],[-120.74404,39.614,1370.69],[-120.74402,39.61412,1367.86],[-120.74399,39.61418,1367.52],[-120.74399,39.61431,1363.6],[-120.74387,39.61473,1358.51],[-120.74384,39.61494,1354.82],[-120.74385,39.61499,1353.23],[-120.74392,39.61497,1350.76],[-120.74397,39.61485,1351.18],[-120.7441,39.61478,1347.53],[-120.74418,39.61468,1346.6],[-120.74431,39.61462,1342.44],[-120.74439,39.61472,1338.32],[-120.7444,39.61479,1337.47],[-120.74449,39.61478,1336.67],[-120.74457,39.61468,1335.96],[-120.74457,39.61464,1336],[-120.74463,39.61462,1334.89],[-120.7447,39.61461,1333.51],[-120.74486,39.61464,1335.16],[-120.74491,39.61462,1335.48],[-120.745,39.6145,1334.14],[-120.7451,39.61444,1334.27],[-120.74514,39.6144,1334.46],[-120.7454,39.61426,1336.54],[-120.74556,39.6142,1340.93],[-120.74562,39.61413,1341.23],[-120.7457,39.61408,1342.64],[-120.7457,39.61403,1341.16],[-120.74574,39.61394,1339.43],[-120.74585,39.61375,1336.95],[-120.74599,39.6136,1338.3],[-120.74624,39.61328,1339.88],[-120.74657,39.61299,1345.72],[-120.7466,39.61294,1345.53],[-120.74665,39.61291,1347.1],[-120.74672,39.6128,1347.49],[-120.74677,39.61277,1349.53],[-120.74684,39.61265,1350.04],[-120.74691,39.61261,1352.64],[-120.7471,39.61234,1358.23],[-120.74711,39.61228,1358.17],[-120.74719,39.6122,1361.18],[-120.74726,39.6121,1362.9],[-120.7473,39.612,1363.09],[-120.74745,39.61186,1366.75],[-120.74763,39.61181,1372.32],[-120.74776,39.61169,1373.19],[-120.74797,39.61156,1373.7],[-120.74816,39.61149,1374.39],[-120.74825,39.61148,1375.56],[-120.74851,39.61149,1381],[-120.74875,39.61147,1381.79],[-120.74942,39.61147,1378.45],[-120.74996,39.61157,1377.53],[-120.75031,39.61168,1383.47],[-120.75037,39.61172,1386.62],[-120.75046,39.61175,1389.38],[-120.75048,39.61173,1388.42],[-120.75045,39.61171,1386.91],[-120.75042,39.61171,1386.57],[-120.75045,39.6117,1386.32],[-120.75042,39.61174,1388.37],[-120.7504,39.6117,1385.74],[-120.75042,39.61173,1387.77],[-120.75052,39.61178,1391.74],[-120.75072,39.61173,1391.6],[-120.75093,39.61168,1392.03],[-120.75098,39.61161,1389.14],[-120.75116,39.61154,1387.75],[-120.75136,39.6114,1383.81],[-120.75183,39.61091,1370.2],[-120.75199,39.61068,1365.54],[-120.75216,39.61054,1365.33],[-120.75228,39.61037,1362.01],[-120.75232,39.61022,1356.66],[-120.75245,39.6101,1355.85],[-120.7524,39.61008,1353.04],[-120.75223,39.61014,1349.74],[-120.75209,39.61017,1346.57],[-120.752,39.61021,1345.51],[-120.75193,39.61021,1343.24],[-120.75186,39.61023,1342.25],[-120.75183,39.61016,1338.3],[-120.75175,39.61006,1332],[-120.75179,39.60991,1329.11],[-120.75172,39.60947,1322.93],[-120.75167,39.60931,1321.64],[-120.75168,39.60912,1321.54],[-120.75166,39.60898,1321.15],[-120.75155,39.60892,1319.29],[-120.75121,39.60864,1313.65],[-120.75112,39.60842,1312.3],[-120.75098,39.60798,1309.39],[-120.75099,39.60786,1309.28],[-120.75111,39.60763,1311.25],[-120.75118,39.6076,1312.85],[-120.75121,39.60757,1313.49],[-120.7512,39.60752,1313.06],[-120.75121,39.60748,1313.17],[-120.7512,39.60743,1312.74],[-120.75115,39.60738,1311.36],[-120.75113,39.60726,1310.77],[-120.75115,39.60722,1311.27],[-120.75114,39.6072,1311],[-120.75115,39.60714,1311.25],[-120.7511,39.60708,1310.29],[-120.75102,39.60703,1308.51],[-120.75095,39.60681,1308.57],[-120.75094,39.60676,1308.95],[-120.75094,39.60668,1309.94],[-120.75097,39.60661,1311.5],[-120.7509,39.60647,1311.42],[-120.75088,39.60636,1312.01],[-120.75083,39.6063,1310.95],[-120.75083,39.60619,1311.91],[-120.75077,39.60589,1313.46],[-120.75083,39.6057,1315.8],[-120.75082,39.60564,1316.06],[-120.75086,39.60556,1316.94],[-120.75088,39.60539,1316.9],[-120.75093,39.60522,1316.82],[-120.75094,39.60519,1316.72],[-120.75105,39.60513,1317.94],[-120.75106,39.60506,1317.47],[-120.75119,39.60496,1317.97],[-120.75123,39.60486,1316.86],[-120.75136,39.60463,1314.77],[-120.75149,39.60446,1312.34],[-120.7516,39.60433,1309.1],[-120.75173,39.60423,1304.62],[-120.75183,39.6041,1299.46],[-120.75184,39.60401,1296.5],[-120.75208,39.60369,1291.55],[-120.75216,39.60342,1288.7],[-120.75224,39.60338,1288.52],[-120.75239,39.60327,1288.46],[-120.75272,39.60314,1289.21],[-120.75291,39.60302,1289.04],[-120.75312,39.60278,1285.65],[-120.75358,39.60257,1282.06],[-120.75364,39.60252,1280.73],[-120.75372,39.6024,1278.29],[-120.75387,39.60232,1278.98],[-120.75407,39.60219,1281],[-120.75411,39.60212,1280.01],[-120.75415,39.6021,1280.91],[-120.75419,39.60197,1276.79],[-120.75423,39.60195,1277.76],[-120.75424,39.6019,1275.98],[-120.75437,39.60173,1275.19],[-120.75467,39.60124,1268],[-120.75479,39.60112,1266.5],[-120.75554,39.60087,1276.7],[-120.75575,39.60073,1270.56],[-120.75593,39.60065,1267.84],[-120.75603,39.60063,1268.87],[-120.75609,39.60068,1274.3],[-120.75622,39.60058,1269.47],[-120.75635,39.60052,1268.15],[-120.7564,39.60052,1269.38],[-120.75644,39.60054,1271.45],[-120.75646,39.60053,1270.99],[-120.75651,39.60053,1271.53],[-120.75663,39.60047,1267.29],[-120.75666,39.60048,1268.56],[-120.75678,39.60043,1265.3],[-120.75704,39.6004,1265.76],[-120.75714,39.60037,1266.11],[-120.7573,39.60025,1264.81],[-120.75739,39.60022,1266.61],[-120.75753,39.60013,1266.82],[-120.75772,39.59995,1263.13],[-120.75788,39.59984,1264.37],[-120.75794,39.59984,1268.05],[-120.75816,39.59963,1272.47],[-120.75823,39.5994,1270.29],[-120.75822,39.59936,1268.62],[-120.75826,39.59933,1271],[-120.7583,39.59922,1271.57],[-120.75828,39.59917,1269.09],[-120.75826,39.59879,1260.88],[-120.75834,39.59851,1260.36],[-120.75851,39.59835,1264.47],[-120.75867,39.59815,1263.72],[-120.75879,39.59781,1260.41],[-120.75886,39.5977,1261.58],[-120.75875,39.59747,1255.27],[-120.75879,39.59737,1255.41],[-120.75887,39.59725,1256.12],[-120.7589,39.59716,1255.61],[-120.75892,39.59686,1252.4],[-120.75891,39.59679,1251.75],[-120.75886,39.59669,1250.62],[-120.7588,39.59645,1250.66],[-120.7588,39.59629,1252.7],[-120.75878,39.59621,1254.01],[-120.75874,39.59615,1254.19],[-120.75859,39.59607,1251.31],[-120.75851,39.59607,1248.76],[-120.7585,39.5961,1247.8],[-120.75851,39.59619,1246.16],[-120.75845,39.59622,1243.49],[-120.75836,39.59615,1240.04],[-120.75826,39.59615,1234.55],[-120.75823,39.59612,1233.58],[-120.75814,39.59595,1233.58],[-120.75806,39.59592,1230.16],[-120.75798,39.59585,1228.1],[-120.75786,39.59568,1228.16],[-120.75779,39.59562,1227.09],[-120.75766,39.59558,1223.63],[-120.75759,39.59552,1223.62],[-120.7576,39.5955,1224.89],[-120.75755,39.59548,1223.75],[-120.75732,39.59528,1226.09],[-120.75696,39.59507,1228.03],[-120.75687,39.59494,1230.04],[-120.75681,39.59482,1230.26],[-120.75677,39.5947,1230.5],[-120.75675,39.59456,1230.79],[-120.75678,39.59436,1231.35],[-120.75685,39.5942,1231.92],[-120.75689,39.59416,1232.11],[-120.75698,39.59415,1233.11],[-120.75706,39.59406,1232.7],[-120.75771,39.59353,1220.13],[-120.75785,39.59345,1221.15],[-120.75811,39.59328,1225.51],[-120.75822,39.59317,1225.04],[-120.75831,39.59306,1222.64],[-120.75877,39.5928,1213.13],[-120.75889,39.59286,1217.53],[-120.759,39.59286,1216.6],[-120.75909,39.59292,1219.92],[-120.75944,39.59298,1218.09],[-120.75983,39.59312,1219.3],[-120.76015,39.5932,1216.96],[-120.7605,39.59332,1216.14],[-120.76111,39.59346,1217.95],[-120.7612,39.59346,1217.45],[-120.76132,39.59341,1214.75],[-120.76163,39.59339,1217.62],[-120.76172,39.59334,1216.11],[-120.76178,39.59333,1216.49],[-120.76202,39.59339,1223.37],[-120.76214,39.59338,1223.72],[-120.76216,39.5934,1225.32],[-120.76229,39.59341,1226.51],[-120.76405,39.59394,1223.38],[-120.76524,39.59452,1223.26],[-120.76427,39.59436,1244.59],[-120.76449,39.59447,1246.08],[-120.76456,39.59453,1248.04],[-120.76441,39.59457,1255.09],[-120.7645,39.5946,1254.42],[-120.76465,39.59459,1249.19],[-120.76494,39.59452,1234.12],[-120.76541,39.59454,1219.42],[-120.76571,39.59455,1214.51],[-120.76654,39.59469,1218.17],[-120.76685,39.59462,1210.93],[-120.76728,39.59457,1201.94],[-120.76733,39.59455,1200.18],[-120.76741,39.5945,1196.5],[-120.76755,39.59449,1193.18],[-120.76768,39.59453,1191.59],[-120.76786,39.59481,1190.7],[-120.76791,39.59493,1190.17],[-120.76802,39.59508,1185.23],[-120.76809,39.59523,1181.22],[-120.76821,39.59563,1169.66],[-120.76821,39.5957,1168.79],[-120.76818,39.59583,1169.91],[-120.7682,39.596,1170],[-120.76828,39.5961,1169.74],[-120.76828,39.59619,1173.69],[-120.7684,39.59621,1170.17],[-120.76843,39.59619,1167.95],[-120.7685,39.59621,1165.78],[-120.7688,39.59634,1160.87],[-120.76906,39.5964,1155.39],[-120.76959,39.59669,1170.48],[-120.76995,39.59673,1171.54],[-120.77039,39.59668,1157.36],[-120.77063,39.5967,1150.01],[-120.77066,39.59671,1149.6],[-120.77063,39.5968,1156.63],[-120.77054,39.59693,1164.48],[-120.77058,39.59697,1165.16],[-120.77076,39.59694,1160.64],[-120.77086,39.59696,1160.84],[-120.77091,39.59691,1157.88],[-120.77124,39.59689,1156.69],[-120.77138,39.5969,1157.17],[-120.77149,39.5969,1157.04],[-120.77166,39.59695,1158.81],[-120.77175,39.59695,1158.06],[-120.77178,39.59693,1156.68],[-120.7725,39.59699,1146.19],[-120.7727,39.59695,1140.74],[-120.77282,39.59696,1139.13],[-120.77301,39.59703,1142.64],[-120.77319,39.59705,1144.9],[-120.77342,39.59698,1143.83],[-120.77352,39.597,1146.53],[-120.77359,39.59692,1142.36],[-120.7736,39.59687,1139.27],[-120.77372,39.59679,1134.72],[-120.77389,39.59673,1131.72],[-120.77406,39.59672,1135.38],[-120.77425,39.59673,1141.4],[-120.77459,39.59657,1141.72],[-120.77457,39.59652,1138.14],[-120.77466,39.59648,1139.41],[-120.77464,39.5964,1134.4],[-120.77471,39.59637,1136.04],[-120.77469,39.5963,1131.63],[-120.77504,39.5957,1139.63],[-120.77502,39.59555,1135.11],[-120.77495,39.59541,1127.48],[-120.77493,39.59534,1124.47],[-120.77493,39.59528,1122.96],[-120.77503,39.59493,1111.33],[-120.77509,39.59478,1101.46],[-120.77517,39.59472,1097.29],[-120.77524,39.59468,1095.34],[-120.77541,39.59461,1091.92],[-120.77557,39.59467,1093.93],[-120.77565,39.59466,1093.23],[-120.77586,39.5947,1093.29],[-120.77594,39.59474,1096.14],[-120.77603,39.59475,1096.72],[-120.77613,39.5948,1101.48],[-120.77628,39.59481,1101.74],[-120.77638,39.59481,1101.51],[-120.77648,39.59484,1104.42],[-120.77646,39.59485,1105.46],[-120.77646,39.59484,1104.45],[-120.77648,39.59485,1105.43],[-120.77648,39.5948,1100.4],[-120.77651,39.59476,1096.36],[-120.77661,39.59475,1095.32],[-120.77667,39.59478,1098.3],[-120.77671,39.59479,1099.38],[-120.77694,39.5948,1100.91],[-120.77699,39.5948,1101.02],[-120.77712,39.59474,1095.91],[-120.77717,39.59472,1094.25],[-120.77721,39.59467,1092.28],[-120.77743,39.59465,1092.98],[-120.77765,39.5947,1098.74],[-120.77781,39.59469,1102.99],[-120.77786,39.59471,1106.24],[-120.778,39.59462,1103.82],[-120.77812,39.59462,1109.35],[-120.77818,39.5946,1110.73],[-120.77822,39.59456,1109.48],[-120.77837,39.5945,1112.3],[-120.77845,39.59445,1112.67],[-120.7788,39.59402,1108.11],[-120.7789,39.59393,1110.21],[-120.77922,39.59334,1099.38],[-120.77927,39.5932,1091.87],[-120.77937,39.59315,1090.67],[-120.7795,39.59314,1090.78],[-120.77963,39.59311,1089.07],[-120.779,39.59398,1118.33],[-120.77887,39.59397,1110.08],[-120.77987,39.59317,1092.34],[-120.77993,39.59319,1093.21],[-120.78007,39.59331,1100.34],[-120.78011,39.59331,1099.63],[-120.78019,39.59334,1099.96],[-120.78043,39.59352,1104.03],[-120.7805,39.59355,1103.6],[-120.78119,39.59366,1091.97],[-120.78165,39.59382,1086.07],[-120.78172,39.59387,1086.29],[-120.78178,39.59398,1090.33],[-120.78179,39.59403,1092.99],[-120.78172,39.59408,1097.85],[-120.78175,39.59421,1104.14],[-120.78189,39.59415,1097.86],[-120.78198,39.59418,1097.64],[-120.78205,39.59425,1099.75],[-120.78205,39.59428,1101.34],[-120.78211,39.59432,1102.31],[-120.78221,39.59431,1100.13],[-120.78225,39.59432,1100.14],[-120.78229,39.59434,1100.78],[-120.7824,39.59444,1105.7],[-120.78254,39.59447,1106.41],[-120.78266,39.59446,1106.15],[-120.78276,39.59448,1107.39],[-120.78332,39.59446,1112.93],[-120.78347,39.5945,1117],[-120.78372,39.59452,1119.44],[-120.78384,39.59458,1122.51],[-120.78401,39.5946,1123.33],[-120.78412,39.59466,1125.92],[-120.78413,39.59469,1127.25],[-120.78419,39.5947,1127.69],[-120.78424,39.59469,1127.57],[-120.78435,39.59471,1129.64],[-120.78446,39.5947,1130.24],[-120.78452,39.59466,1128.57],[-120.78465,39.59466,1130.46],[-120.78482,39.5946,1129.02],[-120.78492,39.5946,1130.27],[-120.78504,39.59455,1127.59],[-120.78521,39.59456,1129.84],[-120.7855,39.59454,1127.76],[-120.78563,39.59461,1132.31],[-120.78573,39.59463,1132.24],[-120.78577,39.59467,1134.72],[-120.78633,39.59473,1125.3],[-120.78731,39.59499,1111.23],[-120.78747,39.59506,1109.15],[-120.78772,39.59521,1112.68],[-120.78748,39.59499,1103.49],[-120.78742,39.59498,1105.5],[-120.78732,39.59487,1102.15],[-120.78707,39.59477,1104.3],[-120.78701,39.59472,1103.11],[-120.78666,39.59457,1103.17],[-120.7867,39.59457,1101.87],[-120.78675,39.5946,1102.54],[-120.78688,39.59463,1100.66],[-120.78722,39.59467,1091.34],[-120.78738,39.59473,1089.09],[-120.78758,39.5948,1084.63],[-120.78782,39.59495,1087.16],[-120.78804,39.59504,1089.67],[-120.78819,39.59505,1089.2],[-120.78843,39.59502,1083.18],[-120.78852,39.59506,1085.49],[-120.78891,39.59499,1067.61],[-120.789,39.59506,1070.88],[-120.78913,39.59511,1070.31],[-120.78916,39.59515,1072.6],[-120.78931,39.59526,1075.24],[-120.78931,39.59528,1076.88],[-120.78929,39.59526,1076.15],[-120.78933,39.59526,1074.33],[-120.78932,39.59528,1076.43],[-120.78934,39.59531,1078.02],[-120.78945,39.59536,1077.79],[-120.78954,39.59539,1076.94],[-120.78955,39.59541,1078.35],[-120.78965,39.59543,1076.46],[-120.78964,39.59541,1074.97],[-120.78962,39.59541,1075.72],[-120.78962,39.59539,1073.88],[-120.78957,39.59539,1075.79],[-120.78959,39.59542,1077.76],[-120.78987,39.59546,1074.51],[-120.78991,39.5955,1077.57],[-120.78996,39.59552,1078.67],[-120.79009,39.59551,1076.33],[-120.79014,39.59549,1074.51],[-120.79019,39.59553,1078.56],[-120.79043,39.59551,1078.08],[-120.79046,39.59552,1079.84],[-120.79053,39.59547,1076.72],[-120.79082,39.59538,1076.53],[-120.79092,39.59533,1076.36],[-120.79099,39.59526,1073.31],[-120.79107,39.59524,1075.65],[-120.79141,39.59501,1072.45],[-120.79199,39.59468,1083.4],[-120.7922,39.59438,1078.36],[-120.79231,39.59401,1066.02],[-120.79241,39.5939,1067.19],[-120.79246,39.59379,1063.61],[-120.79249,39.59379,1065.51],[-120.79254,39.59374,1065.7],[-120.79262,39.5937,1068.65],[-120.79294,39.59337,1067.29],[-120.79322,39.5932,1067.01],[-120.79337,39.59305,1059.53],[-120.79366,39.59295,1053.35],[-120.79376,39.59294,1052.37],[-120.7939,39.59301,1057.33],[-120.79391,39.59303,1058.99],[-120.79405,39.59303,1055.58],[-120.7941,39.59307,1057.89],[-120.79427,39.59312,1056.46],[-120.79433,39.59315,1056.83],[-120.79438,39.59315,1054.92],[-120.79451,39.59322,1056.36],[-120.79458,39.59322,1053.34],[-120.79461,39.59324,1053.85],[-120.79466,39.59324,1051.67],[-120.79469,39.59325,1051.26],[-120.79491,39.59325,1041.91],[-120.79498,39.59329,1041.98],[-120.79507,39.59339,1044.1],[-120.79524,39.59348,1041.15],[-120.79527,39.59353,1042.63],[-120.7953,39.59356,1042.61],[-120.79548,39.59396,1045.88],[-120.79558,39.59443,1052.53],[-120.7957,39.59473,1059.01],[-120.79575,39.59481,1061.75],[-120.79595,39.59498,1067.71],[-120.79627,39.5951,1074.35],[-120.79655,39.59515,1079.63],[-120.79663,39.59516,1081.22],[-120.79676,39.59514,1081.27],[-120.79693,39.59507,1079.19],[-120.79706,39.59496,1075.11],[-120.79713,39.59493,1075.06],[-120.79725,39.59486,1074.93],[-120.79731,39.59484,1075.23],[-120.79735,39.59481,1074.8],[-120.79733,39.5948,1074.04],[-120.79735,39.59476,1072.89],[-120.79752,39.59468,1073.21],[-120.79765,39.59459,1071.5],[-120.79771,39.59457,1071.04],[-120.79799,39.59454,1070.6],[-120.79807,39.59451,1069.01],[-120.79811,39.59452,1068.52],[-120.79816,39.59451,1067.84],[-120.79819,39.59453,1067.3],[-120.79834,39.59451,1064.61],[-120.7985,39.59453,1059.48],[-120.79867,39.59452,1055.2],[-120.79881,39.5945,1052.87],[-120.79908,39.59441,1047.85],[-120.79912,39.59445,1045.27],[-120.799,39.59464,1043.45],[-120.79873,39.59493,1041.2],[-120.79864,39.59506,1041.15],[-120.79854,39.5953,1041.38],[-120.79849,39.59556,1039.83],[-120.7985,39.59565,1037.99],[-120.79863,39.59592,1030.06],[-120.79874,39.59605,1025.41],[-120.79876,39.59617,1020.94],[-120.79864,39.59626,1022.87],[-120.79839,39.59639,1026.11],[-120.79816,39.59664,1025.17],[-120.79798,39.59692,1022.37],[-120.79781,39.59712,1020.94],[-120.79769,39.5973,1017.42],[-120.79761,39.59738,1015.18],[-120.79759,39.59747,1011.21],[-120.79759,39.59753,1008.55],[-120.79763,39.59762,1004.27],[-120.79778,39.59761,1003.46],[-120.79791,39.59749,1008.47],[-120.79797,39.59738,1012.82],[-120.79812,39.59732,1008.81],[-120.79819,39.59728,1006.87],[-120.7983,39.59725,1003.73],[-120.79834,39.59717,1004.64],[-120.79841,39.59712,1004.01],[-120.7984,39.5971,1004.4],[-120.79844,39.59702,1004.85],[-120.79842,39.59693,1007.15],[-120.79843,39.59689,1007.54],[-120.79853,39.59675,1006.98],[-120.79857,39.59667,1007.96],[-120.79865,39.5966,1007.19],[-120.79878,39.59651,1006.07],[-120.79879,39.59646,1007.98],[-120.79887,39.59637,1008.77],[-120.79894,39.59633,1007.5],[-120.79923,39.59632,1003.99],[-120.7994,39.59635,1002.07],[-120.79962,39.59648,995.55],[-120.79998,39.59667,989.47],[-120.80007,39.5967,990.04],[-120.80013,39.59669,990.35],[-120.80018,39.59673,991.73],[-120.80018,39.59675,992.23],[-120.8002,39.59675,992.5],[-120.80026,39.59664,989.69],[-120.80026,39.59657,987.39],[-120.80022,39.59645,988.56],[-120.80015,39.59637,991.11],[-120.80007,39.59619,994],[-120.79998,39.59611,994.86],[-120.7998,39.59598,1000.24],[-120.79962,39.59595,1006.17],[-120.79947,39.59589,1009.19],[-120.79937,39.59583,1012.05],[-120.79933,39.59577,1013.53],[-120.79926,39.59574,1015.32],[-120.7992,39.59557,1014.25],[-120.7992,39.59553,1013.51],[-120.79915,39.59549,1015.62],[-120.79918,39.59546,1014.16],[-120.79919,39.59543,1013.69],[-120.79925,39.59539,1010.34],[-120.79937,39.59535,1003.16],[-120.79944,39.5953,998.57],[-120.79948,39.59522,995.78],[-120.79955,39.59515,992.14],[-120.79957,39.5951,991.34],[-120.7996,39.59507,989.55],[-120.79962,39.59498,988.91],[-120.79967,39.59491,988.72],[-120.79985,39.59472,988.86],[-120.80008,39.59464,987.74],[-120.80015,39.59456,989.06],[-120.80019,39.59454,989.46],[-120.8004,39.59448,991.52],[-120.80059,39.59437,995.02],[-120.80072,39.59433,995.99],[-120.80083,39.59437,1000.58],[-120.80087,39.59433,998.04],[-120.80091,39.59433,998.58],[-120.80098,39.59425,991.94],[-120.80113,39.59417,984.7],[-120.8012,39.59409,987.2],[-120.80128,39.59404,988.23],[-120.80142,39.59402,987.42],[-120.80159,39.59395,988.68],[-120.80175,39.59394,988.17],[-120.8018,39.59391,990.28],[-120.80209,39.59392,990.01],[-120.80221,39.59393,990.4],[-120.8023,39.59397,988.41],[-120.80232,39.59395,989.92],[-120.80254,39.594,988.52],[-120.80275,39.594,990.97],[-120.80292,39.59404,990.38],[-120.80303,39.59401,995.33],[-120.80314,39.59403,995.45],[-120.80331,39.5941,991.2],[-120.80343,39.59412,991.13],[-120.80354,39.59411,994.54],[-120.80357,39.5941,996.34],[-120.80379,39.59413,997.13],[-120.80396,39.59406,1007.16],[-120.80397,39.59403,1010.43],[-120.80403,39.594,1013.98],[-120.8041,39.59394,1020.22],[-120.80424,39.59389,1019.73],[-120.80431,39.59384,1018.76],[-120.80434,39.59379,1018.8],[-120.80424,39.59367,1027.32],[-120.80423,39.59357,1029.27],[-120.8042,39.59355,1031.33],[-120.80418,39.59349,1033.26],[-120.80415,39.59328,1035.03],[-120.80415,39.59319,1033.79],[-120.80419,39.59312,1029.87],[-120.80417,39.59305,1029.76],[-120.80428,39.5929,1018.29],[-120.80434,39.59272,1011.7],[-120.80438,39.59268,1008.43],[-120.80441,39.5926,1005.58],[-120.80445,39.59257,1003.1],[-120.80449,39.59245,1002.68],[-120.80455,39.59243,998.9],[-120.80455,39.59239,999.85],[-120.80492,39.59182,1023.48],[-120.80517,39.59171,1023.07],[-120.80534,39.59173,1012.3],[-120.8054,39.59184,997.11],[-120.80546,39.59182,995.7],[-120.80551,39.59177,998.73],[-120.80559,39.59177,995.52],[-120.80566,39.59174,996.52],[-120.80576,39.59169,998.88],[-120.80578,39.59166,1001.9],[-120.8059,39.59162,1002.98],[-120.80593,39.59163,1000.9],[-120.80609,39.59155,1005.97],[-120.80612,39.5915,1010.65],[-120.80623,39.59148,1010.03],[-120.80634,39.59143,1013.33],[-120.80658,39.5915,1001.38],[-120.80669,39.59149,1001.03],[-120.80677,39.59145,1004.33],[-120.80684,39.59144,1004.51],[-120.80689,39.5914,1008.28],[-120.80695,39.59141,1006.59],[-120.80707,39.5914,1006.42],[-120.80715,39.59137,1008.63],[-120.80724,39.59137,1007.59],[-120.80729,39.59136,1007.89],[-120.80734,39.59132,1010.68],[-120.80741,39.59132,1009.46],[-120.80745,39.59134,1007.26],[-120.8077,39.59121,1004.79],[-120.80779,39.59119,1000.9],[-120.80786,39.59113,998.98],[-120.8079,39.59106,998.7],[-120.80799,39.591,995.51],[-120.80823,39.59088,989.56],[-120.8083,39.59087,987.83],[-120.80841,39.59081,988.34],[-120.8086,39.59076,986.77],[-120.80889,39.59063,991.86],[-120.80898,39.59057,996.15],[-120.80897,39.59052,1000.9],[-120.80904,39.59049,1003.14],[-120.80936,39.59042,1008.04],[-120.80946,39.59041,1008.85],[-120.80954,39.59044,1005.82],[-120.80957,39.59042,1007.71],[-120.80965,39.59042,1007.75],[-120.80967,39.5904,1009.71],[-120.80978,39.59038,1011.71],[-120.80987,39.59039,1010.94],[-120.81,39.59043,1007.61],[-120.81023,39.59034,1012.67],[-120.81032,39.59037,1009.77],[-120.8104,39.59037,1008.27],[-120.81041,39.59034,1009.86],[-120.81048,39.59033,1009.05],[-120.81049,39.59028,1011.69],[-120.81059,39.59022,1012.72],[-120.81063,39.59017,1013.46],[-120.81062,39.59014,1014.65],[-120.81067,39.59004,1015.72],[-120.81079,39.58987,1014.84],[-120.81088,39.58978,1013.24],[-120.81097,39.58973,1010.53],[-120.811,39.58967,1010.79],[-120.81112,39.5896,1006.09],[-120.8111,39.58956,1008.41],[-120.81119,39.58954,1004.29],[-120.81119,39.58951,1005.31],[-120.81127,39.58946,1003.04],[-120.81128,39.5894,1004.66],[-120.8113,39.58939,1004.01],[-120.81134,39.58935,1003.29],[-120.81144,39.58929,999.94],[-120.81156,39.58928,994.02],[-120.81158,39.58926,993.78],[-120.81178,39.58921,984.24],[-120.81185,39.58915,982.34],[-120.81192,39.58899,984.5],[-120.81197,39.58894,983.65],[-120.81195,39.58892,985.67],[-120.81195,39.58887,987.95],[-120.81321,39.5871,999.64],[-120.81313,39.58696,997.65],[-120.81283,39.58683,997.91],[-120.81261,39.58677,997.81],[-120.81245,39.58666,993.43],[-120.81208,39.58644,985.52],[-120.81172,39.58632,985.53],[-120.811,39.5872,1051.01],[-120.81101,39.58701,1038.39],[-120.81098,39.58693,1034.34],[-120.81081,39.58699,1043.86],[-120.81086,39.58676,1029.26],[-120.81085,39.58664,1024.94],[-120.81081,39.58641,1018.69],[-120.81072,39.58621,1017.25],[-120.81071,39.58611,1014.41],[-120.81071,39.58591,1008.29],[-120.8106,39.58573,1007.2],[-120.81053,39.58554,1002.96],[-120.8105,39.58552,1002.41],[-120.81053,39.58549,1001.54],[-120.81051,39.58546,1000.61],[-120.81051,39.5854,998.94],[-120.81056,39.58534,997.9],[-120.81058,39.58535,998.37],[-120.81059,39.58523,995.8],[-120.81071,39.585,992.43],[-120.81067,39.58499,991.97],[-120.81075,39.58478,992.95],[-120.81073,39.58455,996.74],[-120.81066,39.58425,1004.46],[-120.81041,39.584,1001.87],[-120.80987,39.58368,987.09],[-120.80973,39.58344,986.36],[-120.80967,39.5834,984.67],[-120.80962,39.58332,984.66],[-120.80951,39.58331,977.67],[-120.80945,39.58327,974.08],[-120.80943,39.58321,973.34],[-120.80937,39.58317,969.72],[-120.80952,39.58308,980.63],[-120.80957,39.58304,983.34],[-120.80965,39.58283,981.98],[-120.80972,39.5828,984.12],[-120.80978,39.58274,983.95],[-120.80985,39.58266,983.17],[-120.80993,39.58253,980.35],[-120.80997,39.58249,980.68],[-120.80996,39.58247,979.45],[-120.81001,39.58229,975.15],[-120.81,39.5821,972.29],[-120.81004,39.58203,972.58],[-120.81007,39.58201,973.04],[-120.81011,39.582,973.62],[-120.8102,39.58201,976.22],[-120.81024,39.58206,978.54],[-120.81031,39.58208,980.57],[-120.81038,39.58214,981.63],[-120.81052,39.58215,980.49],[-120.81077,39.58224,982.36],[-120.811,39.58226,978.34],[-120.8113,39.58223,972.11],[-120.81138,39.58217,967.84],[-120.81142,39.58211,963.85],[-120.81158,39.58206,964.86],[-120.81164,39.58201,963.1],[-120.81169,39.58201,965.22],[-120.81176,39.58188,963.62],[-120.81184,39.58179,964.6],[-120.8118,39.58172,959.91],[-120.81187,39.58169,963.41],[-120.81187,39.58136,957.67],[-120.81192,39.58118,958.29],[-120.81201,39.58098,961.24],[-120.81202,39.58086,960.96],[-120.81207,39.58075,963.36],[-120.81201,39.58076,959.73],[-120.81203,39.58074,960.73],[-120.81205,39.58038,957.31],[-120.81207,39.58036,958.08],[-120.81205,39.58033,956.08],[-120.81213,39.5801,955.2],[-120.81242,39.57961,941.75],[-120.81248,39.57955,944.07],[-120.81278,39.57933,941.57],[-120.81306,39.57922,942.57],[-120.81346,39.57912,939.04],[-120.81357,39.57907,939.44],[-120.8136,39.57911,939.23],[-120.81383,39.57916,947.68],[-120.81384,39.57914,947.05],[-120.8139,39.57912,949.03],[-120.81394,39.57908,949.3],[-120.81398,39.57907,950.92],[-120.81399,39.579,948.77],[-120.81406,39.57894,948.7],[-120.81407,39.57892,948.05],[-120.81415,39.57889,951.71],[-120.81419,39.57884,952.03],[-120.81417,39.57883,950.29],[-120.8142,39.5788,951.32],[-120.81428,39.57877,955.33],[-120.81427,39.57869,951.64],[-120.81423,39.57864,947.63],[-120.81423,39.5786,946.23],[-120.81428,39.57853,946.69],[-120.81425,39.57849,944.68],[-120.81425,39.57845,943.96],[-120.81455,39.57723,952.32],[-120.81456,39.57699,947.46],[-120.81458,39.57692,946.06],[-120.81465,39.5767,940.69],[-120.81474,39.57659,939.96],[-120.81488,39.57651,939.03],[-120.81516,39.57644,938.18],[-120.81547,39.57643,939.3],[-120.81546,39.57685,971.63],[-120.81571,39.57671,962.01],[-120.81562,39.5771,989.75],[-120.81604,39.57658,948.99],[-120.81612,39.57655,945.87],[-120.81634,39.57654,944.47],[-120.81647,39.57657,946.81],[-120.81657,39.57654,945.81],[-120.81658,39.57656,947.68],[-120.81666,39.57653,946.6],[-120.81677,39.57651,947.01],[-120.81682,39.57648,945.62],[-120.81694,39.57647,949.83],[-120.81714,39.57636,952.62],[-120.81712,39.57636,951.9],[-120.81713,39.57633,950.78],[-120.81727,39.57629,954.82],[-120.81733,39.57623,954.95],[-120.81745,39.57619,959.32],[-120.8176,39.57605,959.84],[-120.81768,39.57602,962.47],[-120.81774,39.57597,963.6],[-120.81778,39.57598,966.03],[-120.8178,39.57593,965.38],[-120.8178,39.57587,963.34],[-120.81783,39.57583,963.76],[-120.81785,39.57575,962.44],[-120.81783,39.5757,959.55],[-120.81785,39.57563,959.03],[-120.81781,39.57558,955.28],[-120.81783,39.57555,956.09],[-120.81783,39.5755,955.11],[-120.81778,39.57545,950.54],[-120.81779,39.57542,950.65],[-120.81763,39.5753,941.14],[-120.81748,39.57529,932.76],[-120.81745,39.57524,933.67],[-120.81707,39.57453,966.76],[-120.81687,39.57445,962.45],[-120.81677,39.57438,960.18],[-120.81686,39.57434,961.98],[-120.8169,39.5743,959],[-120.81696,39.57428,958.01],[-120.81731,39.57417,952.98],[-120.81786,39.57403,951.63],[-120.81809,39.57396,950.57],[-120.81818,39.57392,949.31],[-120.81838,39.57381,948.3],[-120.81855,39.57367,946.99],[-120.81883,39.5734,950.07],[-120.81892,39.57327,951.23],[-120.81903,39.57323,957.75],[-120.81908,39.57315,959.56],[-120.81911,39.57308,960.3],[-120.81907,39.57299,956.02],[-120.8191,39.57293,957.61],[-120.8191,39.57284,956.82],[-120.81904,39.57277,951.96],[-120.81899,39.57261,948.32],[-120.81896,39.57257,946.24],[-120.81893,39.57249,944.21],[-120.81892,39.57232,945.05],[-120.81879,39.57206,940.34],[-120.81877,39.57195,941.1],[-120.81865,39.57161,935.79],[-120.81859,39.57151,933.13],[-120.81863,39.57148,932.23],[-120.81891,39.57158,936.86],[-120.81898,39.57157,937.18],[-120.81938,39.57148,935.7],[-120.81974,39.57129,931.7],[-120.81994,39.57112,929.89],[-120.82,39.571,927.66],[-120.82014,39.5706,918.02],[-120.82023,39.57047,915.22],[-120.82035,39.57036,912.69],[-120.8205,39.57027,912.34],[-120.82065,39.57027,914.16],[-120.82081,39.57032,915.17],[-120.82103,39.57043,913.97],[-120.82115,39.57053,911.77],[-120.82129,39.57037,907.19],[-120.82132,39.57029,906.18],[-120.82141,39.57016,904.06],[-120.82145,39.57005,902.47],[-120.82152,39.56995,900.45],[-120.8217,39.56983,897.7],[-120.82195,39.56971,895.35],[-120.8221,39.56968,894.71],[-120.82232,39.56968,893.91],[-120.8224,39.56971,894.45],[-120.8228,39.56972,898.81],[-120.82285,39.56962,897.7],[-120.82302,39.56947,897.31],[-120.82319,39.5693,897.19],[-120.82324,39.56928,897.76],[-120.82339,39.56909,896.44],[-120.82343,39.56906,896.53],[-120.82356,39.56891,896.42],[-120.82363,39.56877,895.63],[-120.82393,39.56844,895.65],[-120.8249,39.56727,898.76],[-120.82503,39.56715,900.27],[-120.82526,39.56701,904.82],[-120.82542,39.56678,908.07],[-120.82545,39.56668,908.29],[-120.82555,39.5664,909.09],[-120.82561,39.56614,908.57],[-120.82566,39.56602,908.89],[-120.82567,39.56582,906.49],[-120.82572,39.56573,907.02],[-120.82571,39.56571,906.35],[-120.82572,39.56564,905.69],[-120.82572,39.56544,902.09],[-120.82569,39.56523,897.61],[-120.82577,39.56468,895.54],[-120.82576,39.56446,896.26],[-120.82569,39.56417,896.25],[-120.82569,39.56375,897.1],[-120.82568,39.56351,897.41],[-120.82566,39.56342,897.2],[-120.82567,39.56327,897.42],[-120.82566,39.56312,897.11],[-120.82567,39.56304,897.12],[-120.82567,39.56284,896.53],[-120.82569,39.56269,896.26],[-120.82572,39.56266,896.57],[-120.82578,39.56247,896.64],[-120.82583,39.5624,896.88],[-120.82582,39.56236,896.34],[-120.82593,39.56209,894.7],[-120.82623,39.56154,891.05],[-120.82641,39.56142,890.96],[-120.82649,39.56132,889.99],[-120.82694,39.56091,885.56],[-120.82693,39.56094,885.97],[-120.82716,39.5607,883.72],[-120.82729,39.5606,882.95],[-120.82743,39.56053,882.73],[-120.82805,39.56034,881.91],[-120.82824,39.56032,882.03],[-120.82879,39.56036,883.31],[-120.82896,39.56035,883.49],[-120.82916,39.56037,883.91],[-120.82927,39.56034,883.82],[-120.82929,39.56028,883.29],[-120.82929,39.56018,882.11],[-120.82927,39.56015,881.78],[-120.82924,39.56013,881.58],[-120.82911,39.56012,881.55],[-120.82908,39.56013,881.66],[-120.82907,39.56015,881.85],[-120.82904,39.56016,881.94],[-120.82896,39.56001,880.66],[-120.82894,39.55993,880.09],[-120.82895,39.55986,879.55],[-120.82893,39.55984,879.44],[-120.82894,39.55983,879.35],[-120.82891,39.55983,879.41],[-120.82891,39.55981,879.26],[-120.82892,39.55985,879.53],[-120.8289,39.55981,879.29]]}}
