{"type":"Feature","properties":{"name":"Downieville Original","sourceLabel":"Trailforks route plan 785605 \u2014 Downieville Original","sourceUrl":"https://www.trailforks.com/routeplan/view/785605/","importedAt":"2026-09-29T06:04:53.381780+00:00","elevationSource":"AWS Terrain Tiles; GPX elevations are zero","sourceStats":{"distanceMiles":16.18,"climbingFt":781,"descendingFt":4973,"movingMinutes":178,"movingTimeEstimated":true},"gpxSha256":"818a6f672688fd08d8f9ed3d2901b49412ceed0caa6e42829586a57957b98b0d"},"geometry":{"type":"LineString","coordinates":[[-120.66664,39.61453,2156.26],[-120.6666,39.61454,2156.8],[-120.66662,39.61456,2156.75],[-120.66665,39.61466,2157.3],[-120.66664,39.61475,2158.22],[-120.66666,39.61478,2158.26],[-120.66669,39.61492,2159.02],[-120.66672,39.61499,2159.28],[-120.66684,39.61513,2159.29],[-120.66694,39.6152,2158.67],[-120.66716,39.61521,2155.9],[-120.66723,39.61525,2155.32],[-120.66732,39.61534,2155.12],[-120.6673,39.61545,2156.86],[-120.66731,39.61551,2157.55],[-120.66727,39.61556,2158.65],[-120.66727,39.61563,2159.6],[-120.66736,39.61574,2160.29],[-120.66743,39.61576,2159.9],[-120.66748,39.6158,2160],[-120.6675,39.61584,2160.35],[-120.66748,39.61599,2162.72],[-120.66751,39.61607,2163.53],[-120.66749,39.61612,2164.44],[-120.6675,39.61621,2165.34],[-120.66774,39.61648,2165.78],[-120.66782,39.61652,2165.49],[-120.66793,39.61653,2164.45],[-120.66798,39.61663,2164.9],[-120.66794,39.61675,2165.97],[-120.66796,39.61679,2165.93],[-120.66827,39.61698,2163.24],[-120.66854,39.61699,2159.74],[-120.66868,39.61711,2156.28],[-120.66875,39.61724,2152.4],[-120.6687,39.61734,2150.88],[-120.6686,39.61737,2153.35],[-120.66872,39.61737,2149.36],[-120.66916,39.61718,2144.06],[-120.66931,39.61711,2142.33],[-120.66936,39.61702,2143.52],[-120.66942,39.61718,2137.98],[-120.66934,39.61725,2137.08],[-120.66922,39.61729,2138.03],[-120.66914,39.61735,2137.48],[-120.66901,39.61747,2136.4],[-120.66876,39.61773,2134.25],[-120.66867,39.61798,2127.39],[-120.6686,39.6181,2126.62],[-120.66854,39.61818,2126.64],[-120.66847,39.61832,2126.2],[-120.66839,39.61842,2127.93],[-120.66807,39.6186,2137.05],[-120.66799,39.61868,2137.49],[-120.66793,39.61881,2135.95],[-120.66783,39.6189,2137.07],[-120.66779,39.61901,2135.31],[-120.66786,39.61929,2129.08],[-120.6679,39.61937,2127.72],[-120.66798,39.6193,2124.67],[-120.66797,39.61912,2127.52],[-120.66809,39.61894,2127.12],[-120.66815,39.61898,2123.93],[-120.66812,39.61904,2123.31],[-120.66812,39.61919,2121.2],[-120.66816,39.61928,2118.55],[-120.66822,39.61916,2118.32],[-120.66825,39.61906,2118.71],[-120.66838,39.61895,2117.01],[-120.66881,39.61877,2107.25],[-120.66901,39.61874,2101.23],[-120.66916,39.61864,2097],[-120.66926,39.61829,2098.36],[-120.66933,39.61818,2099.7],[-120.66935,39.61806,2103.56],[-120.66937,39.61801,2104.91],[-120.66941,39.61797,2105.59],[-120.66945,39.61797,2104.65],[-120.66977,39.61774,2109.27],[-120.66986,39.61772,2108.68],[-120.67017,39.61773,2103.4],[-120.67029,39.61775,2100.35],[-120.67045,39.61766,2101.32],[-120.67071,39.6176,2098.69],[-120.67107,39.61761,2090.78],[-120.67123,39.61767,2085.61],[-120.67143,39.61766,2083.55],[-120.67157,39.61756,2084.56],[-120.67159,39.61761,2083.02],[-120.67151,39.61772,2081.02],[-120.67156,39.61777,2079.33],[-120.67189,39.61777,2076.42],[-120.67198,39.61782,2074.64],[-120.67225,39.61772,2073.91],[-120.67238,39.61764,2074.21],[-120.67251,39.61768,2072.41],[-120.67265,39.61763,2071.97],[-120.67276,39.61753,2072.42],[-120.67289,39.61746,2072.09],[-120.67323,39.61723,2071.37],[-120.67332,39.61712,2072.04],[-120.67362,39.61707,2071.44],[-120.67375,39.6171,2070.35],[-120.67385,39.61715,2068.92],[-120.67459,39.61714,2070.97],[-120.67471,39.6172,2070.79],[-120.67494,39.61733,2071.13],[-120.6751,39.61747,2070.68],[-120.67523,39.61754,2070.87],[-120.67528,39.6176,2070.75],[-120.6753,39.61766,2070.48],[-120.6753,39.61801,2068.82],[-120.67536,39.61812,2068.61],[-120.67543,39.61817,2068.57],[-120.67575,39.61821,2069.18],[-120.67576,39.61826,2068.97],[-120.67558,39.61839,2067.94],[-120.67568,39.61841,2068.16],[-120.67563,39.61855,2067.35],[-120.67573,39.61854,2067.69],[-120.6758,39.61858,2067.52],[-120.67585,39.61858,2067.55],[-120.67604,39.61862,2067.44],[-120.67635,39.61862,2067.26],[-120.67649,39.61856,2067.46],[-120.67654,39.61856,2067.37],[-120.67671,39.61871,2066.34],[-120.67677,39.61865,2066.49],[-120.67672,39.61853,2067.19],[-120.67672,39.61841,2067.31],[-120.6768,39.6183,2066.91],[-120.6769,39.61808,2066.82],[-120.67699,39.61801,2066.33],[-120.67713,39.61786,2066.07],[-120.67745,39.61769,2063.96],[-120.67757,39.61766,2063.19],[-120.67768,39.61772,2060.87],[-120.67789,39.61773,2058.92],[-120.67816,39.61764,2059.87],[-120.67835,39.61754,2062.18],[-120.67857,39.61763,2059.34],[-120.67877,39.61765,2057.88],[-120.67917,39.61775,2051.96],[-120.67938,39.61776,2050.68],[-120.67957,39.61769,2052.53],[-120.67975,39.61772,2052.58],[-120.67989,39.61777,2051.41],[-120.68003,39.61779,2051.7],[-120.68012,39.61783,2051.22],[-120.6801,39.61782,2051.34],[-120.68008,39.61784,2050.58],[-120.68017,39.6179,2049.77],[-120.68036,39.61791,2050.83],[-120.68046,39.61797,2050.54],[-120.68056,39.61805,2049.07],[-120.68091,39.6182,2046.45],[-120.68111,39.61824,2045.74],[-120.6815,39.61838,2042.3],[-120.68173,39.61835,2042.43],[-120.68183,39.61831,2042.77],[-120.68186,39.61824,2043.58],[-120.68215,39.61829,2041.77],[-120.68232,39.61822,2041.42],[-120.68246,39.61824,2040.52],[-120.68263,39.61813,2039.6],[-120.68267,39.618,2039.48],[-120.68287,39.61786,2036.7],[-120.68284,39.61775,2036.51],[-120.68273,39.6177,2037.47],[-120.68275,39.61764,2036.42],[-120.68282,39.61763,2035.35],[-120.68299,39.61772,2034.27],[-120.68308,39.61779,2033.32],[-120.68314,39.61793,2033.24],[-120.68322,39.61806,2032.43],[-120.68327,39.61835,2031.69],[-120.68321,39.61849,2032.05],[-120.68336,39.61859,2029.5],[-120.68339,39.61866,2028.58],[-120.68342,39.61883,2026.66],[-120.68316,39.61905,2027.33],[-120.68295,39.61908,2028.72],[-120.68281,39.61914,2028.26],[-120.68272,39.61916,2028.23],[-120.68267,39.61923,2027.06],[-120.68254,39.61921,2027.71],[-120.68249,39.61927,2026.4],[-120.68259,39.61931,2025.8],[-120.6827,39.61929,2025.79],[-120.68274,39.61933,2024.61],[-120.68271,39.61944,2021.2],[-120.6829,39.6195,2018.6],[-120.68321,39.61949,2015.91],[-120.68326,39.61944,2016.88],[-120.68357,39.6193,2015.51],[-120.68355,39.6193,2015.86],[-120.68356,39.61932,2015.21],[-120.68369,39.61921,2014.92],[-120.68382,39.61894,2016.31],[-120.68384,39.61883,2016.94],[-120.68389,39.61872,2016.06],[-120.68392,39.61848,2015.27],[-120.68392,39.61833,2014.87],[-120.68395,39.6182,2013.21],[-120.68392,39.61801,2013],[-120.6839,39.61798,2013.5],[-120.68378,39.61749,2009.89],[-120.68365,39.61723,2007.8],[-120.68357,39.61712,2007.21],[-120.68345,39.61703,2007.94],[-120.68297,39.61648,2000],[-120.68269,39.61621,1997.33],[-120.68259,39.61617,1998.38],[-120.68257,39.61612,1998.21],[-120.6826,39.61588,1999.63],[-120.68259,39.61584,2000.54],[-120.68264,39.61554,2003.8],[-120.6827,39.61541,2002.87],[-120.68293,39.61516,1995.37],[-120.68301,39.61502,1990.93],[-120.68284,39.61453,1985.82],[-120.68271,39.61427,1985.8],[-120.6826,39.61416,1988.64],[-120.68259,39.61399,1987.25],[-120.68264,39.61382,1984.43],[-120.68273,39.61372,1981.54],[-120.68277,39.61342,1983.51],[-120.68282,39.61331,1982.94],[-120.68291,39.61338,1979.37],[-120.68288,39.61348,1979.5],[-120.6829,39.61362,1977.31],[-120.6829,39.61377,1975.8],[-120.68292,39.61402,1976.04],[-120.68301,39.61412,1973.64],[-120.68302,39.61429,1974.41],[-120.68307,39.61417,1971.74],[-120.683,39.61407,1973.66],[-120.68299,39.61397,1973.54],[-120.68304,39.61395,1971.84],[-120.68305,39.61362,1972.45],[-120.68309,39.6134,1972.81],[-120.6832,39.61334,1969.1],[-120.68323,39.61314,1968.86],[-120.68334,39.61302,1967.24],[-120.68342,39.61298,1966.73],[-120.68356,39.61301,1964.67],[-120.68358,39.61303,1964.05],[-120.68366,39.61301,1963.97],[-120.68368,39.61298,1964.58],[-120.68386,39.61294,1965.39],[-120.68398,39.61297,1964.58],[-120.68445,39.61285,1968.21],[-120.68483,39.61268,1975.48],[-120.68487,39.61282,1973.11],[-120.68502,39.61291,1973.67],[-120.68502,39.61295,1972.88],[-120.6854,39.6132,1971.78],[-120.68545,39.61325,1970.46],[-120.68553,39.61329,1969.64],[-120.68558,39.61335,1967.59],[-120.68582,39.61345,1964.73],[-120.68612,39.61353,1960.29],[-120.6866,39.6135,1953.31],[-120.68676,39.61351,1950.44],[-120.68694,39.6135,1948.45],[-120.6872,39.61333,1949.98],[-120.68735,39.61325,1950],[-120.68757,39.61319,1952.39],[-120.68767,39.61319,1953.09],[-120.68786,39.61336,1951.29],[-120.68804,39.61345,1951.35],[-120.68814,39.61352,1951.05],[-120.68826,39.61364,1949.93],[-120.68843,39.61374,1949.77],[-120.68865,39.61377,1951.39],[-120.68874,39.61375,1953.13],[-120.68885,39.61376,1953.95],[-120.68887,39.61386,1951.27],[-120.68878,39.61394,1947.39],[-120.68881,39.61414,1944.5],[-120.68878,39.61421,1943.21],[-120.68879,39.61427,1942.97],[-120.68873,39.6145,1943.15],[-120.68873,39.61465,1944.06],[-120.68876,39.61474,1945.16],[-120.68888,39.6149,1947.81],[-120.68895,39.61498,1949],[-120.68904,39.61504,1950.57],[-120.68905,39.61514,1950.51],[-120.68891,39.61537,1946.79],[-120.68889,39.6155,1946.07],[-120.68884,39.61561,1944.52],[-120.68881,39.61573,1943.5],[-120.68886,39.61583,1944.61],[-120.68887,39.61593,1944.32],[-120.68892,39.61605,1944.61],[-120.689,39.61616,1945.36],[-120.68915,39.61621,1947.72],[-120.6893,39.61624,1950.2],[-120.68947,39.61631,1952.44],[-120.68963,39.61632,1954.41],[-120.68979,39.61645,1954.42],[-120.69012,39.61652,1955.42],[-120.69034,39.61669,1952.57],[-120.69052,39.61689,1943.71],[-120.69065,39.61691,1941.17],[-120.69081,39.61686,1941.48],[-120.69112,39.61687,1935.87],[-120.69139,39.61694,1929.54],[-120.6915,39.61693,1928.59],[-120.69155,39.61658,1934.8],[-120.69159,39.6165,1934.22],[-120.69167,39.61615,1933.8],[-120.69174,39.61616,1931.87],[-120.69179,39.61622,1929.89],[-120.69186,39.61625,1927.66],[-120.69187,39.61629,1927.08],[-120.69192,39.61634,1926.03],[-120.69202,39.61634,1925.27],[-120.69218,39.61616,1929],[-120.6923,39.61615,1928.36],[-120.69263,39.61604,1926.08],[-120.69269,39.616,1925.62],[-120.69273,39.61592,1925.98],[-120.69274,39.61579,1927.97],[-120.69277,39.61577,1928],[-120.69283,39.6158,1926.64],[-120.6929,39.61585,1924.87],[-120.69323,39.6159,1924.22],[-120.69335,39.61596,1924.4],[-120.69346,39.61607,1922.5],[-120.69351,39.6161,1922.1],[-120.69366,39.61607,1925.3],[-120.69379,39.61607,1927.4],[-120.69387,39.61605,1929.37],[-120.69401,39.61596,1934.31],[-120.69408,39.61595,1935.5],[-120.69411,39.61601,1934.05],[-120.69417,39.61606,1933.4],[-120.69417,39.61609,1932.53],[-120.69419,39.61613,1931.67],[-120.69425,39.61622,1930.5],[-120.69432,39.61638,1928.56],[-120.69439,39.61646,1928.69],[-120.69451,39.61654,1930.01],[-120.69464,39.61658,1932.37],[-120.69469,39.61662,1932.7],[-120.69478,39.61679,1930.37],[-120.69485,39.61684,1930.21],[-120.69493,39.61688,1930.25],[-120.69509,39.61693,1930.64],[-120.69521,39.61699,1931.18],[-120.69522,39.61706,1930.22],[-120.69526,39.61714,1929.81],[-120.69522,39.61726,1928.79],[-120.69524,39.61733,1930.15],[-120.6952,39.61744,1929.9],[-120.69513,39.61753,1928.52],[-120.695,39.61792,1929.46],[-120.69488,39.61816,1927.01],[-120.69487,39.61824,1927.15],[-120.69488,39.61829,1927.47],[-120.69484,39.61837,1926.19],[-120.69488,39.61849,1927.16],[-120.69494,39.61886,1927.32],[-120.69503,39.61898,1928.46],[-120.69509,39.61928,1927.24],[-120.69518,39.61936,1928.27],[-120.69519,39.61943,1927.79],[-120.69509,39.61939,1926.23],[-120.69505,39.6193,1926.29],[-120.695,39.61925,1925.72],[-120.69488,39.61905,1924.74],[-120.69481,39.61898,1923.45],[-120.69472,39.61877,1922.22],[-120.69464,39.61873,1920.23],[-120.69465,39.61883,1920.2],[-120.69463,39.61892,1919.32],[-120.6947,39.61907,1920.31],[-120.69464,39.61914,1918.46],[-120.69473,39.61921,1920.08],[-120.69474,39.61926,1919.97],[-120.69478,39.6193,1920.58],[-120.69484,39.61943,1920.81],[-120.69489,39.61948,1921.44],[-120.69481,39.61948,1919.75],[-120.69481,39.61943,1920.17],[-120.69472,39.61937,1918.71],[-120.69458,39.61931,1916.1],[-120.69453,39.61924,1915.41],[-120.69443,39.61923,1913.27],[-120.69431,39.6191,1911.25],[-120.69435,39.6189,1912.85],[-120.69434,39.61875,1912.85],[-120.69428,39.61868,1911.06],[-120.69424,39.61879,1910.46],[-120.69423,39.61888,1909.97],[-120.69417,39.61894,1908.2],[-120.69413,39.61902,1907.1],[-120.69404,39.61923,1904.33],[-120.69407,39.61936,1904.58],[-120.69423,39.61953,1907.34],[-120.69427,39.61965,1907.55],[-120.69439,39.61974,1909.36],[-120.69438,39.61984,1908.55],[-120.6943,39.61993,1906.45],[-120.69425,39.62005,1904.71],[-120.69429,39.62025,1903.51],[-120.69436,39.62035,1903.78],[-120.69437,39.62041,1903.15],[-120.69457,39.62071,1902.72],[-120.6946,39.62081,1901.7],[-120.69466,39.6209,1901.42],[-120.69469,39.62092,1901.7],[-120.69476,39.62113,1899.77],[-120.69478,39.62119,1899.24],[-120.69487,39.62128,1899.59],[-120.69489,39.62142,1897.67],[-120.69496,39.62151,1897.34],[-120.69499,39.62158,1896.61],[-120.69508,39.62173,1895.44],[-120.69521,39.62179,1896.23],[-120.69527,39.6219,1894.89],[-120.69538,39.62196,1895.05],[-120.69555,39.6221,1894.37],[-120.69571,39.62237,1891.54],[-120.69576,39.62253,1890.27],[-120.69585,39.62258,1890.51],[-120.69588,39.62267,1890.04],[-120.69593,39.6227,1890.07],[-120.69602,39.62281,1889.37],[-120.69629,39.62302,1887.37],[-120.6964,39.62297,1887.91],[-120.69635,39.623,1887.6],[-120.69642,39.62299,1887.72],[-120.69649,39.62297,1887.9],[-120.69658,39.62297,1887.89],[-120.69665,39.62291,1888.28],[-120.69665,39.62277,1889.2],[-120.69663,39.6227,1889.97],[-120.69673,39.62268,1890.46],[-120.69678,39.62271,1890.28],[-120.69681,39.62287,1888.96],[-120.69681,39.62299,1888.05],[-120.69686,39.62314,1886.72],[-120.69682,39.62314,1886.64],[-120.69683,39.62324,1885.67],[-120.69694,39.62352,1882.84],[-120.69702,39.62352,1883.05],[-120.697,39.62353,1882.96],[-120.69702,39.62356,1882.46],[-120.69707,39.6236,1881.58],[-120.69727,39.62373,1878.39],[-120.69746,39.62379,1876.37],[-120.69751,39.62388,1873.7],[-120.69782,39.62397,1869.28],[-120.69811,39.62403,1865.33],[-120.69829,39.62401,1864.75],[-120.69845,39.62405,1863.22],[-120.69858,39.62419,1859.21],[-120.6988,39.62427,1859.17],[-120.69901,39.62432,1861.33],[-120.69922,39.62445,1860.57],[-120.69936,39.62449,1860.94],[-120.69954,39.62458,1859.62],[-120.69966,39.62462,1859.38],[-120.69986,39.62458,1863.06],[-120.70031,39.62472,1861.25],[-120.70067,39.62496,1855.88],[-120.70086,39.62495,1856.08],[-120.70104,39.62501,1851.96],[-120.70117,39.6251,1846.4],[-120.70127,39.6252,1840.69],[-120.70142,39.62518,1837.23],[-120.70145,39.62508,1838.51],[-120.70151,39.62502,1838.13],[-120.70151,39.62493,1840.17],[-120.70164,39.62499,1834.76],[-120.70176,39.62501,1830.72],[-120.70203,39.62501,1825.09],[-120.70233,39.6249,1821.29],[-120.70241,39.62483,1821.19],[-120.70241,39.62476,1822.77],[-120.70254,39.62474,1820.69],[-120.70261,39.62479,1818.49],[-120.70269,39.62486,1815.81],[-120.70284,39.62481,1814.04],[-120.70295,39.62476,1813.9],[-120.70307,39.62475,1813.03],[-120.7032,39.62478,1811.41],[-120.70331,39.62475,1811.27],[-120.70343,39.62482,1809.27],[-120.70348,39.62481,1809.14],[-120.70352,39.62477,1809.61],[-120.70372,39.62474,1808.39],[-120.70378,39.6247,1808.61],[-120.70386,39.62461,1809.64],[-120.70406,39.62455,1808.92],[-120.70428,39.62444,1809.34],[-120.70455,39.62436,1808.92],[-120.70473,39.62433,1808.24],[-120.70486,39.62436,1806.26],[-120.70521,39.62447,1799.2],[-120.70548,39.62447,1796.42],[-120.70559,39.62456,1792.3],[-120.70599,39.62456,1788.81],[-120.70601,39.62461,1787.42],[-120.7062,39.62464,1785.97],[-120.7063,39.62457,1786.23],[-120.7065,39.6245,1784.83],[-120.70662,39.62454,1781.89],[-120.70688,39.6245,1778.89],[-120.70705,39.6245,1776.32],[-120.7072,39.62444,1775.56],[-120.70763,39.62433,1771.85],[-120.70772,39.62426,1772.79],[-120.70799,39.62414,1771.29],[-120.70872,39.62394,1763.39],[-120.70895,39.62392,1760.47],[-120.70927,39.62379,1760.1],[-120.7094,39.62372,1760.21],[-120.70951,39.62374,1757.94],[-120.70967,39.6237,1756.18],[-120.7098,39.62365,1754.82],[-120.71001,39.62362,1751.52],[-120.71035,39.62346,1750.15],[-120.71082,39.6234,1744.93],[-120.71144,39.62337,1736.83],[-120.71162,39.62341,1733.3],[-120.71175,39.62341,1731.67],[-120.71187,39.62345,1728.56],[-120.71203,39.62341,1726.93],[-120.71251,39.62321,1721.96],[-120.71269,39.62316,1719.18],[-120.71317,39.62279,1713.08],[-120.71339,39.62273,1707.52],[-120.71368,39.62271,1701.42],[-120.71392,39.62264,1699.16],[-120.71399,39.62263,1698.26],[-120.71412,39.62252,1699.58],[-120.71441,39.6224,1696.74],[-120.71459,39.62241,1692.08],[-120.71476,39.6224,1688.13],[-120.71495,39.6223,1686.6],[-120.71514,39.62223,1685.29],[-120.71545,39.6222,1681.84],[-120.71558,39.62215,1682.49],[-120.71562,39.62215,1682.56],[-120.71563,39.62223,1679.66],[-120.71553,39.62228,1678.46],[-120.71563,39.62232,1677.11],[-120.71581,39.62229,1677.79],[-120.71596,39.62237,1674.63],[-120.71636,39.62233,1672.47],[-120.71656,39.62227,1670.46],[-120.71687,39.62224,1665.1],[-120.717,39.62225,1662.49],[-120.7172,39.62219,1661.06],[-120.7173,39.62221,1658.35],[-120.7175,39.62217,1654.82],[-120.71759,39.62206,1656.03],[-120.71764,39.62205,1655.7],[-120.71767,39.62203,1656.1],[-120.7177,39.62205,1655.17],[-120.71772,39.62209,1653.6],[-120.71772,39.62213,1652.19],[-120.71781,39.62222,1647.74],[-120.71783,39.62226,1646.6],[-120.71802,39.62246,1640.62],[-120.71815,39.6225,1640.34],[-120.71851,39.62253,1643.23],[-120.71885,39.62252,1644.76],[-120.71938,39.6226,1638.58],[-120.72003,39.62273,1627.26],[-120.72015,39.62274,1624.88],[-120.72046,39.62271,1620.14],[-120.72101,39.62262,1615.71],[-120.72122,39.62256,1616.5],[-120.72152,39.62253,1615.05],[-120.72174,39.62235,1618.97],[-120.72195,39.62224,1617.77],[-120.72209,39.62213,1615.82],[-120.72213,39.62212,1614.23],[-120.72215,39.62224,1611.65],[-120.72212,39.62238,1609.85],[-120.72204,39.6225,1609.16],[-120.7219,39.6226,1608.07],[-120.72185,39.62274,1604.41],[-120.72175,39.62285,1602.38],[-120.72142,39.62296,1601.99],[-120.72146,39.62306,1598.25],[-120.72142,39.62313,1596.29],[-120.72132,39.62316,1596.24],[-120.72133,39.62324,1593.56],[-120.72137,39.62327,1592.19],[-120.72177,39.62311,1591.91],[-120.72194,39.62302,1590.98],[-120.72203,39.62294,1592.06],[-120.72217,39.6229,1589.58],[-120.72232,39.62281,1588.92],[-120.72245,39.6228,1585.14],[-120.72238,39.62289,1583.23],[-120.72227,39.6229,1586.33],[-120.72223,39.62298,1583.92],[-120.72238,39.62298,1578.98],[-120.72254,39.62293,1576.38],[-120.72261,39.62288,1576.32],[-120.72261,39.62297,1572.58],[-120.72263,39.62308,1568.99],[-120.72275,39.62309,1565.74],[-120.72282,39.62297,1566.63],[-120.72308,39.62281,1563.52],[-120.72317,39.6227,1563.15],[-120.72325,39.62258,1562.83],[-120.7234,39.62223,1561.04],[-120.72354,39.62215,1557.27],[-120.72364,39.62206,1555.52],[-120.7237,39.62217,1552.02],[-120.72364,39.6224,1552.23],[-120.72381,39.62239,1547.6],[-120.72385,39.62228,1547.23],[-120.72391,39.62229,1546.09],[-120.72398,39.62227,1544.9],[-120.72418,39.6223,1541.2],[-120.72424,39.62237,1539.76],[-120.72487,39.62212,1532.76],[-120.72493,39.62215,1531.82],[-120.72488,39.62221,1531.87],[-120.72488,39.62223,1531.67],[-120.72492,39.62225,1530.95],[-120.72506,39.62217,1530.12],[-120.72527,39.62198,1530.53],[-120.72539,39.62194,1530.16],[-120.72551,39.62192,1529.52],[-120.7256,39.62186,1529.58],[-120.72575,39.62182,1529.25],[-120.72615,39.62166,1527.61],[-120.72661,39.62155,1521.11],[-120.72674,39.62149,1519.81],[-120.72678,39.62145,1519.89],[-120.72688,39.62139,1519.06],[-120.72706,39.62123,1519.58],[-120.72717,39.62108,1521.52],[-120.72719,39.62099,1524.47],[-120.72737,39.62099,1520.87],[-120.72754,39.62091,1521.56],[-120.72822,39.62049,1531.4],[-120.72836,39.62037,1535.31],[-120.72872,39.62028,1531.76],[-120.72899,39.6203,1524],[-120.7291,39.62026,1522.02],[-120.72937,39.62022,1516.67],[-120.72972,39.62027,1507.81],[-120.72989,39.62023,1506.76],[-120.73019,39.6201,1506.13],[-120.73042,39.61994,1504.74],[-120.73053,39.61977,1507.08],[-120.73073,39.61962,1506.85],[-120.73083,39.61953,1507.27],[-120.7309,39.61941,1510.6],[-120.73092,39.61929,1515.59],[-120.73119,39.61918,1509.04],[-120.73134,39.61913,1505.09],[-120.73148,39.6191,1502.09],[-120.73154,39.61905,1502.78],[-120.73167,39.61899,1502.57],[-120.73166,39.61901,1501.59],[-120.73176,39.61894,1503.26],[-120.73184,39.61893,1501.71],[-120.73192,39.61888,1502.87],[-120.73205,39.61885,1501.23],[-120.73212,39.61886,1498.11],[-120.73221,39.61885,1495.62],[-120.7324,39.6188,1492.72],[-120.73252,39.61874,1496.17],[-120.73272,39.6187,1498.46],[-120.7329,39.61882,1492.36],[-120.73305,39.61886,1492.77],[-120.7338,39.61893,1492.28],[-120.7343,39.61889,1498.54],[-120.73462,39.61895,1496.12],[-120.73491,39.61902,1494.66],[-120.73511,39.61902,1499.98],[-120.73523,39.619,1504.2],[-120.73531,39.61904,1502.52],[-120.73554,39.61907,1504.2],[-120.73569,39.61906,1506.28],[-120.73591,39.61914,1501.79],[-120.73642,39.61925,1493.7],[-120.73659,39.61926,1492.11],[-120.73676,39.61927,1490.19],[-120.73692,39.61925,1489.71],[-120.73708,39.61921,1490.47],[-120.73726,39.6192,1486.63],[-120.73751,39.61915,1482.17],[-120.73797,39.619,1477.37],[-120.73805,39.61906,1469.26],[-120.73824,39.61906,1463.69],[-120.7384,39.61895,1467.69],[-120.73857,39.6188,1471.86],[-120.73864,39.61866,1470.21],[-120.73861,39.61856,1473.75],[-120.73861,39.61844,1474.2],[-120.73867,39.61814,1469.9],[-120.73869,39.61799,1467.43],[-120.73877,39.61784,1464.61],[-120.7389,39.61771,1459.45],[-120.73897,39.61758,1459.28],[-120.73901,39.61756,1457.57],[-120.73906,39.61745,1457.82],[-120.73905,39.61714,1460.29],[-120.73908,39.61706,1458.71],[-120.7392,39.61689,1453.28],[-120.73921,39.61679,1455.54],[-120.73929,39.61682,1450.43],[-120.73954,39.61672,1442.21],[-120.73973,39.61668,1440.33],[-120.73984,39.61668,1438.61],[-120.73991,39.61664,1440.24],[-120.74022,39.6166,1434.08],[-120.74033,39.61653,1434.75],[-120.74037,39.61641,1440.55],[-120.74051,39.61635,1441.33],[-120.74063,39.61632,1441.58],[-120.74154,39.61624,1432.87],[-120.74168,39.61628,1426.83],[-120.74192,39.61625,1420.3],[-120.74222,39.61594,1416.67],[-120.74242,39.61566,1413.03],[-120.74251,39.61548,1412.22],[-120.74261,39.61534,1409.46],[-120.74276,39.61517,1404.73],[-120.74283,39.61505,1403.78],[-120.74295,39.61495,1401],[-120.74312,39.61477,1397.97],[-120.74325,39.61467,1393.67],[-120.74333,39.61452,1392.94],[-120.74344,39.61437,1389.6],[-120.7436,39.61425,1384.66],[-120.7437,39.61414,1383.59],[-120.74378,39.61411,1380.49],[-120.74385,39.61405,1378.83],[-120.74389,39.61406,1376.44],[-120.74392,39.61412,1372.98],[-120.74386,39.61427,1371.22],[-120.74384,39.61457,1363.89],[-120.7438,39.61472,1361.95],[-120.74382,39.61493,1355.91],[-120.74384,39.61497,1354.12],[-120.74389,39.61493,1352.92],[-120.74397,39.61482,1351.81],[-120.74409,39.61469,1349.84],[-120.74421,39.61459,1347.02],[-120.74431,39.61453,1343.71],[-120.74439,39.61442,1341.75],[-120.7445,39.61436,1339.28],[-120.74457,39.61429,1337.67],[-120.7446,39.61432,1336.57],[-120.74462,39.61433,1335.91],[-120.74463,39.61443,1335.21],[-120.74453,39.61455,1336.99],[-120.74452,39.61458,1337.1],[-120.74455,39.61459,1336.45],[-120.74453,39.61459,1336.86],[-120.74454,39.61461,1336.6],[-120.74456,39.61457,1336.28],[-120.74461,39.61457,1335.2],[-120.74466,39.61458,1334.17],[-120.74468,39.6146,1333.85],[-120.74463,39.61459,1334.82],[-120.74469,39.61461,1333.71],[-120.74488,39.61461,1334.92],[-120.74495,39.61449,1333.75],[-120.74506,39.61438,1332.38],[-120.74529,39.61425,1334.36],[-120.74535,39.61424,1335.22],[-120.74552,39.61409,1336.61],[-120.74563,39.61388,1334.29],[-120.74567,39.61386,1334.76],[-120.74568,39.61381,1333.42],[-120.74572,39.61377,1333.06],[-120.74573,39.61372,1331.83],[-120.74584,39.6136,1332.28],[-120.74598,39.61347,1334.31],[-120.74609,39.61339,1336.13],[-120.7461,39.61334,1334.91],[-120.7462,39.61327,1337.62],[-120.74623,39.6132,1336.91],[-120.74628,39.61315,1337.6],[-120.74631,39.61315,1339.09],[-120.74639,39.61304,1338.87],[-120.74646,39.61297,1339.56],[-120.74662,39.61289,1344.84],[-120.74681,39.6127,1349.7],[-120.74684,39.6126,1348.97],[-120.74689,39.61252,1349.82],[-120.74696,39.61245,1352.08],[-120.74706,39.61231,1355.7],[-120.74711,39.61228,1358.17],[-120.74711,39.61225,1357.86],[-120.74723,39.61213,1362.04],[-120.74726,39.61207,1362.46],[-120.74734,39.61203,1365.23],[-120.74738,39.61199,1366.25],[-120.74747,39.6118,1366.33],[-120.74755,39.61171,1367.09],[-120.7476,39.61169,1368.19],[-120.74776,39.61166,1372.23],[-120.74801,39.61152,1372.78],[-120.7482,39.61143,1371.96],[-120.74868,39.61148,1381.85],[-120.74881,39.61147,1382.3],[-120.74902,39.6115,1383.73],[-120.74945,39.61154,1382.73],[-120.74989,39.61163,1381.78],[-120.75011,39.6117,1384.46],[-120.75021,39.61171,1384.35],[-120.75031,39.61176,1388.44],[-120.75052,39.61182,1394.05],[-120.75064,39.61183,1395.96],[-120.75071,39.61185,1397.89],[-120.7508,39.61185,1398.96],[-120.75086,39.61184,1399.17],[-120.75108,39.61186,1402],[-120.7512,39.61182,1401],[-120.75143,39.61182,1402.47],[-120.75172,39.61186,1404.63],[-120.75191,39.61183,1403.53],[-120.75202,39.61186,1403.11],[-120.75204,39.61189,1403.08],[-120.752,39.61188,1403.52],[-120.75202,39.6119,1403.43],[-120.75214,39.61192,1401.39],[-120.75207,39.61194,1402.19],[-120.75212,39.61195,1401.17],[-120.75314,39.61195,1385.17],[-120.75338,39.61189,1382.74],[-120.75386,39.61186,1372.76],[-120.75413,39.61181,1370.42],[-120.75431,39.61175,1370.68],[-120.75455,39.61174,1369.01],[-120.7548,39.61176,1366.59],[-120.75504,39.61181,1363.33],[-120.75559,39.61196,1354.87],[-120.75606,39.61206,1350.16],[-120.75625,39.61208,1349.7],[-120.75644,39.61211,1348.74],[-120.75693,39.61226,1342.49],[-120.75714,39.61234,1338.67],[-120.75756,39.61245,1333.61],[-120.75802,39.6125,1332.5],[-120.75814,39.6126,1328.4],[-120.75836,39.6127,1324.88],[-120.75861,39.61276,1322.85],[-120.75882,39.61287,1318.85],[-120.75925,39.613,1315.77],[-120.75973,39.61324,1308.18],[-120.75998,39.61331,1304.79],[-120.76022,39.61333,1302.53],[-120.76042,39.6134,1298.55],[-120.7606,39.6134,1296.77],[-120.76074,39.61347,1293.42],[-120.76085,39.61355,1289.73],[-120.76104,39.61357,1289.11],[-120.76149,39.61351,1295.17],[-120.76158,39.61353,1295.31],[-120.76183,39.61362,1293.62],[-120.76208,39.61378,1288.87],[-120.76253,39.61399,1279.55],[-120.7629,39.61408,1271.47],[-120.76316,39.61409,1266.71],[-120.76328,39.61406,1265.74],[-120.76346,39.61397,1264.45],[-120.76356,39.61385,1264.86],[-120.7635,39.61371,1269.05],[-120.76341,39.61357,1272.75],[-120.7634,39.61347,1274.45],[-120.76355,39.61347,1271.37],[-120.76392,39.61341,1266.18],[-120.76424,39.61338,1263.17],[-120.76445,39.61341,1261.57],[-120.76461,39.61349,1258.47],[-120.76478,39.61355,1256.35],[-120.76483,39.61346,1260.54],[-120.76487,39.61335,1265.38],[-120.76498,39.61332,1267.29],[-120.76523,39.61334,1267.16],[-120.76658,39.61355,1237.41],[-120.76678,39.61352,1232.14],[-120.76732,39.6131,1225.13],[-120.7678,39.61263,1217.72],[-120.76792,39.61235,1219.9],[-120.76836,39.61199,1208.01],[-120.76875,39.61171,1193.9],[-120.76879,39.61154,1198.48],[-120.76882,39.61138,1204.18],[-120.76921,39.61122,1200.89],[-120.76992,39.6108,1198.18],[-120.77062,39.61049,1192.71],[-120.77085,39.61038,1187.83],[-120.77099,39.61023,1188.38],[-120.77111,39.61016,1186.42],[-120.77121,39.60992,1195.1],[-120.77129,39.60983,1197.92],[-120.77159,39.60986,1189.57],[-120.77162,39.60981,1193.92],[-120.77201,39.60993,1184.1],[-120.77233,39.60999,1181.43],[-120.7729,39.61,1178.65],[-120.77319,39.60992,1176.61],[-120.77333,39.60985,1175.69],[-120.77346,39.60976,1175.32],[-120.77358,39.60961,1176.85],[-120.77374,39.60951,1175.11],[-120.7739,39.60947,1171.29],[-120.77407,39.60939,1167.53],[-120.77406,39.60924,1172.84],[-120.77417,39.60915,1171.54],[-120.77427,39.60902,1171.58],[-120.77436,39.60876,1171.94],[-120.77461,39.60835,1161.23],[-120.77464,39.6082,1159.1],[-120.77472,39.60805,1156.23],[-120.77474,39.60788,1154.64],[-120.77474,39.60735,1149],[-120.77469,39.60698,1139.01],[-120.77465,39.60688,1136.7],[-120.7746,39.60657,1123.17],[-120.77464,39.6065,1119.11],[-120.7747,39.60619,1113.65],[-120.77485,39.60611,1108.08],[-120.77491,39.606,1107.52],[-120.77494,39.60585,1109.09],[-120.77508,39.60551,1103.42],[-120.77527,39.60523,1099.27],[-120.77538,39.60512,1098.33],[-120.77553,39.60504,1093.7],[-120.77576,39.60494,1089.51],[-120.77595,39.60489,1084.18],[-120.77633,39.60471,1080.54],[-120.77653,39.60467,1080.07],[-120.77692,39.60468,1076.34],[-120.77722,39.60462,1080.52],[-120.77766,39.60459,1080.96],[-120.77774,39.60457,1081.55],[-120.77787,39.60451,1083.33],[-120.7782,39.60447,1081.82],[-120.77827,39.60449,1078.94],[-120.77862,39.60446,1076.03],[-120.77879,39.60449,1071.03],[-120.77896,39.60448,1069.35],[-120.77912,39.60444,1069.68],[-120.77947,39.60433,1067.52],[-120.77973,39.60422,1061.5],[-120.77995,39.60409,1062.9],[-120.77993,39.6041,1063.08],[-120.77999,39.60411,1062.44],[-120.78,39.60409,1062.29],[-120.78018,39.60416,1063.63],[-120.78026,39.60411,1063.61],[-120.78038,39.60411,1065.05],[-120.78066,39.60418,1066.78],[-120.78078,39.60424,1067.45],[-120.78094,39.60442,1068.75],[-120.78102,39.60445,1067.71],[-120.78116,39.60446,1066.3],[-120.78134,39.60427,1068.04],[-120.78134,39.6042,1067.89],[-120.78145,39.60391,1068.41],[-120.78153,39.60381,1068.34],[-120.78164,39.60373,1069.02],[-120.7818,39.60365,1070.59],[-120.782,39.60361,1072.18],[-120.78218,39.60362,1073.96],[-120.78271,39.60374,1077.12],[-120.78299,39.60378,1078.24],[-120.78309,39.60375,1078.23],[-120.78323,39.60374,1078.55],[-120.78359,39.60363,1078.94],[-120.78383,39.60346,1078.96],[-120.78413,39.60317,1078.63],[-120.78447,39.60293,1079.01],[-120.78467,39.60272,1076.95],[-120.7851,39.60215,1079.24],[-120.78515,39.60204,1080.15],[-120.78516,39.60174,1079.12],[-120.7852,39.60161,1080.4],[-120.78529,39.60151,1081.23],[-120.78554,39.60136,1080.78],[-120.78575,39.60133,1080.74],[-120.78594,39.60128,1077.96],[-120.78613,39.60121,1076.05],[-120.78645,39.60105,1070.57],[-120.78671,39.60083,1069.89],[-120.78682,39.60061,1068.02],[-120.78686,39.60048,1066.55],[-120.787,39.60022,1067.74],[-120.78759,39.5996,1059.38],[-120.78775,39.5995,1056.16],[-120.78798,39.59946,1056.91],[-120.78824,39.59945,1053.97],[-120.78851,39.59949,1050.03],[-120.78877,39.59955,1047.1],[-120.79019,39.59994,1051.15],[-120.79049,39.59998,1051.23],[-120.79083,39.59996,1048.8],[-120.7912,39.59996,1051.26],[-120.79172,39.59983,1048.05],[-120.79221,39.59975,1051.52],[-120.79234,39.59964,1045.66],[-120.79247,39.59961,1044.96],[-120.79275,39.59961,1045.94],[-120.79306,39.59966,1047.12],[-120.79325,39.59967,1045.38],[-120.79346,39.59964,1039.95],[-120.79368,39.59968,1040.28],[-120.79396,39.59969,1038.95],[-120.79421,39.59964,1035.38],[-120.79467,39.59943,1027.17],[-120.79487,39.59937,1028.79],[-120.79514,39.59939,1040.44],[-120.79533,39.59927,1039.27],[-120.79594,39.59879,1031.57],[-120.79615,39.59865,1026.82],[-120.79631,39.59851,1025.09],[-120.79645,39.59832,1022.87],[-120.79662,39.59814,1019.89],[-120.79683,39.59799,1016.27],[-120.79696,39.59792,1013.34],[-120.79734,39.59777,1006.61],[-120.7975,39.59769,1004.82],[-120.79763,39.59762,1004.27],[-120.79782,39.59748,1009.5],[-120.7979,39.59738,1014.1],[-120.79798,39.59732,1014.31],[-120.7982,39.59727,1006.68],[-120.7983,39.59721,1004.49],[-120.79833,39.59715,1005.12],[-120.79838,39.59712,1004.61],[-120.79841,39.59708,1004.49],[-120.7984,39.59693,1007.86],[-120.79846,39.59689,1006.38],[-120.79849,39.59683,1006.06],[-120.79855,39.59679,1004.74],[-120.79865,39.59656,1008.41],[-120.79865,39.59667,1005.13],[-120.79868,39.59662,1005.87],[-120.79886,39.59651,1003.09],[-120.79902,39.59653,998.17],[-120.79918,39.59651,998.6],[-120.79944,39.59638,1000.93],[-120.79972,39.59659,991.37],[-120.80006,39.59678,990.99],[-120.80012,39.5968,992.37],[-120.80017,39.59677,992.58],[-120.80015,39.59674,991.6],[-120.80021,39.59667,990.4],[-120.80023,39.59657,987.52],[-120.80021,39.59644,988.84],[-120.80015,39.59627,992.41],[-120.80007,39.59619,994],[-120.79991,39.59606,996.98],[-120.79983,39.59602,999.91],[-120.79956,39.59596,1007.86],[-120.79951,39.5959,1008.13],[-120.79944,39.59588,1010.01],[-120.79938,39.59583,1011.69],[-120.79934,39.59579,1013.12],[-120.79918,39.59553,1014.49],[-120.79918,39.59544,1014.21],[-120.79922,39.59517,1013.65],[-120.79939,39.595,1005.58],[-120.79949,39.59496,999.23],[-120.79959,39.59494,992.53],[-120.79979,39.59496,988.58],[-120.79976,39.59495,988.35],[-120.79976,39.59492,988.83],[-120.79982,39.5948,989.6],[-120.79992,39.59445,992.67],[-120.80002,39.5943,998.37],[-120.80017,39.59419,999.46],[-120.80026,39.59414,999.06],[-120.80045,39.59411,995.59],[-120.80076,39.59395,1000.3],[-120.80088,39.59391,1000.56],[-120.80097,39.59406,991.04],[-120.80106,39.59404,990.81],[-120.80121,39.59396,992.18],[-120.80127,39.59398,990.63],[-120.80131,39.59394,991.61],[-120.80157,39.59399,987.2],[-120.8016,39.59395,988.6],[-120.80175,39.5939,991.6],[-120.80206,39.59391,990.9],[-120.80236,39.59395,990.22],[-120.80251,39.594,988.17],[-120.80265,39.59399,990.62],[-120.80282,39.59404,988.67],[-120.80311,39.59403,994.79],[-120.80344,39.59408,996.11],[-120.80369,39.59408,1001.14],[-120.80396,39.59407,1006.09],[-120.8043,39.59409,1003.51],[-120.80442,39.59406,1003.87],[-120.80452,39.594,1003.5],[-120.80458,39.59391,1004.54],[-120.80461,39.59381,1003.74],[-120.80463,39.59361,1004.05],[-120.80456,39.59337,1007.55],[-120.80452,39.59334,1009.79],[-120.80446,39.5932,1011.54],[-120.80436,39.59312,1017.42],[-120.80429,39.5928,1016.08],[-120.80428,39.59254,1015.8],[-120.80439,39.59241,1010.41],[-120.80445,39.59233,1007.9],[-120.80446,39.59223,1013.19],[-120.8046,39.5921,1013.4],[-120.8047,39.59205,1011.93],[-120.80477,39.59197,1016.02],[-120.80493,39.59191,1013.73],[-120.80502,39.59185,1015.53],[-120.80508,39.59179,1019.08],[-120.80517,39.59176,1017.86],[-120.80533,39.59185,999.82],[-120.80543,39.59185,994.62],[-120.80551,39.59177,998.73],[-120.80558,39.59178,994.65],[-120.80576,39.59164,1005.25],[-120.80605,39.59157,1004.79],[-120.80612,39.59151,1009.56],[-120.80614,39.59145,1015.51],[-120.8062,39.59139,1020.49],[-120.80651,39.59129,1025.13],[-120.8066,39.59127,1026.03],[-120.80669,39.5913,1021.65],[-120.80677,39.59134,1016.29],[-120.80683,39.59141,1007.9],[-120.80694,39.59143,1004.55],[-120.80712,39.59141,1004.88],[-120.80723,39.59143,1001.86],[-120.80732,39.5914,1003.94],[-120.80741,39.59134,1007.87],[-120.80749,39.59116,1015.57],[-120.80775,39.59087,1012.22],[-120.80789,39.59076,1009.73],[-120.80791,39.5907,1011.38],[-120.80805,39.59057,1012.8],[-120.80823,39.59046,1014.11],[-120.80841,39.59037,1017.26],[-120.80848,39.59037,1016.39],[-120.80867,39.59043,1010.53],[-120.80877,39.59041,1011.43],[-120.80891,39.59041,1010.69],[-120.80893,39.59042,1009.78],[-120.809,39.59041,1010.29],[-120.80907,39.59037,1013.47],[-120.80917,39.59034,1015.96],[-120.80933,39.59035,1014.81],[-120.80949,39.59034,1015.6],[-120.80957,39.59038,1011.61],[-120.80976,39.5904,1009.88],[-120.81,39.59038,1011.57],[-120.81026,39.59045,1005.24],[-120.81035,39.59045,1004.3],[-120.81041,39.5904,1006.3],[-120.81052,39.5903,1009.92],[-120.81057,39.5902,1014.02],[-120.81063,39.59014,1014.37],[-120.81065,39.59006,1016.05],[-120.81072,39.59,1014.51],[-120.81076,39.58992,1014.82],[-120.81083,39.58986,1013.21],[-120.8109,39.5897,1014.74],[-120.81097,39.5896,1014.21],[-120.8111,39.58956,1008.41],[-120.81121,39.5895,1004.63],[-120.81132,39.58933,1004.94],[-120.81133,39.58923,1007.61],[-120.81139,39.58912,1008.36],[-120.81153,39.589,1005.88],[-120.81159,39.58889,1006.83],[-120.81173,39.58874,1005.6],[-120.81203,39.58853,1003.14],[-120.8123,39.5884,1002.19],[-120.81247,39.58836,999.16],[-120.8127,39.58825,999.05],[-120.81282,39.58822,996.57],[-120.81303,39.5881,998.75],[-120.81314,39.58796,1000.47],[-120.81316,39.58782,1005.42],[-120.8132,39.58775,1004.65],[-120.81322,39.58749,1005.47],[-120.81316,39.58729,1005.97],[-120.81279,39.5872,1015.48],[-120.81247,39.58708,1017.36],[-120.81236,39.58705,1017.46],[-120.81227,39.58694,1011.98],[-120.8118,39.58677,1007],[-120.8114,39.58668,1009.02],[-120.81128,39.58662,1008.91],[-120.81098,39.58635,1008.12],[-120.81078,39.58608,1009.98],[-120.8107,39.58587,1007.73],[-120.8106,39.58571,1006.62],[-120.81056,39.58556,1003.41],[-120.81057,39.58543,1000.15],[-120.81059,39.58536,998.71],[-120.81056,39.58529,996.69],[-120.81058,39.5853,997.22],[-120.81056,39.58532,997.42],[-120.81061,39.58516,994.58],[-120.81065,39.58508,993.68],[-120.81068,39.58487,990.95],[-120.81067,39.58473,991.07],[-120.81063,39.58462,990.4],[-120.81063,39.5845,993.88],[-120.8106,39.58437,996.02],[-120.81028,39.58403,994.33],[-120.81014,39.5839,992.32],[-120.80998,39.58383,987.48],[-120.8097,39.58357,981.6],[-120.80958,39.58343,979.24],[-120.80944,39.58334,972.66],[-120.80936,39.58323,968.48],[-120.80961,39.58282,979.95],[-120.80983,39.58254,976.75],[-120.80995,39.58235,974.75],[-120.80998,39.58215,972.15],[-120.80994,39.5821,970.29],[-120.80993,39.58201,969.1],[-120.80998,39.58197,969.59],[-120.81006,39.58194,970.22],[-120.81014,39.58196,972.63],[-120.81028,39.58211,981.12],[-120.8106,39.58221,983.69],[-120.81098,39.58225,977.72],[-120.81115,39.58224,974.75],[-120.81129,39.58221,970.44],[-120.81137,39.58214,964.94],[-120.81139,39.58208,960.34],[-120.81147,39.58206,961.24],[-120.81157,39.582,960.3],[-120.81155,39.58203,961.5],[-120.81155,39.58201,959.94],[-120.81159,39.582,960.99],[-120.81162,39.58196,960.46],[-120.81169,39.58193,961.74],[-120.81174,39.58182,959.91],[-120.81168,39.58162,951.49],[-120.81167,39.58149,949.51],[-120.8117,39.58135,949.67],[-120.81181,39.58101,952.77],[-120.81182,39.58081,952.23],[-120.81188,39.58071,954.13],[-120.81192,39.58057,954.49],[-120.81191,39.58042,952.71],[-120.81192,39.58026,950.06],[-120.81196,39.58012,947.84],[-120.81224,39.57968,942.77],[-120.8125,39.57946,944.31],[-120.8127,39.57935,940.69],[-120.8128,39.57935,940.52],[-120.81293,39.5793,942],[-120.81325,39.57926,941.74],[-120.81344,39.57916,940],[-120.81365,39.57913,940.37],[-120.81377,39.57909,940.97],[-120.81385,39.57899,943.1],[-120.81397,39.57889,944.14],[-120.81421,39.57864,946.59],[-120.81435,39.57832,944.11],[-120.81434,39.57815,942.85],[-120.81437,39.57806,942.93],[-120.81439,39.57788,944.16],[-120.81434,39.57745,944.35],[-120.81435,39.57735,944.21],[-120.81434,39.57722,943.14],[-120.81435,39.57708,941.18],[-120.81443,39.57696,940.42],[-120.81462,39.57676,941.69],[-120.81469,39.57664,940.5],[-120.81485,39.57656,940.7],[-120.81522,39.57652,943.2],[-120.8162,39.57652,942.99],[-120.81643,39.57656,946.03],[-120.81654,39.57654,945.28],[-120.81662,39.57648,941.72],[-120.81679,39.57645,942.87],[-120.81702,39.57643,951.17],[-120.81727,39.57628,954.35],[-120.81729,39.57624,953.43],[-120.81738,39.57619,955.72],[-120.81745,39.57613,956.49],[-120.8175,39.57612,958.48],[-120.8175,39.57609,957.02],[-120.81753,39.57608,957.93],[-120.81769,39.57593,959.41],[-120.81769,39.5759,958.22],[-120.81776,39.57583,959.6],[-120.81783,39.57567,958.57],[-120.81784,39.5756,957.76],[-120.81788,39.57555,959.19],[-120.81791,39.57546,959.18],[-120.81792,39.57531,960.07],[-120.81787,39.57505,964.74],[-120.81766,39.57481,968.07],[-120.81753,39.57477,965.63],[-120.81741,39.57471,966.14],[-120.81728,39.57468,965],[-120.81708,39.57457,967.2],[-120.81693,39.57455,963.96],[-120.81686,39.57451,962.41],[-120.81685,39.57442,961.99],[-120.81691,39.57438,962.99],[-120.8171,39.57435,966.23],[-120.81715,39.5743,963.32],[-120.81739,39.5742,957.29],[-120.81778,39.57409,955.56],[-120.81814,39.57393,949.13],[-120.8183,39.57384,947.12],[-120.81844,39.57371,944.7],[-120.81881,39.57334,946.48],[-120.81891,39.57321,949.25],[-120.81896,39.57309,950.09],[-120.81898,39.57298,949.58],[-120.81884,39.57271,938.35],[-120.81874,39.57237,933.02],[-120.81848,39.57165,933.3],[-120.81846,39.57153,932.48],[-120.81864,39.57152,933.24],[-120.81871,39.5715,932.38],[-120.81902,39.57148,931.27],[-120.81931,39.57141,928.49],[-120.81963,39.57126,925.12],[-120.81994,39.57104,926.19],[-120.82003,39.57089,924.5],[-120.82009,39.57072,920.77],[-120.8201,39.57055,914.23],[-120.82016,39.57041,910.2],[-120.82039,39.57018,906.22],[-120.82051,39.57017,907.63],[-120.82066,39.57022,911.6],[-120.82095,39.57035,914.56],[-120.82105,39.57043,913.46],[-120.82109,39.57049,913.08],[-120.82115,39.5705,911.51],[-120.82125,39.5704,908.23],[-120.82149,39.57001,901.5],[-120.82157,39.56993,899.78],[-120.82178,39.5698,896.84],[-120.82196,39.56971,895.29],[-120.82212,39.56968,894.64],[-120.82267,39.5697,896.26],[-120.82278,39.56965,897.19],[-120.82296,39.56947,896.77],[-120.82311,39.56934,896.47],[-120.82333,39.5691,895.74],[-120.82375,39.56862,895.35],[-120.82404,39.56823,895.13],[-120.82466,39.5675,897.69],[-120.82497,39.56718,899.25],[-120.8252,39.56704,903.4],[-120.82535,39.56691,906.91],[-120.82544,39.56674,908.37],[-120.82547,39.56656,907.75],[-120.82564,39.56591,906.63],[-120.82573,39.56538,901.28],[-120.8258,39.56526,901.63],[-120.82581,39.56505,898.17],[-120.82586,39.56483,896.97],[-120.82585,39.56477,896.6],[-120.82577,39.56465,895.65],[-120.82575,39.56439,896.42],[-120.82568,39.56415,896.15],[-120.82564,39.56321,896.97],[-120.82558,39.5632,896.06],[-120.82556,39.5631,895.59],[-120.82558,39.56277,894.87],[-120.8256,39.5627,894.89],[-120.82581,39.5623,895.61],[-120.82591,39.56206,894.11],[-120.82604,39.56185,893.42],[-120.82609,39.56169,892.19],[-120.82615,39.56161,891.55],[-120.82622,39.56152,890.66],[-120.82636,39.56146,891.01],[-120.82663,39.56119,888.52],[-120.82689,39.56096,886.13],[-120.82699,39.56088,885.32],[-120.82708,39.56084,885.12],[-120.82711,39.56071,883.69],[-120.82748,39.56052,882.78],[-120.82773,39.56043,882.36],[-120.82785,39.5604,882.24],[-120.82787,39.56041,882.37],[-120.82801,39.56035,881.96],[-120.82813,39.56033,881.93],[-120.82862,39.5603,882.59],[-120.82899,39.56034,883.47],[-120.82911,39.56029,883.27],[-120.8292,39.56023,882.72],[-120.82927,39.56017,882.01],[-120.8293,39.56008,880.92],[-120.82945,39.55941,880.21],[-120.82951,39.55934,881.51],[-120.82994,39.55949,879.22],[-120.82994,39.55947,879.5],[-120.82992,39.55947,879.52],[-120.82995,39.55947,879.48],[-120.82995,39.55949,879.21],[-120.82996,39.55951,878.92],[-120.82993,39.55949,879.23],[-120.83008,39.5595,878.92],[-120.83026,39.55958,878.26],[-120.83033,39.55958,878.22],[-120.83036,39.55953,878.41],[-120.83034,39.55954,878.38],[-120.83035,39.55957,878.25],[-120.83019,39.55954,878.5],[-120.82996,39.55947,879.47],[-120.82957,39.55932,881.87],[-120.8295,39.55934,881.45],[-120.8294,39.55973,878.19],[-120.82935,39.56003,880.28],[-120.82929,39.5601,881.17],[-120.82919,39.56011,881.42],[-120.82901,39.5601,881.39],[-120.82894,39.56012,881.58],[-120.82888,39.56011,881.51],[-120.8286,39.55993,879.97],[-120.82855,39.55987,879.58],[-120.82856,39.55982,879.31],[-120.829,39.56012,881.57],[-120.82902,39.56009,881.29],[-120.82873,39.55994,880.19],[-120.82866,39.55995,880.16],[-120.82857,39.55989,879.71],[-120.82851,39.5598,879.17],[-120.82852,39.55984,879.39],[-120.82852,39.5598,879.17],[-120.82855,39.55979,879.13]]}}
