{"type":"Feature","properties":{"name":"Graeagle / Smith Creek Loop","sourceLabel":"Trailforks route plan","sourceUrl":"https://www.trailforks.com/ridelog/planner/view/602145/","retrievedAt":"2026-09-28","gpxSha256":"840dcfbedef9e41ce32ce9e110cda1949428f764a689c45f1f2eddcd78f57895","dataUsePolicy":"https://www.trailforks.com/about/data/","licenseNote":"Downloaded through the source page export. No agreement checkbox was presented for this ride-log or route-plan export. Trailforks attribution retained; commercial permission has not been established.","elevationSource":"AWS Terrain Tiles / USGS (export contains zero elevations)"},"geometry":{"type":"LineString","coordinates":[[-120.61837,39.76638,1333.05],[-120.61869,39.7662,1333.25],[-120.61841,39.76593,1332.78],[-120.61834,39.76587,1332.63],[-120.61823,39.76575,1332.35],[-120.61787,39.76541,1331.74],[-120.6176,39.76514,1330.5],[-120.6173,39.76487,1330.25],[-120.61705,39.76467,1331.8],[-120.61682,39.76451,1333.31],[-120.61649,39.76432,1335.69],[-120.61649,39.76431,1335.81],[-120.6165,39.7643,1335.91],[-120.61652,39.7643,1335.87],[-120.61651,39.76428,1336.13],[-120.6165,39.76427,1336.27],[-120.61648,39.76426,1336.43],[-120.61647,39.76425,1336.58],[-120.61646,39.76424,1336.72],[-120.61645,39.76424,1336.74],[-120.61644,39.76423,1336.89],[-120.61641,39.76421,1337.21],[-120.6164,39.76421,1337.24],[-120.61639,39.7642,1337.38],[-120.61637,39.7642,1337.44],[-120.61627,39.76413,1338.51],[-120.61574,39.76395,1340.28],[-120.6154,39.76377,1340.69],[-120.61537,39.76374,1340.81],[-120.61531,39.7637,1340.79],[-120.6152,39.76362,1340.86],[-120.61509,39.7635,1341.38],[-120.61503,39.76346,1341.44],[-120.61494,39.76335,1341.49],[-120.61479,39.76309,1342.96],[-120.61471,39.76303,1342.72],[-120.61471,39.76303,1342.72],[-120.61468,39.76302,1342.51],[-120.61468,39.76301,1342.54],[-120.61468,39.76301,1342.54],[-120.61467,39.76301,1342.45],[-120.61465,39.76299,1342.33],[-120.61464,39.76299,1342.24],[-120.61462,39.76297,1342.11],[-120.61461,39.76296,1342.04],[-120.61481,39.76274,1344.88],[-120.61514,39.75986,1355.79],[-120.6156,39.75522,1382.8],[-120.61563,39.75436,1386.64],[-120.61572,39.75351,1391.41],[-120.61575,39.75316,1394.1],[-120.61581,39.7526,1398.56],[-120.61583,39.75235,1400.12],[-120.61585,39.75214,1401.39],[-120.61585,39.75201,1402.23],[-120.61585,39.75169,1405.32],[-120.61586,39.75153,1407.31],[-120.61588,39.75143,1408.64],[-120.61591,39.75135,1409.54],[-120.61599,39.75122,1411.04],[-120.61607,39.75112,1412.11],[-120.61613,39.75114,1412.34],[-120.61616,39.75116,1412.39],[-120.61619,39.75118,1412.42],[-120.61621,39.75119,1412.47],[-120.61623,39.7512,1412.52],[-120.61625,39.75123,1412.47],[-120.61628,39.75125,1412.55],[-120.61629,39.75126,1412.56],[-120.61631,39.75129,1412.55],[-120.61632,39.75131,1412.53],[-120.61634,39.75132,1412.76],[-120.61635,39.75133,1412.86],[-120.61636,39.75134,1412.96],[-120.61638,39.75136,1413.13],[-120.61765,39.75237,1425.34],[-120.61767,39.75237,1425.64],[-120.61768,39.75239,1425.42],[-120.61772,39.7524,1425.78],[-120.61781,39.75239,1427.08],[-120.61782,39.75238,1427.4],[-120.61784,39.75237,1427.84],[-120.61789,39.75236,1428.67],[-120.619,39.75214,1442.03],[-120.61949,39.7519,1447.11],[-120.62001,39.75171,1452.46],[-120.62007,39.75156,1454.82],[-120.62002,39.75131,1458.16],[-120.61971,39.75057,1469.51],[-120.61942,39.75024,1474.06],[-120.61939,39.75023,1474.41],[-120.61934,39.75022,1474.94],[-120.6193,39.75021,1475.32],[-120.61927,39.75019,1475.53],[-120.61924,39.75018,1475.73],[-120.61923,39.75017,1475.76],[-120.61922,39.75015,1475.7],[-120.6192,39.75014,1475.76],[-120.61919,39.75013,1475.75],[-120.61917,39.75012,1475.77],[-120.61915,39.75011,1475.78],[-120.61912,39.75009,1475.77],[-120.6191,39.75008,1475.93],[-120.61909,39.75007,1476.04],[-120.61907,39.75004,1476.32],[-120.61906,39.75003,1476.49],[-120.61905,39.75001,1476.74],[-120.61903,39.75,1477.01],[-120.61901,39.74999,1477.25],[-120.619,39.74998,1477.38],[-120.61898,39.74997,1477.59],[-120.61896,39.74996,1477.77],[-120.61894,39.74995,1477.93],[-120.61892,39.74994,1478.06],[-120.61891,39.74993,1478.11],[-120.61889,39.74992,1478.2],[-120.61887,39.74991,1478.27],[-120.61884,39.7499,1478.36],[-120.61883,39.74989,1478.33],[-120.61881,39.74987,1478.24],[-120.6188,39.74986,1478.18],[-120.61878,39.74985,1478.12],[-120.61875,39.74984,1478.05],[-120.61871,39.74983,1478.15],[-120.61869,39.74982,1478.49],[-120.61868,39.74981,1478.68],[-120.61866,39.74977,1479.1],[-120.61865,39.74975,1479.28],[-120.61864,39.74974,1479.42],[-120.61862,39.7497,1479.7],[-120.6186,39.74964,1479.93],[-120.61858,39.74961,1480.04],[-120.61856,39.74959,1480.1],[-120.61855,39.74956,1480.16],[-120.61853,39.74954,1480.41],[-120.61852,39.74952,1480.63],[-120.61851,39.74951,1480.74],[-120.61849,39.74949,1480.94],[-120.61848,39.74948,1481.04],[-120.61845,39.74945,1481.31],[-120.61844,39.74944,1481.39],[-120.61842,39.74942,1481.53],[-120.61841,39.74941,1481.6],[-120.61842,39.74932,1482.32],[-120.61844,39.74927,1482.76],[-120.61846,39.74925,1482.98],[-120.61848,39.74924,1483.13],[-120.61849,39.74923,1483.24],[-120.6185,39.74922,1483.36],[-120.61852,39.7492,1483.59],[-120.61853,39.74919,1483.71],[-120.61855,39.74918,1483.87],[-120.61857,39.74916,1484.11],[-120.61856,39.74912,1484.38],[-120.6186,39.74904,1485.21],[-120.61848,39.74857,1489.23],[-120.61855,39.7485,1491.2],[-120.61872,39.74846,1494.72],[-120.61886,39.74848,1495.98],[-120.61912,39.74863,1495.57],[-120.61932,39.74865,1497.16],[-120.61963,39.74865,1499.82],[-120.61993,39.74863,1501.7],[-120.62015,39.74856,1502.96],[-120.62033,39.74845,1504.05],[-120.62091,39.7479,1507.39],[-120.62124,39.74768,1509.28],[-120.62164,39.74749,1511.85],[-120.62249,39.74687,1520.29],[-120.62261,39.74667,1522.62],[-120.62272,39.74638,1525.6],[-120.62274,39.74608,1527.67],[-120.62282,39.74568,1530.22],[-120.62293,39.74545,1532.12],[-120.62312,39.74518,1534.2],[-120.62338,39.74499,1536.69],[-120.62377,39.74483,1541.38],[-120.62436,39.74434,1547.21],[-120.62463,39.74407,1550.1],[-120.62515,39.74333,1558.71],[-120.62552,39.74257,1567.01],[-120.62568,39.74228,1568.46],[-120.62585,39.74203,1568.65],[-120.6259,39.74196,1567.71],[-120.62599,39.74177,1568.77],[-120.62597,39.74166,1569.32],[-120.62589,39.74154,1573.92],[-120.62575,39.74152,1577.89],[-120.62559,39.74154,1580.95],[-120.62509,39.74165,1584.48],[-120.62485,39.74167,1584.91],[-120.62473,39.74163,1585.42],[-120.62459,39.74148,1587.12],[-120.62461,39.74066,1589.22],[-120.62466,39.74057,1589.55],[-120.62479,39.74045,1591.27],[-120.62497,39.74038,1594.18],[-120.62518,39.74039,1597.32],[-120.62533,39.74047,1598.5],[-120.62562,39.74066,1598],[-120.6258,39.74069,1598.44],[-120.6261,39.74062,1601.98],[-120.62642,39.74044,1608.6],[-120.62687,39.74029,1614.33],[-120.62729,39.7402,1615.81],[-120.62772,39.74006,1616.98],[-120.628,39.73986,1620.28],[-120.62824,39.73964,1623.02],[-120.62838,39.73941,1625.76],[-120.62861,39.73922,1627.3],[-120.62876,39.73912,1628.36],[-120.62887,39.73899,1630.27],[-120.62892,39.73861,1635.6],[-120.62901,39.73846,1637.72],[-120.62916,39.73836,1640.23],[-120.62935,39.73834,1641.19],[-120.62953,39.73842,1641.41],[-120.62972,39.73854,1641.74],[-120.62987,39.73859,1641.82],[-120.62998,39.7386,1642.1],[-120.63044,39.73837,1646.1],[-120.63069,39.73819,1649.23],[-120.63083,39.73805,1651.23],[-120.63093,39.7379,1652.94],[-120.63113,39.7378,1653.8],[-120.63133,39.73776,1655.47],[-120.63155,39.73781,1657.74],[-120.63234,39.73809,1668.59],[-120.6326,39.73828,1673.75],[-120.63288,39.73863,1675.19],[-120.633,39.73869,1675.05],[-120.63317,39.73872,1675.34],[-120.63336,39.73867,1675.86],[-120.63408,39.73825,1680.35],[-120.63442,39.73798,1679.86],[-120.63481,39.73754,1685.06],[-120.63498,39.73726,1688.88],[-120.63513,39.73693,1690.92],[-120.63514,39.7367,1693.37],[-120.63512,39.73641,1697.49],[-120.63501,39.73621,1700.59],[-120.63486,39.73605,1703.03],[-120.6346,39.73593,1705.49],[-120.63452,39.73586,1706.8],[-120.63449,39.73576,1707.76],[-120.63451,39.73557,1709.42],[-120.63449,39.73543,1710.87],[-120.6343,39.73513,1713.25],[-120.63427,39.73496,1714.36],[-120.6344,39.73456,1718.84],[-120.63476,39.7342,1726.63],[-120.63482,39.73406,1728.44],[-120.63482,39.73391,1729.36],[-120.63473,39.7338,1729.31],[-120.63454,39.73373,1728.67],[-120.63428,39.73366,1728.33],[-120.63421,39.73357,1729.05],[-120.63422,39.73346,1730.48],[-120.63431,39.73335,1731.58],[-120.63453,39.73319,1735.68],[-120.63489,39.73296,1739.89],[-120.63539,39.73268,1743.75],[-120.63593,39.73238,1751.26],[-120.63663,39.73203,1756.29],[-120.63726,39.73167,1763.96],[-120.63763,39.73144,1766.17],[-120.63803,39.73117,1770.92],[-120.63848,39.73078,1775.91],[-120.63968,39.72981,1788.19],[-120.64033,39.72939,1794.08],[-120.64082,39.72911,1799.43],[-120.64119,39.72887,1801.93],[-120.64134,39.72873,1802.33],[-120.64151,39.72852,1804.38],[-120.64165,39.72824,1807.49],[-120.64177,39.72788,1810.39],[-120.64177,39.72759,1810.28],[-120.64183,39.72748,1811.2],[-120.642,39.72735,1813.62],[-120.64215,39.72728,1815.34],[-120.64236,39.72715,1817.26],[-120.64255,39.72688,1818.96],[-120.64292,39.72623,1821.3],[-120.6431,39.72611,1821.53],[-120.64323,39.72608,1822.07],[-120.64346,39.72605,1823.2],[-120.64408,39.72612,1827.59],[-120.64426,39.7262,1828.13],[-120.64469,39.72654,1826.54],[-120.64487,39.72661,1826.21],[-120.64519,39.7267,1826.69],[-120.64547,39.7267,1828.59],[-120.64571,39.72661,1830.64],[-120.64591,39.7265,1831.93],[-120.64607,39.72636,1833.87],[-120.64621,39.72614,1836.1],[-120.64631,39.72585,1838.75],[-120.6466,39.72527,1847.27],[-120.64673,39.72513,1848.41],[-120.64723,39.72481,1856.5],[-120.64764,39.72431,1858.73],[-120.64807,39.72395,1861.97],[-120.64841,39.72373,1869.1],[-120.64858,39.72354,1873.28],[-120.64866,39.72328,1875.32],[-120.6487,39.72299,1876.32],[-120.64888,39.72245,1880.24],[-120.64906,39.72208,1885.36],[-120.64926,39.72146,1888.06],[-120.64937,39.72111,1894.72],[-120.64946,39.72068,1898.56],[-120.64957,39.72028,1904.94],[-120.64973,39.71988,1910.29],[-120.65005,39.71886,1918.6],[-120.65029,39.71849,1922.99],[-120.6505,39.71811,1923.52],[-120.65074,39.71741,1925.18],[-120.65077,39.71739,1925.85],[-120.65106,39.7173,1931.35],[-120.65122,39.71717,1933.3],[-120.65136,39.71707,1934.83],[-120.65142,39.71702,1935.8],[-120.65155,39.71685,1937.01],[-120.65164,39.71664,1938.05],[-120.6516,39.71642,1938.54],[-120.6515,39.71629,1937.71],[-120.6514,39.71614,1937.68],[-120.65127,39.71595,1938.42],[-120.65099,39.71521,1948.2],[-120.65094,39.71502,1949.51],[-120.65088,39.71479,1949.9],[-120.65079,39.71454,1948.99],[-120.6508,39.71438,1949.81],[-120.65082,39.7142,1950.99],[-120.65086,39.71408,1952.12],[-120.65088,39.714,1952.73],[-120.65094,39.71394,1954.2],[-120.65099,39.71389,1955.53],[-120.65103,39.71387,1956.37],[-120.65109,39.71386,1957.47],[-120.65115,39.71389,1958.39],[-120.65119,39.71397,1958.89],[-120.6512,39.71403,1959],[-120.6512,39.71412,1958.9],[-120.6512,39.71419,1958.81],[-120.6512,39.71428,1958.52],[-120.65125,39.71437,1959.22],[-120.65138,39.71443,1961.45],[-120.65157,39.71449,1964.02],[-120.65177,39.71449,1966.09],[-120.65196,39.71443,1967.38],[-120.6522,39.71431,1966.32],[-120.65242,39.71406,1966.99],[-120.65257,39.71383,1968.06],[-120.65269,39.71369,1968.37],[-120.65284,39.7136,1968.64],[-120.65305,39.71346,1970.15],[-120.65329,39.71336,1970.02],[-120.65348,39.7133,1968.48],[-120.65363,39.71324,1966.43],[-120.6538,39.71307,1966.37],[-120.65403,39.71297,1963.35],[-120.65453,39.71277,1965.92],[-120.65494,39.71257,1969.36],[-120.65516,39.71246,1969.1],[-120.65535,39.71233,1968.43],[-120.6555,39.71224,1967.07],[-120.65563,39.71186,1967.41],[-120.65573,39.7116,1969.63],[-120.65586,39.71133,1970.51],[-120.6559,39.71129,1970.85],[-120.65594,39.71125,1970.77],[-120.65619,39.7111,1970.7],[-120.65634,39.71092,1968.53],[-120.6565,39.71069,1963.35],[-120.65681,39.71038,1958.22],[-120.65711,39.71011,1954.43],[-120.65735,39.70968,1951.62],[-120.65744,39.70945,1948.23],[-120.6575,39.7093,1945.76],[-120.65756,39.70892,1943.09],[-120.65766,39.70867,1941.32],[-120.65781,39.70843,1940.98],[-120.65797,39.7081,1940.11],[-120.65818,39.70783,1934.15],[-120.65821,39.70764,1933],[-120.65821,39.70763,1932.98],[-120.6582,39.70736,1932.82],[-120.65821,39.70718,1932.93],[-120.65823,39.70702,1933.23],[-120.65835,39.7069,1931.96],[-120.65846,39.70682,1930.21],[-120.65855,39.70674,1928.38],[-120.65858,39.7066,1927.95],[-120.65864,39.70646,1927.06],[-120.65868,39.70634,1926.4],[-120.65875,39.70626,1925.69],[-120.65884,39.7061,1925.32],[-120.65895,39.70596,1924.74],[-120.65903,39.70583,1924.68],[-120.65903,39.70583,1924.68],[-120.65911,39.70567,1924.83],[-120.65914,39.70563,1924.81],[-120.65923,39.7055,1924.68],[-120.65925,39.70536,1924.98],[-120.65927,39.70525,1925.22],[-120.65931,39.70519,1925.28],[-120.65936,39.70513,1925.35],[-120.65954,39.7051,1925.02],[-120.65991,39.70498,1928.11],[-120.65992,39.70477,1928.92],[-120.6597,39.70456,1929.48],[-120.6597,39.70442,1930.58],[-120.6599,39.70407,1930.45],[-120.65995,39.70378,1929.87],[-120.66004,39.70351,1928.89],[-120.66005,39.70331,1928.57],[-120.65987,39.70305,1930.45],[-120.65983,39.70282,1931.48],[-120.65998,39.70248,1930.27],[-120.66016,39.70214,1929.17],[-120.66023,39.70202,1928.37],[-120.66049,39.70158,1927.57],[-120.66066,39.70092,1928.94],[-120.66083,39.70026,1930],[-120.66098,39.69967,1928.57],[-120.66098,39.69967,1928.57],[-120.66111,39.69986,1926.99],[-120.66111,39.69986,1926.99],[-120.66107,39.70014,1926.93],[-120.66102,39.70054,1926.34],[-120.66097,39.70094,1925.15],[-120.66091,39.70142,1924.57],[-120.66121,39.70161,1922.75],[-120.66126,39.70161,1922.5],[-120.66154,39.70162,1921.13],[-120.66164,39.70168,1920.67],[-120.66163,39.70198,1920.58],[-120.66162,39.70214,1920.34],[-120.66155,39.70227,1920.37],[-120.66156,39.70232,1920.21],[-120.66159,39.70237,1919.94],[-120.66166,39.70239,1919.59],[-120.66176,39.70243,1919.12],[-120.66182,39.70247,1918.78],[-120.66188,39.7025,1918.46],[-120.66194,39.70254,1918.11],[-120.66197,39.7026,1917.79],[-120.662,39.70268,1917.44],[-120.66202,39.70274,1917.2],[-120.66203,39.7028,1916.96],[-120.66202,39.70284,1916.83],[-120.66205,39.70286,1916.73],[-120.66209,39.70288,1916.61],[-120.66214,39.70287,1916.58],[-120.66219,39.70286,1916.55],[-120.66223,39.70287,1916.47],[-120.66229,39.70286,1916.43],[-120.66235,39.70285,1916.45],[-120.66237,39.70283,1916.55],[-120.66241,39.70279,1916.79],[-120.66243,39.70276,1916.96],[-120.66248,39.70275,1917.08],[-120.66254,39.70275,1917.16],[-120.66262,39.70275,1917.28],[-120.66273,39.70275,1917.48],[-120.66281,39.70276,1917.61],[-120.66287,39.70278,1917.68],[-120.66294,39.70281,1917.75],[-120.66301,39.70284,1917.87],[-120.66307,39.70287,1918.01],[-120.66314,39.70289,1918.19],[-120.66323,39.7029,1918.43],[-120.66329,39.7029,1918.59],[-120.66337,39.7029,1918.8],[-120.66345,39.7029,1919.05],[-120.66352,39.70289,1919.26],[-120.66358,39.7029,1919.45],[-120.66364,39.70292,1919.65],[-120.6637,39.70293,1919.84],[-120.66377,39.70293,1920.14],[-120.66384,39.70296,1920.48],[-120.66394,39.70298,1920.96],[-120.66403,39.703,1921.4],[-120.66413,39.70302,1921.99],[-120.66423,39.70304,1922.62],[-120.66432,39.70308,1923.29],[-120.66443,39.70311,1924.02],[-120.66452,39.70313,1924.55],[-120.66458,39.70314,1924.88],[-120.66463,39.70314,1925.13],[-120.66466,39.70317,1925.37],[-120.66468,39.70321,1925.59],[-120.66473,39.70323,1925.89],[-120.66478,39.70326,1926.23],[-120.66483,39.70327,1926.51],[-120.66488,39.70328,1926.78],[-120.66495,39.70327,1927.11],[-120.66501,39.70327,1927.41],[-120.66507,39.70328,1927.72],[-120.66512,39.70332,1927.93],[-120.66521,39.70333,1928.19],[-120.66528,39.70334,1928.39],[-120.66535,39.70335,1928.6],[-120.66543,39.70334,1928.71],[-120.66549,39.70335,1928.48],[-120.66558,39.70334,1928.09],[-120.66567,39.70335,1927.73],[-120.66574,39.70337,1927.51],[-120.66583,39.70336,1927.04],[-120.66587,39.70337,1926.9],[-120.66591,39.70337,1926.7],[-120.66599,39.70339,1926.42],[-120.66605,39.70343,1926.33],[-120.6661,39.70346,1926.24],[-120.66618,39.70348,1926.15],[-120.66625,39.70351,1926.13],[-120.6663,39.70355,1926.19],[-120.66637,39.70359,1926.19],[-120.66644,39.70363,1926.16],[-120.66651,39.70367,1926.28],[-120.66657,39.70369,1926.36],[-120.66666,39.7037,1926.43],[-120.66673,39.70371,1926.51],[-120.66684,39.70375,1926.85],[-120.66692,39.7038,1927.27],[-120.667,39.70386,1927.77],[-120.66708,39.70391,1928.3],[-120.66715,39.70395,1928.75],[-120.66727,39.70399,1929.03],[-120.66739,39.70404,1929.35],[-120.66747,39.70408,1929.6],[-120.66754,39.70412,1929.94],[-120.66761,39.70415,1930.18],[-120.66765,39.70419,1930.57],[-120.66771,39.70423,1930.89],[-120.66777,39.70428,1931.19],[-120.66781,39.70434,1931.52],[-120.66782,39.70441,1931.96],[-120.66781,39.70448,1932.44],[-120.66779,39.70452,1932.8],[-120.66778,39.70456,1933.11],[-120.66776,39.7046,1933.5],[-120.66772,39.70464,1934.05],[-120.66768,39.70469,1934.69],[-120.66766,39.70473,1935.06],[-120.66766,39.70478,1935.34],[-120.66765,39.70483,1935.7],[-120.66765,39.70489,1936.03],[-120.66765,39.70493,1936.25],[-120.66765,39.70498,1936.54],[-120.66766,39.70502,1936.71],[-120.66767,39.70506,1936.88],[-120.66769,39.7051,1937.01],[-120.6677,39.70514,1937.2],[-120.66772,39.70519,1937.41],[-120.66775,39.70522,1937.48],[-120.66779,39.70526,1937.63],[-120.66783,39.70529,1937.7],[-120.66788,39.70531,1937.59],[-120.66792,39.70533,1937.53],[-120.66797,39.70533,1937.24],[-120.66803,39.70532,1936.8],[-120.66809,39.70529,1936.2],[-120.66815,39.70526,1935.59],[-120.66822,39.70524,1934.84],[-120.6683,39.70523,1934.07],[-120.66837,39.70523,1933.47],[-120.66845,39.70524,1932.84],[-120.66852,39.70526,1932.38],[-120.66857,39.70528,1932.17],[-120.66863,39.70531,1931.89],[-120.66868,39.70535,1931.65],[-120.66874,39.70538,1931.25],[-120.66882,39.7054,1930.61],[-120.66887,39.70543,1930.36],[-120.66893,39.70548,1930.28],[-120.66899,39.70551,1930.15],[-120.66908,39.70554,1929.89],[-120.66914,39.70557,1929.59],[-120.66922,39.7056,1929.35],[-120.66929,39.70562,1929.45],[-120.66936,39.70563,1929.61],[-120.66941,39.70566,1929.46],[-120.66943,39.70571,1928.97],[-120.66943,39.70577,1928.14],[-120.66943,39.70583,1927.21],[-120.66942,39.70588,1926.48],[-120.66941,39.70597,1925.19],[-120.66939,39.70605,1924.04],[-120.66936,39.70612,1923.2],[-120.66935,39.70618,1922.36],[-120.66933,39.70623,1921.89],[-120.66934,39.70631,1920.77],[-120.66936,39.70638,1919.72],[-120.66941,39.70644,1918.12],[-120.66946,39.70648,1916.65],[-120.66949,39.70653,1915.46],[-120.6695,39.70659,1914.85],[-120.6695,39.70665,1914.46],[-120.66951,39.7067,1913.93],[-120.66956,39.70674,1913.03],[-120.6696,39.7068,1912.54],[-120.66962,39.70685,1912.34],[-120.66964,39.70691,1912.1],[-120.66968,39.70695,1911.79],[-120.6697,39.707,1911.53],[-120.66973,39.70707,1911.2],[-120.66975,39.70712,1911.06],[-120.66979,39.70717,1910.64],[-120.66982,39.70723,1910.17],[-120.66984,39.70728,1909.73],[-120.66988,39.70733,1908.86],[-120.66993,39.70734,1908.52],[-120.66996,39.7074,1907.83],[-120.66998,39.70747,1907.07],[-120.67002,39.70753,1906.21],[-120.67002,39.70754,1906.11],[-120.67009,39.70762,1904.84],[-120.67015,39.70769,1903.67],[-120.6702,39.70777,1902.27],[-120.67025,39.70785,1901.07],[-120.6703,39.70791,1900.34],[-120.67036,39.70797,1899.33],[-120.67041,39.70804,1897.97],[-120.67046,39.70812,1896.15],[-120.67051,39.70819,1894.1],[-120.67055,39.70825,1892.24],[-120.67058,39.7083,1890.96],[-120.67063,39.70837,1889.8],[-120.67064,39.70844,1889.16],[-120.67065,39.70852,1888.51],[-120.67066,39.70857,1888.18],[-120.6707,39.7086,1888.44],[-120.67075,39.70862,1888.96],[-120.67079,39.70867,1889.36],[-120.6708,39.70874,1889.44],[-120.67081,39.7088,1889.53],[-120.67082,39.70885,1889.63],[-120.67083,39.70892,1889.53],[-120.67075,39.70894,1888.19],[-120.6707,39.70897,1887.23],[-120.67068,39.70902,1886.55],[-120.67069,39.70908,1886.15],[-120.67072,39.70912,1886.11],[-120.67074,39.70916,1885.93],[-120.67074,39.70922,1885.12],[-120.67074,39.70929,1884.14],[-120.67074,39.70935,1883.3],[-120.67074,39.70941,1882.47],[-120.67075,39.70945,1881.96],[-120.67076,39.70948,1881.63],[-120.67077,39.70952,1881.17],[-120.6708,39.70956,1880.72],[-120.6708,39.7096,1880.24],[-120.67078,39.70964,1879.75],[-120.67073,39.70967,1879.39],[-120.67065,39.70969,1879.16],[-120.67055,39.70974,1878.53],[-120.67044,39.70978,1877.57],[-120.67034,39.7098,1876.87],[-120.67029,39.70985,1876.06],[-120.67017,39.70989,1874.56],[-120.67009,39.70994,1873.1],[-120.67,39.70999,1871.77],[-120.66998,39.71003,1871.41],[-120.66996,39.71007,1871.09],[-120.66993,39.71011,1870.74],[-120.66987,39.71016,1870.22],[-120.66982,39.7102,1869.63],[-120.6698,39.71025,1869.4],[-120.66979,39.71029,1869.28],[-120.6698,39.71033,1869.39],[-120.66982,39.71037,1869.63],[-120.66983,39.71041,1869.75],[-120.66984,39.71047,1869.89],[-120.66983,39.71052,1869.46],[-120.66978,39.71057,1868.36],[-120.66975,39.71062,1867.54],[-120.66973,39.71068,1866.77],[-120.6697,39.71074,1865.91],[-120.66968,39.71077,1865.2],[-120.66965,39.7108,1864.27],[-120.66961,39.71084,1863.17],[-120.66962,39.71089,1862.29],[-120.66961,39.71099,1860.38],[-120.66961,39.71107,1859],[-120.66963,39.71112,1858.13],[-120.66961,39.71117,1857.34],[-120.66957,39.71122,1856.68],[-120.66952,39.71127,1856.01],[-120.6695,39.71133,1855.3],[-120.66948,39.71137,1854.86],[-120.66947,39.71142,1854.35],[-120.66946,39.71146,1853.94],[-120.66945,39.71151,1853.45],[-120.66944,39.71155,1853.07],[-120.66943,39.71159,1852.74],[-120.66942,39.71165,1852.25],[-120.66942,39.71171,1851.76],[-120.66942,39.71179,1851.11],[-120.66941,39.71186,1850.73],[-120.6694,39.71192,1850.47],[-120.66938,39.71199,1850.08],[-120.66935,39.71207,1849.52],[-120.66933,39.71212,1849.23],[-120.66932,39.71218,1848.99],[-120.66931,39.71224,1848.74],[-120.66928,39.71229,1848.34],[-120.66926,39.71235,1847.95],[-120.66923,39.7124,1847.4],[-120.66919,39.71244,1846.82],[-120.66915,39.71247,1846.33],[-120.66909,39.71247,1845.85],[-120.66902,39.71245,1845.39],[-120.66895,39.71245,1844.82],[-120.66889,39.71247,1844.25],[-120.66882,39.71247,1843.57],[-120.66876,39.71248,1842.79],[-120.66875,39.71253,1842.37],[-120.66874,39.71258,1841.92],[-120.66871,39.7126,1841.35],[-120.66865,39.7126,1840.48],[-120.66859,39.71263,1839.42],[-120.66852,39.7127,1838.03],[-120.66851,39.71275,1837.63],[-120.66849,39.7128,1836.98],[-120.66847,39.71284,1836.39],[-120.66848,39.71289,1836.13],[-120.66846,39.71294,1835.13],[-120.66847,39.71299,1834.66],[-120.66848,39.71305,1834.03],[-120.66848,39.7131,1833.37],[-120.66849,39.71315,1832.73],[-120.66849,39.71319,1832],[-120.66847,39.71323,1831.05],[-120.66843,39.71325,1830.24],[-120.66839,39.71327,1829.44],[-120.66833,39.71332,1827.89],[-120.66833,39.71337,1827],[-120.66836,39.71341,1826.67],[-120.66841,39.71343,1826.99],[-120.66847,39.71345,1827.51],[-120.66853,39.71346,1828.2],[-120.66858,39.7135,1828.57],[-120.66859,39.71355,1828.33],[-120.66856,39.71364,1827.14],[-120.66855,39.71371,1826.61],[-120.66853,39.71378,1825.99],[-120.66848,39.71386,1824.77],[-120.66844,39.71394,1823.76],[-120.66844,39.71402,1823.6],[-120.66843,39.71409,1823.32],[-120.66844,39.71416,1823.31],[-120.66841,39.71423,1822.4],[-120.66844,39.71431,1821.69],[-120.66843,39.71439,1820.61],[-120.66839,39.7145,1818.36],[-120.66836,39.71459,1815.97],[-120.66835,39.71466,1814.21],[-120.66834,39.71473,1812.49],[-120.66836,39.71482,1810.62],[-120.66838,39.71488,1809.45],[-120.66841,39.71493,1808.59],[-120.66842,39.71499,1807.55],[-120.66839,39.71504,1806.92],[-120.66837,39.7151,1806.29],[-120.66837,39.71516,1805.85],[-120.66836,39.71521,1805.37],[-120.66831,39.71526,1804.67],[-120.66828,39.7153,1804.53],[-120.66824,39.71534,1804.25],[-120.66813,39.71537,1803.18],[-120.66803,39.71535,1802.41],[-120.66794,39.71537,1801.78],[-120.66787,39.71541,1801.18],[-120.66784,39.71548,1800.77],[-120.6678,39.71554,1800.35],[-120.66773,39.71556,1799.63],[-120.66772,39.71561,1799.62],[-120.6677,39.71566,1799.49],[-120.66764,39.71567,1798.85],[-120.66756,39.71566,1797.94],[-120.66748,39.71571,1797.14],[-120.66747,39.71579,1797.21],[-120.66745,39.71585,1797.25],[-120.66739,39.71588,1796.7],[-120.66732,39.71594,1796.11],[-120.66726,39.716,1795.6],[-120.6672,39.71607,1795.01],[-120.66713,39.71615,1794.15],[-120.66707,39.71622,1793.65],[-120.66698,39.71627,1792.89],[-120.66689,39.71629,1792.13],[-120.66681,39.71632,1791.45],[-120.66675,39.71639,1791.09],[-120.66668,39.71648,1790.8],[-120.66667,39.71656,1790.78],[-120.66666,39.71663,1791.01],[-120.6666,39.71673,1791.07],[-120.66652,39.7168,1790.83],[-120.66644,39.71687,1790.49],[-120.66636,39.71693,1790.15],[-120.66631,39.71702,1790],[-120.6663,39.7171,1790.07],[-120.66626,39.71719,1790.03],[-120.66619,39.71721,1789.67],[-120.66614,39.71727,1789.52],[-120.66609,39.71735,1789.43],[-120.66602,39.71743,1789.15],[-120.66593,39.71751,1788.77],[-120.66584,39.71757,1788.35],[-120.66578,39.71766,1788.28],[-120.66573,39.71773,1788.22],[-120.66569,39.71782,1788.24],[-120.66564,39.7179,1788.14],[-120.66557,39.718,1788.18],[-120.66551,39.71807,1788.02],[-120.66545,39.71819,1788.29],[-120.66542,39.71826,1788.64],[-120.66537,39.71835,1788.84],[-120.66531,39.71843,1788.83],[-120.66523,39.7185,1788.56],[-120.66516,39.71858,1788.57],[-120.66509,39.71866,1788.59],[-120.665,39.71874,1788.23],[-120.66493,39.71884,1788.31],[-120.66485,39.71892,1788.03],[-120.66483,39.71898,1788.29],[-120.6648,39.71902,1788.21],[-120.66474,39.71907,1787.78],[-120.66468,39.71914,1787.49],[-120.66462,39.71921,1787.14],[-120.66461,39.71922,1787.04],[-120.66455,39.71925,1786.26],[-120.66447,39.71929,1785.12],[-120.66438,39.71935,1783.75],[-120.66433,39.71941,1783.13],[-120.6643,39.71949,1782.82],[-120.66423,39.71954,1781.93],[-120.66416,39.71958,1780.93],[-120.66417,39.71972,1781.2],[-120.66421,39.71987,1783.26],[-120.66414,39.72025,1786.95],[-120.66414,39.72032,1787.66],[-120.66424,39.72052,1791.08],[-120.66422,39.72066,1790.43],[-120.66423,39.72075,1790.27],[-120.66428,39.72091,1790.21],[-120.66457,39.72123,1793.97],[-120.66464,39.72133,1796.02],[-120.66475,39.72142,1799.39],[-120.66479,39.72155,1801.61],[-120.66478,39.72173,1802.01],[-120.66481,39.72179,1802.86],[-120.66483,39.722,1802.69],[-120.6649,39.72217,1802.1],[-120.66489,39.72231,1799.77],[-120.66486,39.72238,1798.6],[-120.66482,39.72242,1797.78],[-120.66478,39.72255,1795.32],[-120.66479,39.72275,1791.01],[-120.6648,39.72284,1788.94],[-120.6648,39.72286,1788.48],[-120.66483,39.72287,1788.31],[-120.66487,39.72285,1788.81],[-120.66492,39.72283,1789.28],[-120.66495,39.72285,1788.93],[-120.66493,39.7229,1787.94],[-120.66494,39.72294,1787.35],[-120.6649,39.72299,1786.33],[-120.66487,39.72307,1784.69],[-120.66481,39.72314,1782.69],[-120.66474,39.72319,1781],[-120.66475,39.72323,1780.74],[-120.6648,39.72328,1780.99],[-120.66494,39.72337,1782.43],[-120.66498,39.72343,1782.68],[-120.66499,39.7235,1782.64],[-120.66497,39.72358,1782.08],[-120.66498,39.72373,1781.59],[-120.66496,39.72379,1780.8],[-120.66491,39.72387,1779.48],[-120.66492,39.72395,1778.96],[-120.66491,39.72401,1778.38],[-120.6649,39.72405,1777.95],[-120.66492,39.72414,1777.52],[-120.66494,39.72446,1776.38],[-120.66491,39.72466,1775.77],[-120.6648,39.72486,1774.22],[-120.6646,39.72511,1771.53],[-120.66467,39.72528,1773.2],[-120.66464,39.72537,1774.05],[-120.66456,39.72543,1773.64],[-120.66438,39.72563,1773.67],[-120.66423,39.72574,1774.5],[-120.66399,39.72576,1773.61],[-120.66389,39.7258,1774.23],[-120.66378,39.7259,1775.28],[-120.66379,39.72602,1776.65],[-120.66376,39.72608,1777.14],[-120.66369,39.72614,1777],[-120.66373,39.72622,1777.43],[-120.66389,39.72624,1778.35],[-120.6641,39.72626,1780.09],[-120.66426,39.72624,1782.07],[-120.6644,39.72624,1784.14],[-120.6645,39.72627,1787.52],[-120.66458,39.72637,1791.55],[-120.66461,39.72649,1794.42],[-120.6646,39.72671,1796.78],[-120.66465,39.72699,1799.62],[-120.66467,39.72717,1800.27],[-120.66469,39.72747,1800.46],[-120.6648,39.72766,1804.94],[-120.66485,39.72795,1808.02],[-120.66491,39.72824,1810.82],[-120.66495,39.72861,1811.18],[-120.665,39.72885,1813.23],[-120.66501,39.72916,1816.11],[-120.66504,39.72939,1821.07],[-120.66504,39.72965,1825.61],[-120.66498,39.72991,1827.78],[-120.66499,39.73005,1830.92],[-120.66494,39.73029,1833.56],[-120.66489,39.73055,1836.83],[-120.66485,39.73088,1842.98],[-120.66481,39.73118,1847.92],[-120.66478,39.73161,1852.12],[-120.66475,39.73182,1850.31],[-120.66477,39.73191,1850.24],[-120.66486,39.732,1851.51],[-120.66504,39.73217,1852.91],[-120.66515,39.7324,1848.73],[-120.66528,39.73257,1846.25],[-120.66548,39.73281,1842.42],[-120.66552,39.733,1838.77],[-120.66552,39.73316,1835.66],[-120.66556,39.73321,1834.86],[-120.66561,39.73321,1834.96],[-120.66569,39.7332,1835.22],[-120.66572,39.73312,1836.42],[-120.66586,39.73276,1840.19],[-120.66597,39.73253,1842.11],[-120.66612,39.73236,1842.06],[-120.66633,39.7321,1844.4],[-120.66646,39.73202,1844.18],[-120.6666,39.73197,1846.3],[-120.6667,39.732,1847.84],[-120.66675,39.7321,1849.17],[-120.66678,39.73218,1849.76],[-120.66661,39.73236,1845.68],[-120.66656,39.73243,1844.41],[-120.66654,39.73251,1843.41],[-120.66655,39.73266,1842.25],[-120.66654,39.73275,1841.5],[-120.66649,39.73292,1839.9],[-120.66647,39.73304,1838.91],[-120.66629,39.73331,1835.88],[-120.66624,39.73337,1835.19],[-120.66621,39.73348,1834.34],[-120.66616,39.73358,1833.49],[-120.66614,39.73369,1832.76],[-120.66615,39.73377,1832.27],[-120.66616,39.73389,1831.4],[-120.66619,39.73401,1830.55],[-120.66631,39.73432,1826.99],[-120.66638,39.73444,1825.34],[-120.66645,39.73471,1817.35],[-120.66647,39.7348,1814.26],[-120.66671,39.73526,1805.47],[-120.66674,39.73534,1804.16],[-120.66679,39.73563,1798.69],[-120.6668,39.7357,1797.11],[-120.66681,39.73595,1791.1],[-120.66682,39.73601,1789.7],[-120.66686,39.73605,1788.92],[-120.66696,39.73608,1788.6],[-120.6671,39.73608,1789.2],[-120.66723,39.73611,1789],[-120.66729,39.73615,1788.03],[-120.66733,39.7362,1786.57],[-120.66731,39.73625,1784.8],[-120.66719,39.73634,1781.37],[-120.66716,39.73639,1779.68],[-120.66715,39.73645,1777.77],[-120.66714,39.73652,1775.55],[-120.66717,39.73669,1770.54],[-120.66717,39.73676,1768.72],[-120.66715,39.73685,1766.45],[-120.66714,39.73692,1764.75],[-120.66715,39.73699,1763.09],[-120.66735,39.73714,1759],[-120.66739,39.7372,1757.54],[-120.66741,39.73726,1756.19],[-120.66738,39.73732,1754.92],[-120.6674,39.73738,1753.6],[-120.66744,39.73744,1752.39],[-120.66748,39.73758,1750.08],[-120.66751,39.73764,1749.37],[-120.6675,39.73769,1748.44],[-120.66739,39.73775,1746.63],[-120.66735,39.73779,1745.69],[-120.66735,39.73779,1745.69],[-120.66737,39.73792,1743.87],[-120.66736,39.73801,1742.35],[-120.66731,39.73805,1741.28],[-120.66724,39.7381,1739.93],[-120.66689,39.73824,1735.31],[-120.66675,39.73831,1733.1],[-120.66661,39.73844,1729.94],[-120.66656,39.7385,1728.55],[-120.6665,39.73858,1726.9],[-120.66638,39.73881,1721.62],[-120.66633,39.73894,1718.15],[-120.6663,39.73905,1715.17],[-120.66633,39.73913,1713.07],[-120.66633,39.73919,1711.38],[-120.66627,39.73946,1704.67],[-120.66623,39.73951,1703.27],[-120.66598,39.73967,1698.37],[-120.6658,39.73977,1694.18],[-120.66556,39.74008,1688.54],[-120.66547,39.74017,1686.7],[-120.66537,39.74023,1685.3],[-120.66527,39.74026,1684.49],[-120.66512,39.74032,1682.21],[-120.66488,39.74043,1681.08],[-120.66476,39.7405,1680.01],[-120.66467,39.74061,1678.86],[-120.66459,39.7407,1678.8],[-120.66433,39.74091,1678.39],[-120.66426,39.74098,1678.21],[-120.66418,39.74108,1677.49],[-120.66411,39.74116,1676.79],[-120.66401,39.74125,1676.1],[-120.66392,39.74134,1675.4],[-120.66358,39.74172,1670.6],[-120.66348,39.74184,1668.56],[-120.66341,39.74193,1666.93],[-120.66335,39.74203,1664.52],[-120.66325,39.74232,1656.95],[-120.66321,39.74238,1655.4],[-120.66315,39.74243,1654.08],[-120.66308,39.74248,1652.84],[-120.66297,39.7425,1652.17],[-120.66287,39.74256,1649.93],[-120.66282,39.74263,1647.23],[-120.66275,39.7427,1644.27],[-120.66261,39.74282,1639.79],[-120.66253,39.74287,1637.78],[-120.66246,39.74303,1633.29],[-120.66242,39.74311,1631.42],[-120.66221,39.74329,1625.81],[-120.66214,39.74335,1624.46],[-120.66198,39.74342,1621.23],[-120.66186,39.74348,1620.53],[-120.66179,39.74355,1619.9],[-120.66173,39.74361,1619.17],[-120.66164,39.74366,1618.13],[-120.66155,39.74372,1617.59],[-120.66145,39.7438,1616.69],[-120.66133,39.74391,1614.89],[-120.66127,39.74398,1613.48],[-120.66119,39.74407,1612.15],[-120.66102,39.74422,1609.66],[-120.66092,39.74432,1607.68],[-120.66079,39.74451,1604.33],[-120.66075,39.74459,1603.05],[-120.66068,39.74483,1599.92],[-120.66061,39.74492,1598.54],[-120.66052,39.74502,1597.08],[-120.66007,39.7449,1596],[-120.65994,39.74486,1596.73],[-120.65982,39.7448,1597.5],[-120.65967,39.74474,1597.84],[-120.65954,39.74473,1597.64],[-120.65942,39.74471,1597.85],[-120.65922,39.74463,1598.81],[-120.65912,39.7446,1600.33],[-120.65904,39.74461,1601.2],[-120.65893,39.74463,1602.33],[-120.65879,39.74462,1604.31],[-120.65872,39.74463,1605.2],[-120.65869,39.74464,1605.54],[-120.6586,39.74466,1606.65],[-120.65849,39.7447,1608],[-120.65843,39.74473,1608.73],[-120.65831,39.74483,1609.97],[-120.65822,39.74487,1611.07],[-120.65812,39.7449,1612.27],[-120.65798,39.74491,1614.18],[-120.65786,39.74493,1615.59],[-120.65775,39.74497,1616.34],[-120.65752,39.74502,1618.23],[-120.65742,39.74503,1619],[-120.65735,39.74506,1619.14],[-120.65729,39.74509,1619.2],[-120.65718,39.74511,1619.94],[-120.65711,39.74514,1620.1],[-120.65695,39.74514,1621.52],[-120.65688,39.74513,1622.3],[-120.6568,39.74515,1622.74],[-120.65675,39.74515,1623.25],[-120.6567,39.74512,1624.24],[-120.65668,39.74508,1625.09],[-120.65666,39.74504,1625.96],[-120.65665,39.74498,1627.05],[-120.65667,39.74488,1628.51],[-120.6567,39.7448,1629.56],[-120.65681,39.74468,1630.53],[-120.65685,39.7446,1631.5],[-120.65685,39.74454,1632.49],[-120.65691,39.74438,1634.24],[-120.6569,39.74435,1634.8],[-120.65685,39.74436,1635.22],[-120.6568,39.74436,1635.8],[-120.65675,39.74439,1635.91],[-120.65667,39.74441,1636.49],[-120.65648,39.74447,1637.58],[-120.65633,39.74447,1639.64],[-120.65619,39.74448,1641.38],[-120.65585,39.74446,1647.14],[-120.65573,39.74445,1649.23],[-120.65533,39.74438,1656.58],[-120.65516,39.74436,1659.29],[-120.65452,39.7444,1659.07],[-120.65441,39.74441,1658.78],[-120.65416,39.74448,1659.14],[-120.65405,39.74452,1659.49],[-120.65394,39.74459,1660.05],[-120.65382,39.74464,1661.6],[-120.65372,39.74468,1662.92],[-120.65365,39.74473,1663.3],[-120.65352,39.74478,1664.82],[-120.65324,39.74488,1667.45],[-120.65312,39.74492,1668.34],[-120.65276,39.74501,1672.48],[-120.65265,39.74503,1674.59],[-120.65231,39.74517,1678.7],[-120.65216,39.74522,1681.24],[-120.65196,39.74533,1682.8],[-120.65182,39.7454,1684.7],[-120.65175,39.74546,1684.7],[-120.65167,39.7455,1685.92],[-120.65157,39.74557,1687.03],[-120.65145,39.74563,1689.39],[-120.65134,39.74567,1692.11],[-120.65122,39.74575,1693.55],[-120.65118,39.7458,1693.14],[-120.65097,39.74589,1697.59],[-120.6508,39.74599,1699.06],[-120.65048,39.74626,1698.41],[-120.65037,39.74635,1698.96],[-120.65028,39.74641,1699.58],[-120.65015,39.74646,1699.75],[-120.65008,39.74653,1699.52],[-120.65001,39.74661,1699.97],[-120.64955,39.74689,1698.84],[-120.64952,39.74691,1698.52],[-120.64948,39.74691,1698],[-120.64945,39.74687,1697.36],[-120.64941,39.74667,1695.37],[-120.6494,39.74661,1694.65],[-120.64938,39.74657,1693.88],[-120.64934,39.74655,1692.9],[-120.64929,39.74656,1691.99],[-120.64923,39.7466,1691.01],[-120.64917,39.74664,1689.99],[-120.64909,39.74671,1688.81],[-120.64904,39.74676,1688.11],[-120.64897,39.74685,1687.3],[-120.64876,39.74704,1684.04],[-120.64873,39.74705,1683.43],[-120.64872,39.74698,1682.68],[-120.64871,39.7469,1681.89],[-120.64872,39.74681,1681.51],[-120.64872,39.7467,1680.78],[-120.64869,39.74645,1678.83],[-120.64868,39.74639,1678.34],[-120.64867,39.74614,1676.15],[-120.64866,39.74607,1674.92],[-120.64872,39.74592,1673.82],[-120.64875,39.74583,1673.07],[-120.64884,39.74544,1669.98],[-120.64887,39.74536,1669.99],[-120.64885,39.74524,1668.57],[-120.64882,39.74517,1667.31],[-120.64885,39.74495,1666],[-120.64888,39.74489,1666.06],[-120.64887,39.74483,1665.12],[-120.64882,39.74478,1663.07],[-120.64868,39.74472,1658.55],[-120.64861,39.74465,1655.63],[-120.64859,39.74453,1653.21],[-120.6486,39.74447,1652.69],[-120.6486,39.74444,1652.33],[-120.64856,39.74438,1650.87],[-120.64849,39.74437,1649.54],[-120.64838,39.74451,1648.94],[-120.64821,39.74465,1647.48],[-120.6478,39.74505,1644.4],[-120.64771,39.7451,1643.36],[-120.64714,39.74532,1637.38],[-120.64703,39.74544,1635.54],[-120.64687,39.74554,1633.04],[-120.64699,39.74566,1633.62],[-120.647,39.74575,1633.23],[-120.64699,39.74604,1631.89],[-120.64695,39.74616,1630.99],[-120.64677,39.74639,1628.23],[-120.64671,39.74651,1627.93],[-120.64655,39.74669,1626.09],[-120.64647,39.74685,1625.96],[-120.64633,39.74698,1624.1],[-120.64606,39.74741,1617.39],[-120.64585,39.74756,1611],[-120.64581,39.74766,1609.73],[-120.6457,39.74767,1606.82],[-120.64561,39.74777,1604.81],[-120.64558,39.74799,1605.32],[-120.64556,39.7481,1604.81],[-120.64546,39.7483,1601.84],[-120.64535,39.74872,1595.14],[-120.64534,39.74884,1594.01],[-120.64526,39.74897,1591.1],[-120.64516,39.74901,1587.96],[-120.64492,39.74931,1579.73],[-120.64476,39.74959,1579.7],[-120.64468,39.74966,1578.92],[-120.64409,39.74998,1569.83],[-120.64383,39.75015,1568.32],[-120.64372,39.75034,1568.44],[-120.64347,39.7506,1567.67],[-120.64328,39.75097,1568.2],[-120.64319,39.75108,1567.69],[-120.64309,39.75116,1566.68],[-120.64299,39.75119,1565.1],[-120.64299,39.75118,1565.03],[-120.64297,39.75103,1563.88],[-120.64302,39.75079,1563.37],[-120.64298,39.75076,1562.47],[-120.64293,39.75077,1561.64],[-120.64293,39.75085,1562.26],[-120.6427,39.75148,1561.47],[-120.64265,39.75245,1564.45],[-120.64259,39.75287,1563.46],[-120.64247,39.75321,1560.66],[-120.64217,39.75371,1557.94],[-120.64202,39.75392,1558.8],[-120.64141,39.75453,1553.9],[-120.641,39.75502,1548.81],[-120.64078,39.75524,1546.06],[-120.64059,39.75548,1543.77],[-120.64029,39.75571,1541.33],[-120.63974,39.75604,1538.76],[-120.63949,39.75627,1538.07],[-120.63916,39.75649,1537.14],[-120.63857,39.75676,1532.32],[-120.63836,39.7568,1530.9],[-120.63791,39.75672,1530.72],[-120.63777,39.75672,1530.58],[-120.63747,39.75677,1529.78],[-120.63719,39.75663,1531.54],[-120.63683,39.75657,1530.52],[-120.63672,39.75653,1530.01],[-120.63665,39.75652,1529.54],[-120.6366,39.75654,1529.07],[-120.63657,39.75656,1528.77],[-120.63659,39.7566,1528.73],[-120.63665,39.75664,1528.91],[-120.63674,39.75669,1529.1],[-120.63692,39.75683,1528.7],[-120.63695,39.75688,1528.26],[-120.63692,39.75692,1527.86],[-120.63683,39.75695,1527.46],[-120.63608,39.75703,1524.9],[-120.63546,39.75717,1520.34],[-120.63498,39.75736,1517.25],[-120.63459,39.75734,1513.62],[-120.63441,39.75732,1509.42],[-120.63432,39.75756,1508.47],[-120.63409,39.7576,1502.71],[-120.63402,39.75763,1500.9],[-120.63401,39.75775,1501.48],[-120.634,39.75798,1500.32],[-120.63397,39.75801,1499.85],[-120.63395,39.75802,1499.57],[-120.63361,39.75813,1495.82],[-120.63357,39.75824,1494.85],[-120.63357,39.75838,1494.5],[-120.63361,39.75851,1494.62],[-120.6337,39.75864,1494.69],[-120.63393,39.75885,1494.92],[-120.63413,39.75917,1494.3],[-120.63403,39.75926,1493.07],[-120.63394,39.75937,1491.8],[-120.63384,39.75948,1490.51],[-120.63373,39.75961,1488.68],[-120.63364,39.75972,1487.02],[-120.63357,39.75978,1485.87],[-120.63356,39.75979,1485.69],[-120.63348,39.75985,1484.36],[-120.63347,39.75985,1484.19],[-120.63337,39.75985,1482.56],[-120.63326,39.75983,1480.95],[-120.63315,39.7598,1479.5],[-120.63285,39.75973,1472.88],[-120.63247,39.75965,1464.58],[-120.63215,39.75957,1460.36],[-120.63191,39.75942,1458.07],[-120.63173,39.75931,1455.93],[-120.63157,39.75925,1453.48],[-120.63141,39.75918,1451.37],[-120.63125,39.75914,1448.98],[-120.63114,39.75916,1446.92],[-120.63104,39.75921,1445.03],[-120.63093,39.75927,1443.64],[-120.6301,39.75982,1430.78],[-120.6299,39.75999,1425.87],[-120.62978,39.7601,1424.58],[-120.62968,39.76023,1421.25],[-120.62964,39.76029,1419.39],[-120.62958,39.76035,1418.13],[-120.62942,39.76045,1417.58],[-120.62912,39.76059,1415.24],[-120.6287,39.76057,1408.82],[-120.62846,39.76063,1406.5],[-120.62822,39.76068,1404.83],[-120.62804,39.76073,1403.92],[-120.62786,39.76078,1403.24],[-120.62774,39.76083,1403.29],[-120.62768,39.76086,1403.57],[-120.62764,39.76088,1403.72],[-120.62746,39.76098,1400.84],[-120.62724,39.76111,1397.35],[-120.62713,39.76119,1395.16],[-120.62703,39.76119,1394.49],[-120.62692,39.76118,1393.71],[-120.62684,39.76113,1392.72],[-120.62679,39.76108,1392.06],[-120.62677,39.761,1391.75],[-120.6268,39.76094,1392.19],[-120.62685,39.76088,1392.25],[-120.62693,39.76083,1392.38],[-120.62709,39.76076,1393.71],[-120.62726,39.76071,1395.69],[-120.62749,39.76065,1398.52],[-120.62768,39.76059,1398.49],[-120.62784,39.76054,1397.49],[-120.62791,39.76046,1394.35],[-120.62786,39.76043,1392.16],[-120.62777,39.76042,1390.34],[-120.62745,39.7605,1390.2],[-120.6272,39.76053,1388.27],[-120.62694,39.76056,1386.16],[-120.62677,39.76059,1385.25],[-120.6266,39.76063,1384.34],[-120.62632,39.76074,1382.77],[-120.62615,39.76083,1381.95],[-120.62599,39.76099,1381.11],[-120.62584,39.76116,1379.5],[-120.62567,39.76133,1375.84],[-120.6256,39.76149,1373.8],[-120.62552,39.76166,1372.55],[-120.62542,39.76185,1371.91],[-120.62535,39.7621,1371.34],[-120.62529,39.76234,1369.03],[-120.6252,39.76263,1365.3],[-120.62517,39.76272,1364.16],[-120.62509,39.76298,1360.53],[-120.625,39.76309,1358.58],[-120.62458,39.7635,1353.31],[-120.62394,39.76417,1348.77],[-120.62358,39.76454,1345.92],[-120.62332,39.76482,1345.31],[-120.62303,39.76517,1344.38],[-120.62238,39.7659,1341.3],[-120.62187,39.76646,1337.91],[-120.62176,39.76658,1337.03],[-120.62153,39.76683,1335.19],[-120.6214,39.76691,1334.48],[-120.62127,39.76695,1333.99],[-120.62112,39.76695,1333.71],[-120.6209,39.76693,1333.54],[-120.62028,39.76681,1333.36],[-120.61979,39.76671,1332.76],[-120.61924,39.76657,1332.95],[-120.61914,39.76654,1333.05],[-120.61905,39.76654,1333.09],[-120.61898,39.76655,1333.14],[-120.61895,39.76653,1333.18],[-120.61894,39.7665,1333.21],[-120.61893,39.76648,1333.23],[-120.61891,39.76646,1333.26],[-120.61889,39.76644,1333.28],[-120.61886,39.7664,1333.3],[-120.61885,39.76639,1333.31],[-120.61884,39.76638,1333.31],[-120.61882,39.76636,1333.32],[-120.61881,39.76635,1333.32],[-120.61879,39.76632,1333.32],[-120.61878,39.76631,1333.32],[-120.61877,39.7663,1333.32],[-120.61876,39.76627,1333.31],[-120.61875,39.76626,1333.3],[-120.61873,39.76625,1333.3],[-120.61872,39.76623,1333.29],[-120.61871,39.76622,1333.27],[-120.61869,39.76621,1333.26],[-120.61866,39.7662,1333.24],[-120.61864,39.76619,1333.22],[-120.61863,39.76619,1333.22],[-120.6186,39.76619,1333.2],[-120.61858,39.7662,1333.2],[-120.61857,39.76621,1333.2],[-120.61855,39.76622,1333.19],[-120.61854,39.76623,1333.18],[-120.61852,39.76625,1333.17],[-120.61851,39.76626,1333.17],[-120.6185,39.76627,1333.16],[-120.61849,39.76628,1333.15],[-120.61848,39.76629,1333.15],[-120.61846,39.76631,1333.13],[-120.61844,39.76633,1333.12],[-120.61843,39.76634,1333.11],[-120.61841,39.76636,1333.09],[-120.6184,39.76637,1333.08],[-120.61838,39.76638,1333.06],[-120.61837,39.76639,1333.05],[-120.61835,39.76639,1333.04],[-120.61834,39.7664,1333.03]]}}
