{"type":"Feature","properties":{"name":"\nYuba Expeditions: Haskell Peak Out and Back\n","sourceLabel":"Trailforks / Yuba Expeditions","sourceUrl":"https://www.trailforks.com/route/yuba-expeditions-haskell-peak-out-and-back/","retrievedAt":"2026-09-28","gpxSha256":"9f39cffa6eaa530d71a2fdfdba02b794fcf1a580ac9da3b12f5531e8acb5cb4d","dataUsePolicy":"https://www.trailforks.com/about/data/","licenseNote":"Downloaded with user-approved data-use agreement. Public attribution required; commercial use requires Trailforks consent."},"geometry":{"type":"LineString","coordinates":[[-120.54321,39.63114,1788.2],[-120.54286,39.63134,1790.0],[-120.54266,39.63142,1791.0],[-120.54248,39.63145,1792.2],[-120.54176,39.63153,1797.0],[-120.5415,39.63158,1798.7],[-120.54119,39.63168,1801.5],[-120.541,39.63172,1803.6],[-120.5407,39.63167,1806.1],[-120.54058,39.63167,1806.9],[-120.54023,39.63183,1807.7],[-120.5401,39.63187,1805.9],[-120.53955,39.63187,1810.7],[-120.53919,39.63183,1815.3],[-120.53901,39.63186,1812.9],[-120.53857,39.63201,1811.6],[-120.5384,39.63204,1810.8],[-120.53751,39.63181,1816.1],[-120.537,39.63183,1820.1],[-120.53677,39.63191,1821.6],[-120.53656,39.63201,1826.4],[-120.53642,39.63214,1826.5],[-120.53621,39.63226,1830.4],[-120.53611,39.63237,1835.9],[-120.53607,39.63253,1837.4],[-120.53608,39.6327,1836.8],[-120.53594,39.63303,1841.7],[-120.53595,39.63328,1840.2],[-120.53594,39.63345,1839.0],[-120.53589,39.63354,1842.5],[-120.53569,39.63376,1848.0],[-120.53561,39.63393,1849.3],[-120.53553,39.6342,1846.5],[-120.53546,39.63432,1847.2],[-120.53534,39.63442,1847.5],[-120.53511,39.63468,1845.7],[-120.53492,39.63495,1844.9],[-120.53481,39.63501,1846.2],[-120.53433,39.63514,1852.2],[-120.53351,39.63546,1861.5],[-120.5335,39.63546,1861.5],[-120.533,39.63571,1867.3],[-120.5328,39.63584,1868.2],[-120.5327,39.63594,1868.6],[-120.5324,39.63631,1876.6],[-120.53199,39.63689,1879.7],[-120.53192,39.63716,1878.1],[-120.53186,39.63732,1876.0],[-120.53167,39.63754,1878.8],[-120.53154,39.63777,1883.8],[-120.53141,39.6381,1881.2],[-120.53141,39.63821,1879.5],[-120.53159,39.63844,1878.9],[-120.53164,39.63857,1879.7],[-120.53167,39.63886,1883.3],[-120.53167,39.63901,1887.0],[-120.53149,39.63935,1892.0],[-120.53145,39.63947,1891.7],[-120.53146,39.63953,1891.7],[-120.53164,39.63989,1902.9],[-120.53174,39.64024,1907.4],[-120.53183,39.64123,1923.2],[-120.53182,39.64185,1922.6],[-120.53172,39.64214,1921.3],[-120.53168,39.64235,1917.1],[-120.53159,39.64251,1918.2],[-120.53157,39.64264,1920.3],[-120.53158,39.64278,1915.5],[-120.53167,39.64289,1914.8],[-120.53181,39.64327,1921.5],[-120.53191,39.64364,1926.5],[-120.53191,39.64374,1926.6],[-120.5318,39.64392,1926.7],[-120.53147,39.6442,1927.7],[-120.53134,39.64427,1928.9],[-120.53109,39.64429,1930.0],[-120.53086,39.64434,1930.6],[-120.53065,39.64441,1932.8],[-120.53041,39.64455,1937.5],[-120.53014,39.64467,1939.3],[-120.52962,39.64477,1945.3],[-120.52948,39.64479,1945.6],[-120.5293,39.64481,1946.1],[-120.52916,39.64479,1946.3],[-120.52904,39.64483,1950.6],[-120.52847,39.64509,1954.9],[-120.52819,39.64528,1961.7],[-120.52793,39.64537,1959.6],[-120.52744,39.64569,1964.4],[-120.52734,39.64585,1965.9],[-120.52732,39.64597,1966.4],[-120.52725,39.64611,1964.0],[-120.52712,39.64625,1957.4],[-120.52704,39.64638,1957.4],[-120.52696,39.64661,1953.0],[-120.52697,39.64681,1952.7],[-120.52701,39.64706,1953.1],[-120.527,39.64712,1953.1],[-120.52693,39.64719,1952.8],[-120.52662,39.64735,1956.8],[-120.52646,39.64745,1959.3],[-120.52757,39.64924,1969.2],[-120.52839,39.64927,1962.9],[-120.52839,39.64927,1962.9],[-120.52847,39.64927,1964.1],[-120.52855,39.64931,1965.4],[-120.52868,39.64938,1966.2],[-120.52899,39.64946,1970.5],[-120.52916,39.64947,1972.0],[-120.52967,39.64965,1975.5],[-120.52971,39.64966,1975.5],[-120.52973,39.64964,1976.2],[-120.52973,39.64962,1978.4],[-120.52969,39.64961,1977.0],[-120.52937,39.64938,1976.4],[-120.52927,39.64926,1976.7],[-120.52921,39.64914,1979.5],[-120.52922,39.64895,1986.5],[-120.52917,39.64879,1990.9],[-120.52917,39.64869,1992.3],[-120.52919,39.64861,1993.3],[-120.52918,39.64849,1993.9],[-120.5292,39.64844,1993.9],[-120.52945,39.64826,2000.1],[-120.52951,39.64824,1999.9],[-120.5296,39.64824,2001.7],[-120.52964,39.64826,2004.0],[-120.52967,39.6483,2004.0],[-120.52959,39.64869,2001.4],[-120.52969,39.64885,2000.6],[-120.52978,39.64894,2000.1],[-120.52987,39.649,1998.7],[-120.53013,39.64914,2000.0],[-120.53023,39.64917,1997.9],[-120.53027,39.64918,1997.9],[-120.53102,39.64922,2007.7],[-120.53115,39.6492,2008.3],[-120.53144,39.64911,2012.4],[-120.53151,39.64908,2011.9],[-120.53183,39.64887,2022.8],[-120.53197,39.64882,2023.1],[-120.53215,39.64875,2026.7],[-120.53225,39.64864,2027.1],[-120.53231,39.64853,2026.9],[-120.5324,39.64844,2025.8],[-120.53288,39.64824,2027.7],[-120.53315,39.64806,2032.6],[-120.53319,39.64805,2031.0],[-120.53322,39.64806,2032.6],[-120.53322,39.6481,2032.6],[-120.53317,39.64823,2033.7],[-120.53317,39.64829,2034.1],[-120.53319,39.64833,2034.1],[-120.53327,39.64847,2035.6],[-120.53343,39.64862,2038.9],[-120.53352,39.6488,2041.4],[-120.53354,39.64891,2041.3],[-120.53357,39.64897,2041.3],[-120.5337,39.64917,2041.1],[-120.53379,39.64925,2042.7],[-120.53388,39.64927,2042.4],[-120.53397,39.64927,2043.2],[-120.53467,39.649,2050.0],[-120.53491,39.64896,2051.4],[-120.53508,39.64896,2051.3],[-120.53552,39.64904,2054.2],[-120.53564,39.64904,2056.0],[-120.53573,39.64907,2057.5],[-120.53581,39.64913,2057.1],[-120.5359,39.64917,2057.5],[-120.53602,39.64927,2059.4],[-120.53611,39.64954,2060.5],[-120.53622,39.64976,2066.3],[-120.53637,39.64992,2069.9],[-120.53637,39.65005,2070.4],[-120.53637,39.65005,2070.4],[-120.53641,39.65037,2072.9],[-120.53645,39.65055,2072.2],[-120.53648,39.65058,2071.0],[-120.53658,39.65059,2074.6],[-120.53672,39.65059,2076.0],[-120.53697,39.6505,2081.2],[-120.53707,39.6505,2082.8],[-120.53726,39.65056,2084.1],[-120.53742,39.65064,2086.7],[-120.53763,39.65077,2086.9],[-120.53782,39.65106,2092.1],[-120.53787,39.65122,2094.4],[-120.53787,39.65124,2094.4],[-120.53783,39.65131,2095.3],[-120.53772,39.65143,2093.9],[-120.53772,39.65147,2093.9],[-120.53777,39.65147,2093.9],[-120.5381,39.65133,2100.3],[-120.53813,39.65133,2100.3],[-120.53815,39.65135,2101.6],[-120.53817,39.65143,2102.4],[-120.53816,39.65149,2102.2],[-120.53811,39.65158,2100.2],[-120.53803,39.65164,2098.1],[-120.53804,39.65168,2100.0],[-120.53808,39.65169,2102.7],[-120.53819,39.65164,2103.0],[-120.53835,39.65153,2106.6],[-120.53882,39.65135,2109.4],[-120.53901,39.65133,2110.4],[-120.53924,39.65138,2111.4],[-120.53927,39.65137,2111.8],[-120.53935,39.65141,2112.8],[-120.5394,39.65144,2113.2],[-120.53937,39.65156,2114.1],[-120.53936,39.65168,2116.1],[-120.53937,39.65178,2117.0],[-120.53965,39.6519,2119.5],[-120.53999,39.65195,2121.8],[-120.54013,39.652,2122.4],[-120.54031,39.65214,2126.3],[-120.54031,39.65226,2127.7],[-120.54022,39.65254,2131.4],[-120.54027,39.65265,2132.6],[-120.54041,39.65283,2136.7],[-120.5409,39.65367,2150.6],[-120.54103,39.65375,2153.0],[-120.54165,39.65377,2160.4],[-120.54237,39.65376,2166.8],[-120.54259,39.65382,2169.5],[-120.54281,39.65393,2171.2],[-120.54321,39.65396,2169.8],[-120.54331,39.65397,2169.5],[-120.54345,39.65403,2171.1],[-120.54398,39.65434,2175.1],[-120.54442,39.65462,2179.5],[-120.5451,39.6552,2196.5],[-120.54547,39.65545,2204.1],[-120.54577,39.65554,2208.3],[-120.5459,39.65564,2210.3],[-120.54604,39.65601,2216.1],[-120.54621,39.65625,2221.0],[-120.54635,39.65635,2223.2],[-120.54688,39.65649,2232.0],[-120.54703,39.65655,2233.1],[-120.54721,39.65672,2237.9],[-120.5476,39.65691,2246.1],[-120.54783,39.65691,2248.3],[-120.54792,39.65693,2249.4],[-120.54819,39.65721,2256.3],[-120.54841,39.65735,2263.5],[-120.54855,39.65742,2268.7],[-120.54877,39.65748,2271.5],[-120.54922,39.65782,2283.2],[-120.54931,39.65806,2287.4],[-120.54944,39.6582,2290.0],[-120.5498,39.65842,2297.9],[-120.55002,39.65852,2305.0],[-120.5502,39.65863,2309.4],[-120.55056,39.65865,2316.3],[-120.5506,39.65867,2316.3],[-120.55069,39.6588,2321.9],[-120.5507,39.65905,2325.5],[-120.55078,39.65917,2330.8],[-120.55087,39.65921,2332.7],[-120.55114,39.65919,2338.4],[-120.55213,39.65888,2350.0],[-120.55244,39.65881,2353.8],[-120.55294,39.65876,2358.4],[-120.55325,39.65862,2361.7],[-120.55351,39.65861,2362.8],[-120.55366,39.65865,2363.8],[-120.55378,39.65872,2365.2],[-120.55376,39.65871,2365.2],[-120.55379,39.6588,2366.5],[-120.55379,39.65885,2366.5],[-120.55374,39.65896,2368.0],[-120.55374,39.65905,2369.5],[-120.55384,39.65923,2373.2],[-120.55383,39.65928,2375.1],[-120.55365,39.65945,2378.5],[-120.55366,39.65952,2378.5],[-120.55378,39.6597,2386.1],[-120.55347,39.6601,2398.7],[-120.55345,39.66024,2401.5],[-120.55351,39.66041,2408.0],[-120.55374,39.66076,2422.3],[-120.55378,39.66091,2423.4],[-120.55387,39.66105,2425.8],[-120.554,39.66113,2428.2],[-120.55414,39.66131,2431.5],[-120.55424,39.66167,2435.8],[-120.55418,39.66183,2436.8],[-120.55405,39.66198,2440.7],[-120.55396,39.66217,2444.7],[-120.55392,39.66232,2447.4],[-120.55356,39.66264,2458.3],[-120.55338,39.6627,2460.5],[-120.55329,39.66268,2462.5],[-120.55307,39.66252,2466.3],[-120.5528,39.66247,2469.5],[-120.55307,39.66252,2466.3],[-120.55329,39.66268,2462.5],[-120.55338,39.6627,2460.5],[-120.55356,39.66264,2458.3],[-120.55392,39.66232,2447.4],[-120.55396,39.66217,2444.7],[-120.55405,39.66198,2440.7],[-120.55418,39.66183,2436.8],[-120.55424,39.66167,2435.8],[-120.55414,39.66131,2431.5],[-120.554,39.66113,2428.2],[-120.55387,39.66105,2425.8],[-120.55378,39.66091,2423.4],[-120.55374,39.66076,2422.3],[-120.55351,39.66041,2408.0],[-120.55345,39.66024,2401.5],[-120.55347,39.6601,2398.7],[-120.55378,39.6597,2386.1],[-120.55366,39.65952,2378.5],[-120.55365,39.65945,2378.5],[-120.55383,39.65928,2375.1],[-120.55384,39.65923,2373.2],[-120.55374,39.65905,2369.5],[-120.55374,39.65896,2368.0],[-120.55379,39.65885,2366.5],[-120.55379,39.6588,2366.5],[-120.55376,39.65871,2365.2],[-120.55378,39.65872,2365.2],[-120.55366,39.65865,2363.8],[-120.55351,39.65861,2362.8],[-120.55325,39.65862,2361.7],[-120.55294,39.65876,2358.4],[-120.55244,39.65881,2353.8],[-120.55213,39.65888,2350.0],[-120.55127,39.65915,2338.9],[-120.55114,39.65919,2338.4],[-120.55087,39.65921,2332.7],[-120.55078,39.65917,2330.8],[-120.5507,39.65905,2325.5],[-120.55069,39.6588,2321.9],[-120.5506,39.65867,2316.3],[-120.55056,39.65865,2316.3],[-120.5502,39.65863,2309.4],[-120.55002,39.65852,2305.0],[-120.5498,39.65842,2297.9],[-120.54944,39.6582,2290.0],[-120.54931,39.65806,2287.4],[-120.54922,39.65782,2283.2],[-120.54877,39.65748,2271.5],[-120.54855,39.65742,2268.7],[-120.54841,39.65735,2263.5],[-120.54819,39.65721,2256.3],[-120.54792,39.65693,2249.4],[-120.54783,39.65691,2248.3],[-120.5476,39.65691,2246.1],[-120.54721,39.65672,2237.9],[-120.54703,39.65655,2233.1],[-120.54688,39.65649,2232.0],[-120.54635,39.65635,2223.2],[-120.54621,39.65625,2221.0],[-120.54604,39.65601,2216.1],[-120.5459,39.65564,2210.3],[-120.54577,39.65554,2208.3],[-120.54547,39.65545,2204.1],[-120.5451,39.6552,2196.5],[-120.54442,39.65462,2179.5],[-120.54438,39.65459,2179.5],[-120.54398,39.65434,2175.1],[-120.54345,39.65403,2171.1],[-120.54331,39.65397,2169.5],[-120.54281,39.65393,2171.2],[-120.54259,39.65382,2169.5],[-120.54237,39.65376,2166.8],[-120.54165,39.65377,2160.4],[-120.54103,39.65375,2153.0],[-120.5409,39.65367,2150.6],[-120.54041,39.65283,2136.7],[-120.54027,39.65265,2132.6],[-120.54022,39.65254,2131.4],[-120.54031,39.65226,2127.7],[-120.54031,39.65214,2126.3],[-120.54013,39.652,2122.4],[-120.53999,39.65195,2121.8],[-120.53965,39.6519,2119.5],[-120.53937,39.65178,2117.0],[-120.53936,39.65168,2116.1],[-120.53937,39.65156,2114.1],[-120.53941,39.65142,2113.2],[-120.53882,39.65135,2109.4],[-120.53835,39.65153,2106.6],[-120.53819,39.65164,2103.0],[-120.53808,39.65169,2102.7],[-120.53804,39.65168,2100.0],[-120.53803,39.65164,2098.1],[-120.53811,39.65158,2100.2],[-120.53816,39.65149,2102.2],[-120.53817,39.65143,2102.4],[-120.53815,39.65135,2101.6],[-120.53813,39.65133,2100.3],[-120.5381,39.65133,2100.3],[-120.53777,39.65147,2093.9],[-120.53772,39.65147,2093.9],[-120.53772,39.65145,2093.9],[-120.53772,39.65143,2093.9],[-120.53783,39.65131,2095.3],[-120.53787,39.65124,2094.4],[-120.53787,39.65122,2094.4],[-120.53782,39.65106,2092.1],[-120.53763,39.65077,2086.9],[-120.53742,39.65064,2086.7],[-120.53728,39.65057,2084.1],[-120.53726,39.65056,2084.1],[-120.53707,39.6505,2082.8],[-120.53697,39.6505,2081.2],[-120.53672,39.65059,2076.0],[-120.53658,39.65059,2074.6],[-120.53648,39.65058,2071.0],[-120.53645,39.65055,2072.2],[-120.53641,39.65037,2072.9],[-120.53637,39.65005,2070.4],[-120.53637,39.64992,2069.9],[-120.53622,39.64976,2066.3],[-120.53611,39.64954,2060.5],[-120.53602,39.64927,2059.4],[-120.5359,39.64917,2057.5],[-120.53581,39.64913,2057.1],[-120.53573,39.64907,2057.5],[-120.53564,39.64904,2056.0],[-120.53552,39.64904,2054.2],[-120.53508,39.64896,2051.3],[-120.53491,39.64896,2051.4],[-120.53467,39.649,2050.0],[-120.53397,39.64927,2043.2],[-120.53388,39.64927,2042.4],[-120.53379,39.64925,2042.7],[-120.5337,39.64917,2041.1],[-120.53357,39.64897,2041.3],[-120.53354,39.64891,2041.3],[-120.53352,39.6488,2041.4],[-120.53343,39.64862,2038.9],[-120.53327,39.64847,2035.6],[-120.53319,39.64833,2034.1],[-120.53317,39.64829,2034.1],[-120.53317,39.64823,2033.7],[-120.53322,39.6481,2032.6],[-120.53322,39.64806,2032.6],[-120.53319,39.64805,2031.0],[-120.53315,39.64806,2032.6],[-120.53288,39.64824,2027.7],[-120.5324,39.64844,2025.8],[-120.53231,39.64853,2026.9],[-120.53225,39.64864,2027.1],[-120.53215,39.64875,2026.7],[-120.53197,39.64882,2023.1],[-120.53183,39.64887,2022.8],[-120.53151,39.64908,2011.9],[-120.53144,39.64911,2012.4],[-120.53115,39.6492,2008.3],[-120.53102,39.64922,2007.7],[-120.53027,39.64918,1997.9],[-120.53013,39.64914,2000.0],[-120.52987,39.649,1998.7],[-120.52978,39.64894,2000.1],[-120.52969,39.64885,2000.6],[-120.52959,39.64869,2001.4],[-120.52967,39.6483,2004.0],[-120.52964,39.64826,2004.0],[-120.5296,39.64824,2001.7],[-120.52951,39.64824,1999.9],[-120.52945,39.64826,2000.1],[-120.5292,39.64844,1993.9],[-120.52918,39.64849,1993.9],[-120.52919,39.64861,1993.3],[-120.52917,39.64869,1992.3],[-120.52917,39.64879,1990.9],[-120.52922,39.64895,1986.5],[-120.52921,39.64914,1979.5],[-120.52927,39.64926,1976.7],[-120.52937,39.64938,1976.4],[-120.52969,39.64961,1977.0],[-120.52973,39.64962,1978.4],[-120.52973,39.64964,1976.2],[-120.52971,39.64966,1975.5],[-120.52967,39.64965,1975.5],[-120.52916,39.64947,1972.0],[-120.52899,39.64946,1970.5],[-120.52868,39.64938,1966.2],[-120.52855,39.64931,1965.4],[-120.52847,39.64927,1964.1],[-120.52839,39.64927,1962.9],[-120.52839,39.64927,1962.9],[-120.52839,39.64927,1962.9],[-120.52789,39.64925,1966.0],[-120.52717,39.64865,1967.0],[-120.52649,39.64752,1959.1],[-120.52662,39.64735,1956.8],[-120.52693,39.64719,1952.8],[-120.527,39.64712,1953.1],[-120.52701,39.64706,1953.1],[-120.52697,39.64681,1952.7],[-120.52696,39.64661,1953.0],[-120.52696,39.64661,1953.0],[-120.52704,39.64638,1957.4],[-120.52712,39.64625,1957.4],[-120.52725,39.64611,1964.0],[-120.52732,39.64597,1966.4],[-120.52734,39.64585,1965.9],[-120.52744,39.64569,1964.4],[-120.52793,39.64537,1959.6],[-120.52819,39.64528,1961.7],[-120.52847,39.64509,1954.9],[-120.52904,39.64483,1950.6],[-120.52916,39.64479,1946.3],[-120.5293,39.64481,1946.1],[-120.52948,39.64479,1945.6],[-120.53014,39.64467,1939.3],[-120.53041,39.64455,1937.5],[-120.53065,39.64441,1932.8],[-120.53086,39.64434,1930.6],[-120.53109,39.64429,1930.0],[-120.53134,39.64427,1928.9],[-120.53147,39.6442,1927.7],[-120.5318,39.64392,1926.7],[-120.53191,39.64374,1926.6],[-120.53191,39.64364,1926.5],[-120.53181,39.64327,1921.5],[-120.53167,39.64289,1914.8],[-120.53158,39.64278,1915.5],[-120.53157,39.64264,1920.3],[-120.53159,39.64251,1918.2],[-120.53168,39.64235,1917.1],[-120.53172,39.64214,1921.3],[-120.53182,39.64185,1922.6],[-120.53183,39.64123,1923.2],[-120.53174,39.64024,1907.4],[-120.53164,39.63989,1902.9],[-120.53146,39.63953,1891.7],[-120.53145,39.63947,1891.7],[-120.53149,39.63935,1892.0],[-120.53167,39.63901,1887.0],[-120.53167,39.63886,1883.3],[-120.53164,39.63857,1879.7],[-120.53159,39.63844,1878.9],[-120.53141,39.63821,1879.5],[-120.53141,39.6381,1881.2],[-120.53154,39.63777,1883.8],[-120.53167,39.63754,1878.8],[-120.53186,39.63732,1876.0],[-120.53192,39.63716,1878.1],[-120.53199,39.63689,1879.7],[-120.5324,39.63631,1876.6],[-120.5327,39.63594,1868.6],[-120.5328,39.63584,1868.2],[-120.533,39.63571,1867.3],[-120.5335,39.63546,1861.5],[-120.53433,39.63514,1852.2],[-120.53481,39.63501,1846.2],[-120.53492,39.63495,1844.9],[-120.53511,39.63468,1845.7],[-120.53534,39.63442,1847.5],[-120.53546,39.63432,1847.2],[-120.53553,39.6342,1846.5],[-120.53561,39.63393,1849.3],[-120.53561,39.63393,1849.3],[-120.53569,39.63376,1848.0],[-120.53589,39.63354,1842.5],[-120.53594,39.63345,1839.0],[-120.53595,39.63328,1840.2],[-120.53594,39.63303,1841.7],[-120.53608,39.6327,1836.8],[-120.53607,39.63253,1837.4],[-120.53611,39.63237,1835.9],[-120.53621,39.63226,1830.4],[-120.53642,39.63214,1826.5],[-120.53656,39.63201,1826.4],[-120.53677,39.63191,1821.6],[-120.537,39.63183,1820.1],[-120.53751,39.63181,1816.1],[-120.5384,39.63204,1810.8],[-120.53857,39.63201,1811.6],[-120.53901,39.63186,1812.9],[-120.53919,39.63183,1815.3],[-120.53955,39.63187,1810.7],[-120.5401,39.63187,1805.9],[-120.54023,39.63183,1807.7],[-120.54058,39.63167,1806.9],[-120.5407,39.63167,1806.1],[-120.541,39.63172,1803.6],[-120.54119,39.63168,1801.5],[-120.5415,39.63158,1798.7],[-120.54176,39.63153,1797.0],[-120.54248,39.63145,1792.2],[-120.54266,39.63142,1791.0],[-120.54286,39.63134,1790.0],[-120.54321,39.63114,1788.2]]}}
