{"type":"Feature","properties":{"name":"Indian Falls Ridge Basics","sourceLabel":"Trailforks route plan 786043","sourceUrl":"https://www.trailforks.com/routeplan/view/786043/","gpxSha256":"d818e94927a204d84d4290a61056aa5aa9825f86218098aa983075bf4ca8c449","importedAt":"2026-09-29T21:08:31.904040+00:00","elevationSource":"AWS Terrain Tiles (USGS 3DEP and SRTM), sampled from the route terrain; original GPX elevations were zero placeholders","sourceStats":{"distanceMiles":9.91,"pointCount":676,"climbingFt":2060,"descendingFt":2058,"movingMinutes":118,"movingTimeEstimated":true}},"geometry":{"type":"LineString","coordinates":[[-120.97031,40.04475,1160.11],[-120.97031,40.04495,1160.27],[-120.97027,40.04505,1160.93],[-120.97005,40.04493,1167.92],[-120.96988,40.04464,1168.95],[-120.9698,40.04455,1169.55],[-120.96976,40.04444,1169.57],[-120.96965,40.04441,1172.02],[-120.96963,40.04453,1173.19],[-120.96963,40.0447,1175.02],[-120.96948,40.04486,1180.42],[-120.9693,40.04489,1185.03],[-120.96922,40.04482,1186.64],[-120.96922,40.04473,1186.41],[-120.96919,40.04463,1187.04],[-120.96921,40.04449,1187.01],[-120.96927,40.04432,1186.28],[-120.96927,40.04415,1189.41],[-120.96924,40.04388,1195.82],[-120.96928,40.04374,1196.07],[-120.96922,40.04367,1196.85],[-120.96894,40.04361,1198.89],[-120.96851,40.04361,1201.33],[-120.96829,40.04368,1204.96],[-120.96802,40.04381,1210.51],[-120.96772,40.0439,1213.58],[-120.96721,40.04403,1220.73],[-120.96687,40.04408,1224.95],[-120.96642,40.04408,1228.19],[-120.96613,40.04405,1229.39],[-120.96587,40.04405,1232.17],[-120.9656,40.04395,1231.82],[-120.96535,40.04377,1230.27],[-120.96523,40.04364,1229.69],[-120.96477,40.0434,1234.7],[-120.96412,40.04317,1240.41],[-120.96385,40.04311,1245.32],[-120.96307,40.0428,1253.05],[-120.96271,40.04263,1256.01],[-120.96239,40.04244,1258.01],[-120.96219,40.04237,1261.56],[-120.96205,40.04222,1261.59],[-120.96172,40.04205,1264.89],[-120.96058,40.04186,1276.48],[-120.96036,40.04175,1277.36],[-120.96018,40.04169,1278.38],[-120.96001,40.04167,1280.39],[-120.95983,40.04162,1279.2],[-120.95961,40.04164,1280.12],[-120.95991,40.04168,1281.36],[-120.96007,40.04173,1281.6],[-120.96027,40.04182,1281.46],[-120.96039,40.04189,1281.6],[-120.9605,40.04202,1283.92],[-120.9606,40.04209,1284.39],[-120.9609,40.04224,1284.59],[-120.96103,40.04225,1282.78],[-120.96112,40.04233,1284.11],[-120.96105,40.0424,1287.71],[-120.96069,40.04238,1293.49],[-120.96046,40.04233,1296.1],[-120.96011,40.0422,1297.42],[-120.95999,40.04219,1299.08],[-120.95973,40.04222,1300.7],[-120.95964,40.04229,1303.21],[-120.95958,40.04237,1305.04],[-120.95952,40.04254,1309.93],[-120.95946,40.04263,1312.1],[-120.95931,40.04273,1313.52],[-120.95902,40.04282,1311.82],[-120.95848,40.04304,1314.17],[-120.95822,40.04312,1314.48],[-120.95788,40.04325,1315.67],[-120.95773,40.04336,1316.69],[-120.95741,40.04379,1322.48],[-120.95734,40.04394,1325.35],[-120.95719,40.04413,1325.84],[-120.95715,40.04422,1326.81],[-120.95704,40.04437,1326.28],[-120.95699,40.04454,1328.54],[-120.95684,40.0448,1329.31],[-120.95675,40.04505,1331.7],[-120.9567,40.04527,1334.89],[-120.95661,40.04543,1335.72],[-120.95648,40.04576,1340.95],[-120.95631,40.04594,1341.79],[-120.95622,40.04614,1344.26],[-120.95615,40.04625,1343.43],[-120.95595,40.04654,1344.78],[-120.95568,40.04687,1347.96],[-120.95564,40.04697,1348.52],[-120.95562,40.04716,1347.36],[-120.95556,40.04728,1346.8],[-120.95543,40.04745,1349.13],[-120.95522,40.04778,1356.96],[-120.95518,40.04787,1358.39],[-120.95513,40.04808,1359.27],[-120.95511,40.04837,1358.86],[-120.95506,40.04851,1360.19],[-120.95486,40.04874,1365.58],[-120.95469,40.04903,1369.71],[-120.95451,40.04921,1373.91],[-120.95439,40.04937,1375.57],[-120.95412,40.04963,1378.31],[-120.95373,40.04984,1382.36],[-120.95349,40.05005,1383.58],[-120.95329,40.05034,1385.98],[-120.953,40.05104,1384.42],[-120.95289,40.05111,1385.82],[-120.95272,40.05113,1388.53],[-120.95218,40.05104,1393.24],[-120.95168,40.051,1395.95],[-120.95142,40.05104,1395.46],[-120.9513,40.05104,1397.55],[-120.95102,40.0511,1400.5],[-120.95085,40.05117,1404.4],[-120.95081,40.05133,1405.27],[-120.95089,40.05151,1402.33],[-120.95092,40.05164,1401.89],[-120.95093,40.05178,1401.92],[-120.9509,40.05211,1403.2],[-120.95083,40.05242,1405.54],[-120.95067,40.0527,1411.95],[-120.95067,40.05279,1411.94],[-120.95072,40.05292,1409.8],[-120.95072,40.05301,1409.68],[-120.95067,40.05314,1411.29],[-120.95057,40.05316,1415.31],[-120.95053,40.05306,1417.4],[-120.95045,40.05312,1420.43],[-120.95036,40.05322,1423.61],[-120.9503,40.05346,1424.37],[-120.95013,40.05372,1427.75],[-120.95006,40.05378,1428.95],[-120.94977,40.0539,1430.15],[-120.9493,40.054,1429.22],[-120.94857,40.05411,1428.32],[-120.9483,40.05413,1429.59],[-120.94811,40.05411,1432.42],[-120.94787,40.0542,1430.44],[-120.94763,40.05422,1432.06],[-120.94753,40.05426,1431.05],[-120.94733,40.05427,1432.02],[-120.94715,40.05431,1431.03],[-120.94699,40.05431,1431.41],[-120.94656,40.05418,1436.26],[-120.94665,40.0541,1438.74],[-120.94667,40.054,1442.55],[-120.94655,40.05388,1448.29],[-120.94643,40.05384,1450.42],[-120.94611,40.05383,1452.4],[-120.94572,40.05389,1453.88],[-120.94538,40.05389,1457.38],[-120.94528,40.05387,1459.07],[-120.94487,40.05366,1469.75],[-120.94469,40.05361,1472.7],[-120.94449,40.05361,1474.14],[-120.94414,40.05368,1474.31],[-120.9438,40.05361,1478.25],[-120.94356,40.05361,1479.41],[-120.9434,40.05366,1478.54],[-120.94323,40.05369,1478.25],[-120.94303,40.05363,1480.6],[-120.94289,40.05354,1483.38],[-120.9425,40.0534,1488.13],[-120.94233,40.05341,1489.3],[-120.94189,40.05337,1494.32],[-120.94142,40.05336,1496.47],[-120.94139,40.05317,1501.02],[-120.9415,40.05308,1503.07],[-120.94156,40.05299,1505.17],[-120.94146,40.05299,1505.61],[-120.94126,40.05295,1506.79],[-120.94094,40.05272,1510.86],[-120.94063,40.0526,1512.01],[-120.9405,40.05259,1512.63],[-120.94041,40.05263,1512.71],[-120.94039,40.05272,1512.18],[-120.94029,40.05278,1513.33],[-120.94008,40.05301,1514.98],[-120.94002,40.05316,1515.35],[-120.93974,40.05324,1518.89],[-120.93957,40.05326,1520.51],[-120.93948,40.05324,1521.96],[-120.93939,40.05319,1524.18],[-120.93931,40.05252,1536.19],[-120.93917,40.05238,1539.19],[-120.93895,40.05228,1542.42],[-120.93879,40.05216,1544.21],[-120.93869,40.05214,1545.26],[-120.9388,40.05234,1544.02],[-120.93875,40.05242,1544.39],[-120.93861,40.05254,1545.14],[-120.93846,40.0526,1546.02],[-120.93835,40.05261,1546.95],[-120.93817,40.05259,1549.38],[-120.93806,40.05254,1551.7],[-120.93785,40.05234,1558.14],[-120.93759,40.05222,1563.66],[-120.93736,40.05199,1566.31],[-120.93729,40.05182,1566.68],[-120.93729,40.05166,1566.03],[-120.93736,40.05149,1565.63],[-120.93747,40.05137,1564.91],[-120.93752,40.05127,1566.06],[-120.93758,40.05098,1570.92],[-120.93766,40.05083,1572.71],[-120.93786,40.05053,1576.62],[-120.93797,40.05025,1581.63],[-120.93815,40.05001,1583.08],[-120.9382,40.04985,1585.33],[-120.9382,40.04976,1586.82],[-120.93824,40.04952,1589.38],[-120.93833,40.04928,1589.52],[-120.93845,40.04909,1589.61],[-120.93841,40.04896,1590.62],[-120.93822,40.04887,1592.94],[-120.93825,40.04869,1590.57],[-120.93818,40.04876,1592.57],[-120.93804,40.04885,1595.24],[-120.93795,40.04883,1595.98],[-120.9378,40.04889,1598.55],[-120.93761,40.04884,1599.44],[-120.9374,40.04881,1600.3],[-120.93729,40.04876,1600.2],[-120.93703,40.04875,1602.62],[-120.93624,40.04866,1607.95],[-120.93576,40.04867,1610.08],[-120.93561,40.04873,1611.43],[-120.93529,40.04892,1614.79],[-120.93508,40.04887,1614.32],[-120.93484,40.0489,1617.34],[-120.93421,40.04882,1624.79],[-120.93388,40.04883,1629.63],[-120.93364,40.04886,1632.89],[-120.93305,40.04898,1639.7],[-120.93285,40.04904,1642.31],[-120.93259,40.04919,1647.88],[-120.93244,40.04919,1647.93],[-120.93227,40.04922,1649.04],[-120.93216,40.04927,1650.98],[-120.93154,40.04945,1655.08],[-120.9314,40.04947,1655.31],[-120.93113,40.04957,1658.05],[-120.93098,40.04975,1661.28],[-120.93078,40.04993,1663.38],[-120.93055,40.05019,1664.94],[-120.93028,40.05036,1664.96],[-120.93019,40.05044,1665.04],[-120.93018,40.05062,1666.73],[-120.93011,40.05073,1667.4],[-120.93006,40.05095,1669.56],[-120.92999,40.05104,1670.52],[-120.92955,40.05134,1673.58],[-120.92914,40.05154,1675.09],[-120.92875,40.05183,1677.75],[-120.92865,40.05205,1679.87],[-120.92859,40.05225,1681.59],[-120.92838,40.0524,1681.09],[-120.92825,40.05252,1681.38],[-120.92815,40.05284,1685.49],[-120.92798,40.05308,1689.21],[-120.92781,40.05322,1690.63],[-120.92747,40.05342,1690.28],[-120.92726,40.0536,1690.8],[-120.92716,40.05381,1693.05],[-120.92704,40.05413,1694.29],[-120.92702,40.05427,1695],[-120.9269,40.05425,1693.68],[-120.92698,40.05431,1694.93],[-120.92698,40.05443,1695.43],[-120.92672,40.05458,1698.13],[-120.92643,40.05466,1701.31],[-120.92641,40.05516,1707.23],[-120.92638,40.05533,1709.64],[-120.9264,40.05547,1711.24],[-120.92662,40.05623,1716.81],[-120.92666,40.05655,1718.19],[-120.92659,40.05666,1721.32],[-120.92644,40.05684,1727.61],[-120.92644,40.05701,1729.57],[-120.9265,40.05719,1730.73],[-120.92651,40.05731,1732.55],[-120.92655,40.05747,1733.72],[-120.92652,40.05765,1735.25],[-120.92643,40.05783,1736.84],[-120.92614,40.05816,1743.95],[-120.9261,40.05829,1744.77],[-120.9261,40.05863,1745.57],[-120.92615,40.05889,1747.2],[-120.92619,40.05898,1747.67],[-120.92647,40.05944,1749.35],[-120.9265,40.05961,1750.23],[-120.92641,40.05993,1754.25],[-120.92643,40.06006,1753.88],[-120.9267,40.06035,1753.56],[-120.92691,40.06051,1755.44],[-120.92707,40.0606,1755.95],[-120.92746,40.06076,1753.82],[-120.92781,40.06096,1754.77],[-120.92791,40.06107,1757.58],[-120.92868,40.06143,1754.58],[-120.92884,40.06156,1756.22],[-120.92931,40.06181,1754.08],[-120.92956,40.06205,1757.55],[-120.92995,40.06246,1763.83],[-120.93015,40.0626,1765.44],[-120.93033,40.06268,1767.14],[-120.93047,40.06277,1770],[-120.93069,40.0628,1771.4],[-120.9309,40.0628,1771.92],[-120.9313,40.06273,1771.57],[-120.93146,40.06274,1773.3],[-120.93169,40.06266,1772.24],[-120.93192,40.06266,1774.09],[-120.93211,40.06273,1777.75],[-120.93275,40.06272,1779.02],[-120.93304,40.06275,1780.44],[-120.93329,40.0628,1782.54],[-120.93346,40.06289,1785.76],[-120.93357,40.06286,1785.39],[-120.93407,40.0629,1793.67],[-120.9342,40.06283,1791.38],[-120.93448,40.06277,1791.6],[-120.93458,40.06272,1790.02],[-120.93465,40.06265,1787.54],[-120.93435,40.06253,1775.27],[-120.93399,40.06248,1770.85],[-120.93371,40.06239,1766.63],[-120.9333,40.06232,1763.52],[-120.93306,40.06223,1759.91],[-120.93277,40.06221,1759.22],[-120.93258,40.06222,1759.39],[-120.932,40.06235,1762.22],[-120.93186,40.06235,1761.23],[-120.93162,40.0623,1756.48],[-120.93094,40.06232,1751.67],[-120.93071,40.0623,1750.21],[-120.93061,40.06225,1748.24],[-120.93065,40.06216,1744.43],[-120.93114,40.06213,1744.21],[-120.93148,40.06221,1750.87],[-120.93172,40.06218,1752.08],[-120.93186,40.06213,1750.79],[-120.93202,40.06212,1751.51],[-120.93214,40.06217,1755.19],[-120.93242,40.06201,1748.28],[-120.93253,40.06203,1749.96],[-120.93264,40.06208,1752.78],[-120.93292,40.06199,1748.86],[-120.93301,40.06198,1748.29],[-120.93313,40.06201,1749.61],[-120.93322,40.06209,1753.3],[-120.93368,40.06196,1746.8],[-120.93378,40.06189,1744.16],[-120.93378,40.06177,1740.89],[-120.93358,40.0617,1739.09],[-120.93319,40.06175,1737.53],[-120.93307,40.06174,1736.74],[-120.93282,40.06167,1732.31],[-120.93268,40.06161,1728.21],[-120.93258,40.06159,1726.54],[-120.93244,40.06165,1728.98],[-120.93234,40.06163,1727.03],[-120.93223,40.06159,1723.89],[-120.93223,40.06149,1718.32],[-120.93212,40.06145,1715.34],[-120.93219,40.06136,1710.7],[-120.93165,40.06134,1706.6],[-120.93116,40.06125,1700.26],[-120.93098,40.06124,1701.03],[-120.93075,40.06118,1700.25],[-120.9306,40.06112,1699.68],[-120.93051,40.06111,1700.64],[-120.9301,40.061,1703.88],[-120.92983,40.06074,1697.89],[-120.92957,40.06058,1696.47],[-120.92946,40.06042,1693.08],[-120.92917,40.06006,1687.65],[-120.92892,40.05982,1683.97],[-120.92882,40.05968,1681.68],[-120.92871,40.05946,1679.18],[-120.92866,40.05919,1677.25],[-120.92875,40.05912,1673.93],[-120.92876,40.05901,1672.25],[-120.92868,40.05892,1672.27],[-120.92855,40.05872,1671.26],[-120.92857,40.05841,1666.91],[-120.92863,40.05832,1665.86],[-120.92878,40.05816,1664.8],[-120.92894,40.05807,1663.53],[-120.92922,40.05796,1658.27],[-120.92934,40.05789,1655.54],[-120.92939,40.05773,1656.13],[-120.92937,40.05755,1655.61],[-120.92928,40.05719,1652.48],[-120.92896,40.05657,1645.5],[-120.92898,40.05646,1643.66],[-120.92897,40.05637,1643.39],[-120.92901,40.05621,1643.76],[-120.92912,40.05614,1641.86],[-120.92943,40.05608,1636.6],[-120.92979,40.05594,1634.81],[-120.93028,40.05596,1628.3],[-120.93056,40.05581,1629.24],[-120.93093,40.05571,1628.81],[-120.93162,40.05566,1627.08],[-120.9318,40.05568,1625.87],[-120.93191,40.05561,1628.27],[-120.93209,40.05565,1626.86],[-120.93235,40.05561,1628.58],[-120.93251,40.05566,1626.64],[-120.93276,40.05561,1626.8],[-120.93285,40.05554,1627.64],[-120.93299,40.05537,1628.35],[-120.9331,40.05518,1629.13],[-120.93328,40.05513,1626.46],[-120.93349,40.05501,1625.13],[-120.93362,40.05496,1624.07],[-120.9338,40.05458,1627.39],[-120.93389,40.05428,1626.87],[-120.93399,40.05411,1624.17],[-120.93402,40.054,1622.93],[-120.93398,40.05386,1622.52],[-120.93403,40.05372,1620.15],[-120.93408,40.0534,1617.25],[-120.93416,40.05312,1615.41],[-120.93416,40.0529,1615.83],[-120.93412,40.0525,1616.21],[-120.93407,40.05222,1618.04],[-120.93411,40.05209,1618.62],[-120.93426,40.052,1616.68],[-120.93434,40.05191,1617.04],[-120.93435,40.05182,1618.35],[-120.93428,40.05172,1621.28],[-120.93425,40.0516,1623.83],[-120.93425,40.05151,1625.25],[-120.93443,40.05122,1626.51],[-120.93468,40.05098,1626.13],[-120.93476,40.05087,1626.81],[-120.9348,40.05075,1627.65],[-120.93493,40.05066,1626.27],[-120.93544,40.05044,1619.55],[-120.9357,40.05026,1616.95],[-120.93635,40.05003,1610.01],[-120.93682,40.04997,1606.63],[-120.93714,40.05004,1600.65],[-120.93732,40.04992,1601.27],[-120.93759,40.04984,1597.62],[-120.93773,40.0496,1598.79],[-120.93791,40.04936,1598.04],[-120.93817,40.04907,1594.58],[-120.93821,40.04892,1593.36],[-120.93832,40.04891,1591.6],[-120.93841,40.04896,1590.62],[-120.93845,40.04912,1589.31],[-120.93824,40.04952,1589.38],[-120.9382,40.04976,1586.82],[-120.9382,40.04985,1585.33],[-120.93815,40.05001,1583.08],[-120.93797,40.05025,1581.63],[-120.93786,40.05053,1576.62],[-120.93766,40.05083,1572.71],[-120.93758,40.05098,1570.92],[-120.93752,40.05127,1566.06],[-120.93747,40.05137,1564.91],[-120.93736,40.05149,1565.63],[-120.9373,40.05164,1565.92],[-120.93729,40.05182,1566.68],[-120.93732,40.05193,1566.77],[-120.93759,40.05222,1563.66],[-120.93785,40.05234,1558.14],[-120.93806,40.05254,1551.7],[-120.93817,40.05259,1549.38],[-120.93835,40.05261,1546.95],[-120.93846,40.0526,1546.02],[-120.93861,40.05254,1545.14],[-120.93875,40.05242,1544.39],[-120.9388,40.05234,1544.02],[-120.93869,40.05214,1545.26],[-120.93879,40.05216,1544.21],[-120.93895,40.05228,1542.42],[-120.93917,40.05238,1539.19],[-120.93931,40.05252,1536.19],[-120.93932,40.05269,1534.45],[-120.93935,40.05279,1532.59],[-120.93935,40.0529,1530.97],[-120.93938,40.05303,1528.07],[-120.93936,40.05313,1526.01],[-120.93948,40.05324,1521.96],[-120.93957,40.05326,1520.51],[-120.93974,40.05324,1518.89],[-120.94002,40.05316,1515.35],[-120.94024,40.05285,1513.57],[-120.94039,40.05272,1512.18],[-120.94041,40.05263,1512.71],[-120.9405,40.05259,1512.63],[-120.94063,40.0526,1512.01],[-120.94094,40.05272,1510.86],[-120.94126,40.05295,1506.79],[-120.94142,40.05299,1505.69],[-120.94154,40.05296,1506.02],[-120.9415,40.05308,1503.07],[-120.94139,40.05317,1501.02],[-120.94135,40.05332,1497.44],[-120.94178,40.05337,1495.27],[-120.94233,40.05341,1489.3],[-120.9425,40.0534,1488.13],[-120.94289,40.05354,1483.38],[-120.94303,40.05363,1480.6],[-120.94323,40.05369,1478.25],[-120.9434,40.05366,1478.54],[-120.94356,40.05361,1479.41],[-120.9438,40.05361,1478.25],[-120.94414,40.05368,1474.31],[-120.94449,40.05361,1474.14],[-120.94469,40.05361,1472.7],[-120.94487,40.05366,1469.75],[-120.94528,40.05387,1459.07],[-120.94538,40.05389,1457.38],[-120.94572,40.05389,1453.88],[-120.94583,40.05386,1453.81],[-120.94606,40.05384,1452.41],[-120.94643,40.05384,1450.42],[-120.94655,40.05388,1448.29],[-120.94664,40.05395,1444.91],[-120.94669,40.05407,1439.8],[-120.94654,40.05411,1438.6],[-120.94679,40.05424,1434.14],[-120.94699,40.05431,1431.41],[-120.94715,40.05431,1431.03],[-120.94733,40.05427,1432.02],[-120.94753,40.05426,1431.05],[-120.94763,40.05422,1432.06],[-120.94787,40.0542,1430.44],[-120.94805,40.05411,1433],[-120.9483,40.05413,1429.59],[-120.94857,40.05411,1428.32],[-120.9493,40.054,1429.22],[-120.94977,40.0539,1430.15],[-120.95006,40.05378,1428.95],[-120.95013,40.05372,1427.75],[-120.9503,40.05346,1424.37],[-120.95033,40.05328,1424.47],[-120.95051,40.05305,1418.28],[-120.95057,40.05316,1415.31],[-120.95067,40.05314,1411.29],[-120.95072,40.05301,1409.68],[-120.95072,40.05292,1409.8],[-120.95067,40.05279,1411.94],[-120.95067,40.0527,1411.95],[-120.95083,40.05242,1405.54],[-120.9509,40.05211,1403.2],[-120.95093,40.05178,1401.92],[-120.95092,40.05164,1401.89],[-120.95089,40.05151,1402.33],[-120.95081,40.05133,1405.27],[-120.95081,40.05124,1405.57],[-120.95102,40.0511,1400.5],[-120.9513,40.05104,1397.55],[-120.95142,40.05104,1395.46],[-120.95168,40.051,1395.95],[-120.95218,40.05104,1393.24],[-120.95272,40.05113,1388.53],[-120.95281,40.05113,1387.41],[-120.953,40.05104,1384.42],[-120.95329,40.05034,1385.98],[-120.95349,40.05005,1383.58],[-120.95373,40.04984,1382.36],[-120.95388,40.04975,1381.17],[-120.95407,40.04968,1378.29],[-120.95437,40.04939,1375.84],[-120.95451,40.04921,1373.91],[-120.95469,40.04903,1369.71],[-120.95486,40.04874,1365.58],[-120.95506,40.04851,1360.19],[-120.95511,40.04837,1358.86],[-120.95513,40.04808,1359.27],[-120.95518,40.04787,1358.39],[-120.95522,40.04778,1356.96],[-120.95543,40.04745,1349.13],[-120.95556,40.04728,1346.8],[-120.95562,40.04716,1347.36],[-120.95564,40.04697,1348.52],[-120.95568,40.04687,1347.96],[-120.95595,40.04654,1344.78],[-120.95615,40.04625,1343.43],[-120.95622,40.04614,1344.26],[-120.95631,40.04594,1341.79],[-120.95648,40.04576,1340.95],[-120.95655,40.04549,1335.63],[-120.95667,40.04529,1334.32],[-120.95684,40.0448,1329.31],[-120.95699,40.04454,1328.54],[-120.95704,40.04437,1326.28],[-120.95715,40.04422,1326.81],[-120.95719,40.04413,1325.84],[-120.95734,40.04394,1325.35],[-120.95741,40.04379,1322.48],[-120.95773,40.04336,1316.69],[-120.95788,40.04325,1315.67],[-120.95822,40.04312,1314.48],[-120.95848,40.04304,1314.17],[-120.95902,40.04282,1311.82],[-120.95931,40.04273,1313.52],[-120.95946,40.04263,1312.1],[-120.95952,40.04254,1309.93],[-120.95958,40.04237,1305.04],[-120.95964,40.04229,1303.21],[-120.95973,40.04222,1300.7],[-120.95999,40.04219,1299.08],[-120.96011,40.0422,1297.42],[-120.96046,40.04233,1296.1],[-120.96069,40.04238,1293.49],[-120.96105,40.0424,1287.71],[-120.96113,40.04236,1284.95],[-120.96108,40.04228,1283.06],[-120.9609,40.04224,1284.59],[-120.9606,40.04209,1284.39],[-120.9605,40.04202,1283.92],[-120.96039,40.04189,1281.6],[-120.96027,40.04182,1281.46],[-120.96007,40.04173,1281.6],[-120.95991,40.04168,1281.36],[-120.95981,40.04166,1280.85],[-120.95963,40.04167,1281.55],[-120.95973,40.04162,1279.48],[-120.95983,40.04162,1279.2],[-120.96001,40.04167,1280.39],[-120.96018,40.04169,1278.38],[-120.96036,40.04175,1277.36],[-120.96058,40.04186,1276.48],[-120.96172,40.04205,1264.89],[-120.9619,40.04213,1263.03],[-120.96205,40.04222,1261.59],[-120.96219,40.04237,1261.56],[-120.96239,40.04244,1258.01],[-120.96271,40.04263,1256.01],[-120.96307,40.0428,1253.05],[-120.96385,40.04311,1245.32],[-120.96412,40.04317,1240.41],[-120.96477,40.0434,1234.7],[-120.96523,40.04364,1229.69],[-120.96535,40.04377,1230.27],[-120.9656,40.04395,1231.82],[-120.96587,40.04405,1232.17],[-120.96613,40.04405,1229.39],[-120.96642,40.04408,1228.19],[-120.96687,40.04408,1224.95],[-120.96721,40.04403,1220.73],[-120.96772,40.0439,1213.58],[-120.96802,40.04381,1210.51],[-120.96829,40.04368,1204.96],[-120.96851,40.04361,1201.33],[-120.96894,40.04361,1198.89],[-120.96922,40.04367,1196.85],[-120.96928,40.04374,1196.07],[-120.96924,40.04388,1195.82],[-120.96927,40.04415,1189.41],[-120.96927,40.04432,1186.28],[-120.96921,40.04449,1187.01],[-120.96919,40.04463,1187.04],[-120.96922,40.04473,1186.41],[-120.96922,40.04482,1186.64],[-120.9693,40.04489,1185.03],[-120.96943,40.04489,1181.9],[-120.96963,40.0447,1175.02],[-120.96961,40.0446,1174.23],[-120.96963,40.04444,1172.68],[-120.96974,40.04442,1169.89],[-120.9698,40.04455,1169.55],[-120.96988,40.04464,1168.95],[-120.97001,40.04489,1168.9],[-120.97023,40.04505,1162.28],[-120.97032,40.04502,1159.65],[-120.97031,40.04475,1160.11]]}}
