{"type":"Feature","properties":{"name":"Indian Falls Backcountry Epic","sourceLabel":"Trailforks route plan 786047","sourceUrl":"https://www.trailforks.com/routeplan/view/786047/","gpxSha256":"9b37f2d3f6b5310f600fb34c430ff5cde0c852113e0cb9244a48b350d62e548d","importedAt":"2026-09-29T21:11:30.320284+00:00","elevationSource":"AWS Terrain Tiles (USGS 3DEP and SRTM), sampled from the route terrain; original GPX elevations were zero placeholders","sourceStats":{"distanceMiles":26.07,"pointCount":2167,"climbingFt":2008,"descendingFt":5763,"movingMinutes":247,"movingTimeEstimated":true}},"geometry":{"type":"LineString","coordinates":[[-120.88597,40.04552,2182.99],[-120.88604,40.04561,2180.79],[-120.88623,40.04562,2184.54],[-120.88639,40.04569,2182.56],[-120.88645,40.04569,2183.23],[-120.8865,40.04565,2184.65],[-120.8866,40.04549,2184.27],[-120.88672,40.04543,2182.29],[-120.88693,40.04527,2180.43],[-120.88698,40.04526,2179.72],[-120.88702,40.04528,2178.66],[-120.88701,40.04533,2177.98],[-120.88692,40.04544,2178.43],[-120.88682,40.04564,2178.95],[-120.88681,40.04567,2178.94],[-120.88683,40.04569,2178.44],[-120.88687,40.04567,2177.79],[-120.88694,40.04558,2176.92],[-120.8871,40.04548,2174.67],[-120.88725,40.04542,2172.69],[-120.88736,40.04538,2171.56],[-120.88747,40.04531,2170.93],[-120.88761,40.04527,2169.41],[-120.88772,40.04519,2168.78],[-120.88777,40.04518,2168.12],[-120.88781,40.0452,2167.25],[-120.88777,40.04529,2166.78],[-120.88778,40.04534,2166.03],[-120.8878,40.04538,2165.26],[-120.88789,40.04546,2163.01],[-120.88791,40.04551,2162.08],[-120.88786,40.04566,2160.89],[-120.88778,40.04576,2160.66],[-120.88772,40.0459,2159.62],[-120.88771,40.04596,2158.77],[-120.88773,40.04609,2156.36],[-120.88772,40.04614,2155.65],[-120.88755,40.04636,2151.76],[-120.88754,40.04641,2150.49],[-120.88755,40.04646,2148.53],[-120.88764,40.04656,2145.26],[-120.88777,40.04666,2143.25],[-120.88786,40.04677,2140.8],[-120.88797,40.04687,2138.73],[-120.88802,40.04693,2137.62],[-120.88805,40.04699,2136.67],[-120.88812,40.04733,2132.29],[-120.88812,40.04748,2130.49],[-120.88819,40.04782,2130.06],[-120.88817,40.04805,2128.42],[-120.88821,40.04813,2129.26],[-120.88821,40.04829,2129.09],[-120.88826,40.04838,2129.69],[-120.88827,40.04843,2129.74],[-120.88826,40.04849,2129.76],[-120.88828,40.04854,2129.66],[-120.88831,40.04858,2129.51],[-120.88837,40.04863,2129.41],[-120.88857,40.04871,2129.63],[-120.88867,40.0488,2129.25],[-120.88873,40.04882,2129.2],[-120.88879,40.04886,2129.19],[-120.8888,40.04885,2129.22],[-120.8888,40.04886,2129.21],[-120.8888,40.04887,2129.2],[-120.88881,40.04885,2129.23],[-120.88896,40.04891,2129.51],[-120.88958,40.04882,2127.77],[-120.88996,40.04878,2127.66],[-120.89033,40.04877,2128.28],[-120.89055,40.04884,2129.14],[-120.89071,40.04889,2129.52],[-120.89093,40.04891,2129.05],[-120.89119,40.04896,2128.55],[-120.89151,40.04899,2127.12],[-120.89201,40.04907,2123.45],[-120.89236,40.0492,2121.23],[-120.89242,40.04925,2121.79],[-120.89263,40.04937,2122.1],[-120.89308,40.04949,2126.84],[-120.89326,40.04952,2128.29],[-120.89359,40.04954,2131.09],[-120.89404,40.04968,2131.23],[-120.89436,40.04965,2133.21],[-120.89449,40.04961,2133.88],[-120.89466,40.04952,2133.54],[-120.89473,40.04952,2133.29],[-120.89507,40.04961,2131.42],[-120.89528,40.0496,2129.41],[-120.89558,40.04952,2125.53],[-120.89571,40.04954,2124.2],[-120.89577,40.04959,2123.73],[-120.8958,40.04968,2123.21],[-120.89596,40.04995,2119.9],[-120.89597,40.05001,2119.48],[-120.89596,40.05023,2117.5],[-120.89599,40.05028,2116.81],[-120.89606,40.05034,2116.11],[-120.89613,40.05037,2115.57],[-120.89622,40.05037,2114.71],[-120.89656,40.05037,2110.71],[-120.89664,40.05041,2109.26],[-120.89679,40.0505,2107.06],[-120.89712,40.05064,2102.83],[-120.89725,40.0507,2101.39],[-120.89745,40.05087,2099.61],[-120.89762,40.05092,2097.51],[-120.89771,40.05092,2096.27],[-120.8978,40.05092,2095.03],[-120.89786,40.05094,2094.36],[-120.8979,40.05102,2094.51],[-120.89791,40.05107,2094.82],[-120.89784,40.05126,2097.5],[-120.89784,40.05133,2098.31],[-120.89781,40.0514,2099.38],[-120.89778,40.0516,2102.17],[-120.89761,40.05187,2105.25],[-120.89763,40.05198,2105.69],[-120.89769,40.0521,2106.03],[-120.89775,40.05218,2106.45],[-120.89786,40.05225,2106.78],[-120.89789,40.05231,2106.52],[-120.8979,40.05237,2106.44],[-120.89787,40.0525,2106.97],[-120.89787,40.0526,2107.07],[-120.89778,40.0527,2107.15],[-120.89776,40.05281,2106.2],[-120.89781,40.05286,2106.25],[-120.89801,40.0529,2105.29],[-120.89826,40.05292,2103.27],[-120.89843,40.05301,2101.69],[-120.89852,40.05312,2101.9],[-120.89856,40.05324,2102.89],[-120.89871,40.05355,2101.17],[-120.8988,40.05368,2100.1],[-120.89902,40.05393,2096.65],[-120.89903,40.05407,2093.61],[-120.89906,40.05413,2092.07],[-120.89912,40.05418,2091.07],[-120.89931,40.05428,2087.79],[-120.89942,40.05431,2085.62],[-120.89959,40.05431,2083.55],[-120.89989,40.05428,2080.05],[-120.90004,40.05426,2078.84],[-120.90013,40.05422,2078.4],[-120.90019,40.05419,2078.08],[-120.90022,40.05413,2078.28],[-120.90014,40.05392,2079.07],[-120.90001,40.05382,2080.31],[-120.89995,40.05378,2081.11],[-120.89985,40.05377,2083.23],[-120.89979,40.05372,2083.88],[-120.89982,40.05369,2082.61],[-120.89987,40.05368,2081.17],[-120.9,40.05373,2079.46],[-120.90039,40.05383,2074.1],[-120.90077,40.05398,2069.82],[-120.90087,40.05404,2068.94],[-120.90104,40.05426,2067.92],[-120.90111,40.05435,2065.63],[-120.90128,40.05435,2062.87],[-120.9016,40.05448,2059.15],[-120.90186,40.05451,2059.56],[-120.902,40.05454,2060.09],[-120.90215,40.05462,2059.24],[-120.90231,40.05469,2060.09],[-120.90242,40.05478,2060.74],[-120.90258,40.05486,2061.22],[-120.90267,40.05494,2061.29],[-120.90273,40.05496,2060.8],[-120.90279,40.05496,2060.38],[-120.90284,40.05494,2060.02],[-120.90288,40.05489,2059.65],[-120.90286,40.05484,2059.76],[-120.90278,40.05475,2059.37],[-120.90278,40.05469,2058.33],[-120.90281,40.05465,2057.34],[-120.90287,40.05462,2056.22],[-120.90303,40.05458,2053.93],[-120.90321,40.05458,2051.99],[-120.9033,40.05458,2051.02],[-120.90358,40.05467,2049.33],[-120.90385,40.05471,2046.63],[-120.90403,40.05475,2045.24],[-120.90446,40.05489,2042.69],[-120.90516,40.05522,2037.48],[-120.90563,40.05537,2030.96],[-120.90567,40.05541,2030.09],[-120.90571,40.05552,2028.7],[-120.90577,40.05556,2027.19],[-120.90583,40.05556,2025.89],[-120.90584,40.05552,2026.1],[-120.90589,40.05547,2025.72],[-120.90602,40.05541,2024.37],[-120.9062,40.05543,2021.06],[-120.90647,40.05552,2015.25],[-120.90653,40.05551,2014.78],[-120.90659,40.05547,2014.69],[-120.90656,40.05541,2015.92],[-120.90656,40.05534,2016.83],[-120.90659,40.0553,2015.87],[-120.90664,40.05525,2014.48],[-120.90671,40.05525,2013.39],[-120.90705,40.05536,2010.34],[-120.90724,40.0554,2008.35],[-120.90731,40.05543,2007.7],[-120.90749,40.05554,2006.25],[-120.90764,40.05571,2002.59],[-120.90765,40.05581,2000.27],[-120.90766,40.05589,1997.9],[-120.90773,40.05592,1996.14],[-120.90794,40.05582,1998.22],[-120.90802,40.05581,1997.87],[-120.90809,40.05583,1997.24],[-120.90818,40.05587,1996.39],[-120.90831,40.05611,1989.51],[-120.90856,40.05627,1985.57],[-120.909,40.0566,1987.38],[-120.90911,40.05664,1990.34],[-120.90916,40.05674,1992.08],[-120.90916,40.05675,1992.11],[-120.90919,40.05678,1992.87],[-120.9095,40.05698,1998.99],[-120.9096,40.057,1999.11],[-120.90988,40.05699,1998.21],[-120.91,40.05702,1996.45],[-120.91014,40.05718,1995.64],[-120.91026,40.05737,1991.96],[-120.91025,40.05744,1991.49],[-120.91024,40.05752,1989.14],[-120.91017,40.0576,1986.65],[-120.9102,40.05765,1984.87],[-120.91025,40.05767,1984.19],[-120.91042,40.05763,1985.14],[-120.91076,40.05771,1983.25],[-120.91097,40.05778,1981.83],[-120.91118,40.05789,1980.72],[-120.91129,40.05801,1980.79],[-120.91146,40.05825,1981.22],[-120.91156,40.05836,1982.11],[-120.91174,40.05849,1982.14],[-120.91181,40.05852,1982.1],[-120.91229,40.05861,1979.86],[-120.91249,40.05867,1979.67],[-120.91271,40.0588,1981.03],[-120.91277,40.05886,1981.95],[-120.91295,40.05897,1982.8],[-120.91337,40.0591,1980.55],[-120.91355,40.05923,1981.62],[-120.91368,40.05928,1980.9],[-120.91403,40.05936,1976.87],[-120.91413,40.05939,1976],[-120.91438,40.05957,1976.71],[-120.91444,40.0596,1976.79],[-120.91452,40.0596,1975.92],[-120.91451,40.05954,1974.61],[-120.91443,40.05948,1973.89],[-120.91404,40.05921,1972.45],[-120.91385,40.0591,1972.51],[-120.9134,40.05879,1970.66],[-120.91305,40.05847,1966.23],[-120.91292,40.05838,1965.24],[-120.91283,40.05825,1962.25],[-120.91269,40.05818,1962.65],[-120.91259,40.0581,1962.39],[-120.91252,40.05798,1960.89],[-120.91247,40.05784,1959.23],[-120.9124,40.05771,1958.34],[-120.91238,40.05757,1956.36],[-120.91245,40.05727,1951.51],[-120.91258,40.05695,1947.65],[-120.9126,40.05688,1947.09],[-120.91264,40.05666,1945.83],[-120.91264,40.05637,1945.75],[-120.91274,40.05598,1941.64],[-120.91272,40.05594,1941.73],[-120.91256,40.05581,1942.98],[-120.9123,40.05572,1945.07],[-120.91201,40.05557,1944.23],[-120.91185,40.0555,1943.34],[-120.91174,40.05547,1943.19],[-120.91134,40.05529,1940.81],[-120.9112,40.0552,1939.14],[-120.91063,40.05495,1938.77],[-120.91057,40.0549,1938.43],[-120.91048,40.05478,1937.19],[-120.91037,40.05458,1934.87],[-120.91038,40.05446,1931.56],[-120.91035,40.05439,1930.3],[-120.91028,40.0543,1929.22],[-120.91022,40.05417,1927.08],[-120.91021,40.0541,1925.55],[-120.91024,40.05389,1920.83],[-120.91023,40.05384,1920.31],[-120.91008,40.05353,1920.39],[-120.91,40.05342,1920.82],[-120.90996,40.05328,1919.19],[-120.90987,40.0531,1917.08],[-120.90983,40.05296,1913.94],[-120.90968,40.05281,1911.89],[-120.9096,40.0527,1909.27],[-120.90941,40.05265,1910.04],[-120.90934,40.05256,1907.28],[-120.90907,40.05245,1905.81],[-120.90891,40.05243,1906.83],[-120.90886,40.05242,1906.98],[-120.90877,40.05234,1904.35],[-120.90857,40.05225,1902.34],[-120.90792,40.05213,1901.1],[-120.90759,40.05198,1897.6],[-120.90759,40.05195,1896.45],[-120.90762,40.05193,1895.4],[-120.90766,40.05193,1895.01],[-120.90774,40.05196,1895.42],[-120.90784,40.05196,1894.65],[-120.90789,40.052,1896.01],[-120.90797,40.052,1895.66],[-120.90809,40.05196,1893.47],[-120.90824,40.05194,1891.72],[-120.90845,40.05184,1886.41],[-120.90869,40.05185,1884.39],[-120.90873,40.05184,1883.57],[-120.9087,40.0518,1882.32],[-120.90861,40.05176,1881.74],[-120.90833,40.05169,1881.77],[-120.90816,40.05167,1882.5],[-120.90809,40.05164,1881.78],[-120.90794,40.0516,1881.21],[-120.90787,40.05155,1879.81],[-120.90789,40.05153,1878.9],[-120.90794,40.05151,1877.74],[-120.90831,40.05151,1874.51],[-120.90841,40.05149,1872.69],[-120.90839,40.05147,1872.03],[-120.9082,40.0514,1871.01],[-120.90795,40.05128,1868.51],[-120.90784,40.0512,1866.7],[-120.90782,40.05117,1865.82],[-120.90786,40.05114,1864.1],[-120.90825,40.05116,1859.68],[-120.9085,40.05113,1855.55],[-120.90896,40.05113,1850.07],[-120.90931,40.05117,1849.63],[-120.9094,40.05119,1850.4],[-120.90968,40.05131,1855.56],[-120.91027,40.05154,1862.24],[-120.91057,40.05158,1860.72],[-120.91083,40.05156,1858.19],[-120.91103,40.05156,1857.6],[-120.91117,40.05153,1856.71],[-120.9113,40.05146,1854.71],[-120.91146,40.05143,1853.4],[-120.9117,40.05143,1850.28],[-120.91186,40.05147,1846.92],[-120.91189,40.05149,1846.26],[-120.9119,40.05153,1846.08],[-120.91172,40.05175,1850.76],[-120.9117,40.05182,1850.63],[-120.91171,40.05195,1848.94],[-120.91174,40.05201,1847.45],[-120.91184,40.05212,1843.27],[-120.91207,40.05243,1839.23],[-120.91212,40.05248,1839.32],[-120.91218,40.05252,1839.4],[-120.91233,40.05256,1839.01],[-120.9126,40.05258,1838.87],[-120.91272,40.05263,1840.46],[-120.91299,40.05268,1840.79],[-120.91315,40.05274,1841.05],[-120.91323,40.05279,1841.94],[-120.91347,40.05299,1844.27],[-120.9138,40.05333,1845.29],[-120.91393,40.05355,1845.27],[-120.91397,40.05374,1847.73],[-120.914,40.05378,1847.86],[-120.91409,40.05383,1847.85],[-120.91425,40.05388,1847.01],[-120.9146,40.05393,1847.23],[-120.91485,40.05395,1846.87],[-120.91557,40.0541,1846.12],[-120.91597,40.05427,1847.49],[-120.91618,40.05438,1848.08],[-120.91681,40.05457,1839.53],[-120.91702,40.05467,1836.26],[-120.91724,40.05483,1833.39],[-120.91736,40.05495,1832.2],[-120.91765,40.05537,1822.64],[-120.91769,40.05552,1820.83],[-120.91764,40.05565,1823.71],[-120.91754,40.05576,1829.22],[-120.91754,40.05579,1830.01],[-120.91757,40.05581,1830.12],[-120.91769,40.05583,1829.26],[-120.91832,40.05581,1827.03],[-120.91851,40.05581,1827.3],[-120.91876,40.05576,1824.45],[-120.91901,40.05576,1823.07],[-120.91922,40.05578,1822.97],[-120.91958,40.05575,1820.05],[-120.91973,40.05577,1819.9],[-120.91996,40.05583,1818.3],[-120.92008,40.05588,1816.83],[-120.92016,40.05597,1817.07],[-120.9202,40.05606,1818.23],[-120.92025,40.05612,1818.41],[-120.92038,40.05619,1816.96],[-120.92067,40.05627,1812.21],[-120.92101,40.05639,1809.07],[-120.92128,40.05643,1807.74],[-120.92212,40.05645,1806.3],[-120.92261,40.05636,1800.68],[-120.92321,40.05628,1795.63],[-120.9233,40.05626,1794.55],[-120.92345,40.05626,1794.15],[-120.9236,40.05621,1791.72],[-120.92358,40.05618,1790.54],[-120.92354,40.05616,1789.81],[-120.92341,40.05614,1789.22],[-120.92335,40.05615,1789.75],[-120.92321,40.05614,1789.54],[-120.92309,40.0561,1787.89],[-120.92295,40.0561,1788.03],[-120.92259,40.05601,1784.4],[-120.92241,40.05599,1783.77],[-120.92193,40.05599,1784.33],[-120.92169,40.05598,1785.06],[-120.9215,40.05587,1782.19],[-120.92126,40.05579,1785.65],[-120.92107,40.05565,1787.13],[-120.92105,40.05552,1785.82],[-120.9211,40.0553,1782.36],[-120.92107,40.05498,1778.15],[-120.92104,40.05492,1777.56],[-120.92099,40.05469,1773.88],[-120.921,40.0546,1771.67],[-120.92102,40.05453,1769.87],[-120.92124,40.0543,1763.26],[-120.9213,40.05418,1761.88],[-120.92122,40.05402,1763.13],[-120.92118,40.05397,1762.77],[-120.92108,40.0539,1761.54],[-120.92107,40.05386,1760.84],[-120.92108,40.0538,1759.85],[-120.92113,40.05375,1758.94],[-120.92127,40.05373,1757.65],[-120.92145,40.05379,1757.01],[-120.92151,40.05383,1756.75],[-120.92162,40.05393,1754.45],[-120.92168,40.05406,1752.82],[-120.92168,40.05418,1751.25],[-120.92165,40.05424,1751.68],[-120.92165,40.0543,1751.01],[-120.92159,40.05449,1753.04],[-120.92163,40.05456,1751.5],[-120.92169,40.05462,1750.84],[-120.92184,40.05471,1748.44],[-120.9221,40.05493,1747.03],[-120.92242,40.05501,1742.87],[-120.92269,40.05498,1739.15],[-120.92324,40.05481,1729.19],[-120.92334,40.05481,1728],[-120.92341,40.05483,1727.97],[-120.92364,40.05493,1730.03],[-120.92381,40.05496,1730.35],[-120.92391,40.05496,1729.69],[-120.92401,40.05496,1729.47],[-120.9244,40.05483,1722.22],[-120.92472,40.05475,1717.91],[-120.9253,40.05471,1712.64],[-120.92552,40.05472,1710.77],[-120.9258,40.05467,1706.13],[-120.92604,40.05469,1704.61],[-120.92648,40.05466,1700.93],[-120.92647,40.05479,1703.18],[-120.9265,40.0549,1703.76],[-120.92647,40.05503,1704.99],[-120.92637,40.05523,1708.88],[-120.92638,40.05533,1709.64],[-120.9264,40.05547,1711.24],[-120.92646,40.05566,1712.4],[-120.92662,40.05623,1716.81],[-120.92664,40.05635,1717.44],[-120.92666,40.05656,1718.25],[-120.92659,40.05667,1721.4],[-120.92653,40.05672,1723.84],[-120.92652,40.05675,1724.39],[-120.9265,40.05677,1725.2],[-120.92647,40.05682,1726.51],[-120.92644,40.05685,1727.67],[-120.92643,40.05691,1728.33],[-120.92644,40.05701,1729.57],[-120.9265,40.05719,1730.73],[-120.92651,40.05732,1732.73],[-120.92655,40.05747,1733.72],[-120.92656,40.05755,1733.63],[-120.92652,40.05765,1735.25],[-120.92647,40.05773,1736.8],[-120.92643,40.05783,1736.84],[-120.92634,40.05792,1738.61],[-120.92631,40.05796,1739.3],[-120.92624,40.05804,1741.2],[-120.92619,40.05811,1742.45],[-120.92614,40.05816,1743.95],[-120.9261,40.05829,1744.77],[-120.9261,40.0584,1744.76],[-120.9261,40.05853,1744.95],[-120.9261,40.05864,1745.63],[-120.92612,40.05877,1745.82],[-120.92615,40.05889,1747.2],[-120.92619,40.05898,1747.67],[-120.92622,40.05906,1748.6],[-120.92647,40.05944,1749.35],[-120.92651,40.05952,1749.27],[-120.9265,40.05961,1750.23],[-120.92644,40.05981,1752.73],[-120.92641,40.05994,1754.28],[-120.92643,40.06006,1753.88],[-120.92647,40.0601,1753.2],[-120.92657,40.06022,1753.28],[-120.9267,40.06035,1753.56],[-120.92691,40.06051,1755.44],[-120.92707,40.0606,1755.95],[-120.92746,40.06076,1753.82],[-120.92781,40.06096,1754.77],[-120.92791,40.06107,1757.58],[-120.92868,40.06143,1754.58],[-120.92884,40.06156,1756.22],[-120.92923,40.06177,1754.56],[-120.92931,40.06182,1754.5],[-120.92956,40.06205,1757.55],[-120.92965,40.06215,1759.29],[-120.92978,40.0623,1761.58],[-120.92995,40.06247,1764.19],[-120.93015,40.0626,1765.44],[-120.93033,40.06268,1767.14],[-120.93042,40.06274,1768.99],[-120.93047,40.06277,1770],[-120.93069,40.0628,1771.4],[-120.9309,40.0628,1771.92],[-120.9313,40.06273,1771.57],[-120.93146,40.06274,1773.3],[-120.93169,40.06267,1772.63],[-120.93192,40.06267,1774.47],[-120.93211,40.06273,1777.75],[-120.93223,40.06272,1777.95],[-120.93274,40.06272,1779.01],[-120.93275,40.06272,1779.02],[-120.93292,40.06274,1779.92],[-120.93297,40.06276,1780.63],[-120.93304,40.06275,1780.44],[-120.93329,40.0628,1782.54],[-120.93332,40.06281,1782.94],[-120.93334,40.06284,1783.91],[-120.93346,40.06289,1785.76],[-120.93357,40.06286,1785.39],[-120.9337,40.06288,1787.76],[-120.93382,40.06289,1789.79],[-120.93388,40.06292,1791.87],[-120.93407,40.0629,1793.67],[-120.93411,40.06288,1793.15],[-120.9342,40.06283,1791.38],[-120.93427,40.0628,1790.41],[-120.93435,40.0628,1791.55],[-120.93448,40.06277,1791.6],[-120.93458,40.06272,1790.02],[-120.93463,40.06269,1789.39],[-120.93465,40.06265,1787.54],[-120.93463,40.06263,1785.88],[-120.93435,40.06253,1775.27],[-120.93426,40.06253,1773.9],[-120.93423,40.06254,1774.18],[-120.93399,40.06249,1771.41],[-120.93382,40.06244,1768.83],[-120.93371,40.0624,1767.08],[-120.9333,40.06232,1763.52],[-120.93306,40.06223,1759.91],[-120.93277,40.06221,1759.22],[-120.93258,40.06222,1759.39],[-120.932,40.06235,1762.22],[-120.93186,40.06235,1761.23],[-120.93162,40.06231,1756.93],[-120.93094,40.06232,1751.67],[-120.93086,40.06231,1750.84],[-120.93071,40.0623,1750.21],[-120.93061,40.06225,1748.24],[-120.93061,40.06219,1745.76],[-120.93065,40.06216,1744.43],[-120.9307,40.06217,1744.77],[-120.93111,40.06213,1744.09],[-120.93114,40.06213,1744.21],[-120.93148,40.06221,1750.87],[-120.93172,40.06218,1752.08],[-120.93186,40.06213,1750.79],[-120.93193,40.06211,1750.24],[-120.93202,40.06212,1751.51],[-120.93209,40.06216,1754.25],[-120.93214,40.06217,1755.19],[-120.93219,40.06215,1754.46],[-120.93231,40.06207,1750.8],[-120.93242,40.06201,1748.28],[-120.93253,40.06203,1749.96],[-120.93264,40.06208,1752.78],[-120.93292,40.06199,1748.86],[-120.93301,40.06198,1748.29],[-120.93307,40.06198,1748.24],[-120.93313,40.06201,1749.61],[-120.93313,40.06204,1751.04],[-120.93316,40.06208,1752.91],[-120.93322,40.06209,1753.3],[-120.93357,40.062,1748.46],[-120.93368,40.06196,1746.8],[-120.93378,40.06189,1744.16],[-120.93383,40.06183,1742.57],[-120.93378,40.06177,1740.89],[-120.93358,40.0617,1739.09],[-120.93319,40.06175,1737.53],[-120.93307,40.06174,1736.74],[-120.93282,40.06167,1732.31],[-120.93268,40.06161,1728.21],[-120.93258,40.06159,1726.54],[-120.9325,40.06161,1727.2],[-120.93244,40.06165,1728.98],[-120.93234,40.06164,1727.59],[-120.93223,40.06159,1723.89],[-120.93217,40.06156,1721.75],[-120.93223,40.06149,1718.32],[-120.93222,40.06146,1716.58],[-120.93219,40.06145,1715.8],[-120.93212,40.06146,1715.89],[-120.9321,40.06143,1714.12],[-120.93211,40.06142,1713.63],[-120.93216,40.06139,1712.28],[-120.93219,40.06137,1711.29],[-120.93218,40.06135,1710.04],[-120.93213,40.06133,1708.58],[-120.9319,40.06134,1707.92],[-120.93165,40.06135,1707.16],[-120.93151,40.06133,1705.31],[-120.93116,40.06125,1700.26],[-120.93098,40.06124,1701.03],[-120.93075,40.06118,1700.25],[-120.9306,40.06112,1699.68],[-120.93048,40.06111,1701.12],[-120.9301,40.061,1703.88],[-120.92983,40.06074,1697.89],[-120.92957,40.06058,1696.47],[-120.92946,40.06042,1693.08],[-120.92941,40.06037,1692.53],[-120.9293,40.06023,1690.45],[-120.92917,40.06006,1687.65],[-120.92905,40.05994,1685.97],[-120.92892,40.05982,1683.97],[-120.92882,40.05968,1681.68],[-120.92871,40.05947,1679.31],[-120.92868,40.05928,1677.71],[-120.92866,40.05919,1677.25],[-120.92875,40.05912,1673.93],[-120.92879,40.05907,1672.27],[-120.92876,40.05901,1672.25],[-120.92868,40.05893,1672.51],[-120.92855,40.05873,1671.45],[-120.92854,40.05867,1670.56],[-120.92857,40.05841,1666.91],[-120.92863,40.05832,1665.86],[-120.92878,40.05816,1664.8],[-120.92894,40.05807,1663.53],[-120.92922,40.05797,1658.14],[-120.92934,40.05789,1655.54],[-120.92937,40.05785,1655.16],[-120.92939,40.05773,1656.13],[-120.92937,40.05755,1655.61],[-120.92928,40.05719,1652.48],[-120.92915,40.05693,1648.8],[-120.92905,40.05676,1646.81],[-120.92896,40.05658,1645.61],[-120.92898,40.05647,1643.77],[-120.92897,40.05637,1643.39],[-120.92895,40.0563,1644.49],[-120.92901,40.05621,1643.76],[-120.92912,40.05614,1641.86],[-120.92943,40.05609,1636.37],[-120.92979,40.05594,1634.81],[-120.93028,40.05596,1628.3],[-120.93056,40.05581,1629.24],[-120.93093,40.05571,1628.81],[-120.9312,40.0557,1627.42],[-120.93162,40.05566,1627.08],[-120.9318,40.05568,1625.87],[-120.93191,40.05562,1627.91],[-120.93209,40.05565,1626.86],[-120.93223,40.05563,1627.7],[-120.93235,40.05562,1628.17],[-120.93251,40.05566,1626.64],[-120.93265,40.05563,1626.93],[-120.93276,40.05562,1626.46],[-120.93285,40.05554,1627.64],[-120.93304,40.05531,1628.26],[-120.9331,40.05518,1629.13],[-120.93328,40.05513,1626.46],[-120.93349,40.05501,1625.13],[-120.93362,40.05496,1624.07],[-120.93366,40.05487,1625.46],[-120.9338,40.05458,1627.39],[-120.93389,40.05428,1626.87],[-120.93399,40.05411,1624.17],[-120.93402,40.054,1622.93],[-120.93398,40.05386,1622.52],[-120.93403,40.05372,1620.15],[-120.93408,40.0534,1617.25],[-120.93416,40.05312,1615.41],[-120.93416,40.05291,1615.83],[-120.93415,40.05285,1616.1],[-120.93412,40.0525,1616.21],[-120.93407,40.05222,1618.04],[-120.93411,40.05209,1618.62],[-120.93426,40.052,1616.68],[-120.93434,40.05191,1617.04],[-120.93435,40.05182,1618.35],[-120.93428,40.05172,1621.28],[-120.93425,40.05161,1623.67],[-120.93425,40.05152,1625.09],[-120.93443,40.05122,1626.51],[-120.93468,40.05098,1626.13],[-120.93476,40.05087,1626.81],[-120.9348,40.05075,1627.65],[-120.93493,40.05067,1626.13],[-120.93522,40.05054,1622.29],[-120.93544,40.05044,1619.55],[-120.9357,40.05026,1616.95],[-120.93588,40.0502,1614.33],[-120.93615,40.05011,1611.21],[-120.93635,40.05003,1610.01],[-120.93682,40.04997,1606.63],[-120.93714,40.05004,1600.65],[-120.93732,40.04992,1601.27],[-120.93759,40.04984,1597.62],[-120.93764,40.0498,1597.25],[-120.93773,40.0496,1598.79],[-120.93791,40.04936,1598.04],[-120.93817,40.04908,1594.51],[-120.93821,40.04892,1593.36],[-120.93825,40.04891,1592.69],[-120.93832,40.04891,1591.6],[-120.93841,40.04896,1590.62],[-120.93845,40.04904,1590.13],[-120.93845,40.04912,1589.31],[-120.93843,40.04919,1588.83],[-120.93829,40.04941,1589.33],[-120.93824,40.04952,1589.38],[-120.9382,40.04976,1586.82],[-120.9382,40.04985,1585.33],[-120.93815,40.05001,1583.08],[-120.93797,40.05025,1581.63],[-120.93786,40.05053,1576.62],[-120.93766,40.05083,1572.71],[-120.93758,40.05098,1570.92],[-120.93752,40.05127,1566.06],[-120.93747,40.05137,1564.91],[-120.93736,40.05149,1565.63],[-120.93729,40.05166,1566.03],[-120.93729,40.05182,1566.68],[-120.93732,40.05193,1566.77],[-120.93736,40.05199,1566.31],[-120.93759,40.05222,1563.66],[-120.93785,40.05234,1558.14],[-120.93806,40.05254,1551.7],[-120.93817,40.05259,1549.38],[-120.93835,40.05261,1546.95],[-120.93846,40.0526,1546.02],[-120.93861,40.05254,1545.14],[-120.93875,40.05242,1544.39],[-120.9388,40.05234,1544.02],[-120.93879,40.05229,1544.25],[-120.93874,40.05225,1544.92],[-120.93869,40.05218,1545.59],[-120.93869,40.05214,1545.26],[-120.93871,40.05214,1544.99],[-120.93879,40.05216,1544.21],[-120.93895,40.05228,1542.42],[-120.93917,40.05238,1539.19],[-120.93931,40.05252,1536.19],[-120.93932,40.05269,1534.45],[-120.93934,40.0527,1534.01],[-120.93935,40.05279,1532.59],[-120.93935,40.0529,1530.97],[-120.93938,40.05303,1528.07],[-120.93936,40.05313,1526.01],[-120.93939,40.05319,1524.18],[-120.93948,40.05324,1521.96],[-120.93957,40.05326,1520.51],[-120.93974,40.05324,1518.89],[-120.94002,40.05316,1515.35],[-120.94008,40.05308,1514.7],[-120.94008,40.05301,1514.98],[-120.94024,40.05285,1513.57],[-120.94029,40.05278,1513.33],[-120.94039,40.05272,1512.18],[-120.94041,40.05263,1512.71],[-120.94044,40.05261,1512.67],[-120.9405,40.05259,1512.63],[-120.94063,40.0526,1512.01],[-120.94094,40.05272,1510.86],[-120.94126,40.05295,1506.79],[-120.94142,40.05299,1505.69],[-120.94146,40.05299,1505.61],[-120.94154,40.05296,1506.02],[-120.94156,40.05297,1505.68],[-120.94156,40.05299,1505.17],[-120.9415,40.05308,1503.07],[-120.94144,40.0531,1502.77],[-120.94139,40.05317,1501.02],[-120.94135,40.05332,1497.44],[-120.94142,40.05336,1496.47],[-120.94178,40.05337,1495.27],[-120.94189,40.05337,1494.32],[-120.94233,40.05341,1489.3],[-120.9425,40.0534,1488.13],[-120.94289,40.05354,1483.38],[-120.94303,40.05363,1480.6],[-120.94313,40.05366,1479.47],[-120.94323,40.05369,1478.25],[-120.9434,40.05366,1478.54],[-120.94356,40.05361,1479.41],[-120.9438,40.05361,1478.25],[-120.94401,40.05366,1475.64],[-120.94414,40.05368,1474.31],[-120.94449,40.05361,1474.14],[-120.94469,40.05361,1472.7],[-120.94487,40.05366,1469.75],[-120.94528,40.05387,1459.07],[-120.94538,40.05389,1457.38],[-120.94572,40.05389,1453.88],[-120.94583,40.05386,1453.81],[-120.94591,40.05386,1452.95],[-120.94606,40.05384,1452.41],[-120.94611,40.05383,1452.4],[-120.94643,40.05384,1450.42],[-120.94655,40.05388,1448.29],[-120.94664,40.05395,1444.91],[-120.94667,40.054,1442.55],[-120.94669,40.05407,1439.8],[-120.94665,40.0541,1438.74],[-120.94654,40.05411,1438.6],[-120.94653,40.05413,1438],[-120.94656,40.05418,1436.26],[-120.94679,40.05424,1434.14],[-120.94699,40.05431,1431.41],[-120.94715,40.05431,1431.03],[-120.94733,40.05427,1432.02],[-120.94753,40.05426,1431.05],[-120.94763,40.05422,1432.06],[-120.94771,40.05421,1431.65],[-120.94787,40.0542,1430.44],[-120.94805,40.05411,1433],[-120.94811,40.05411,1432.42],[-120.9483,40.05413,1429.59],[-120.94857,40.05411,1428.32],[-120.9493,40.054,1429.22],[-120.94977,40.0539,1430.15],[-120.94992,40.05384,1429.96],[-120.95006,40.05378,1428.95],[-120.95013,40.05372,1427.75],[-120.9503,40.05346,1424.37],[-120.95033,40.05328,1424.47],[-120.95036,40.05322,1423.61],[-120.95045,40.05312,1420.43],[-120.95047,40.05307,1419.85],[-120.95051,40.05305,1418.28],[-120.95053,40.05306,1417.4],[-120.95054,40.05313,1416.68],[-120.95057,40.05316,1415.31],[-120.95067,40.05314,1411.29],[-120.95072,40.05301,1409.68],[-120.95072,40.05292,1409.8],[-120.95067,40.05279,1411.94],[-120.95067,40.0527,1411.95],[-120.95083,40.05242,1405.54],[-120.9509,40.05211,1403.2],[-120.95093,40.05178,1401.92],[-120.95092,40.05164,1401.89],[-120.95089,40.05151,1402.33],[-120.95081,40.05133,1405.27],[-120.95081,40.05124,1405.57],[-120.95085,40.05117,1404.4],[-120.95102,40.0511,1400.5],[-120.9513,40.05104,1397.55],[-120.95142,40.05104,1395.46],[-120.95168,40.051,1395.95],[-120.95218,40.05104,1393.24],[-120.95272,40.05113,1388.53],[-120.95281,40.05113,1387.41],[-120.95289,40.05111,1385.82],[-120.953,40.05104,1384.42],[-120.95329,40.05034,1385.98],[-120.95349,40.05005,1383.58],[-120.95373,40.04984,1382.36],[-120.95388,40.04975,1381.17],[-120.95407,40.04968,1378.29],[-120.95412,40.04963,1378.31],[-120.95439,40.04937,1375.57],[-120.95451,40.04921,1373.91],[-120.95469,40.04903,1369.71],[-120.95486,40.04874,1365.58],[-120.95506,40.04851,1360.19],[-120.95511,40.04837,1358.86],[-120.95513,40.04808,1359.27],[-120.95518,40.04787,1358.39],[-120.95522,40.04778,1356.96],[-120.95543,40.04745,1349.13],[-120.95556,40.04728,1346.8],[-120.95562,40.04716,1347.36],[-120.95564,40.04697,1348.52],[-120.95568,40.04687,1347.96],[-120.95595,40.04654,1344.78],[-120.95615,40.04625,1343.43],[-120.95622,40.04614,1344.26],[-120.95631,40.04594,1341.79],[-120.95648,40.04576,1340.95],[-120.95655,40.04549,1335.63],[-120.95661,40.04543,1335.72],[-120.95667,40.04529,1334.32],[-120.9567,40.04527,1334.89],[-120.95675,40.04505,1331.7],[-120.95684,40.0448,1329.31],[-120.95699,40.04454,1328.54],[-120.95704,40.04437,1326.28],[-120.95715,40.04422,1326.81],[-120.95719,40.04413,1325.84],[-120.95734,40.04394,1325.35],[-120.95741,40.04379,1322.48],[-120.95773,40.04336,1316.69],[-120.95788,40.04325,1315.67],[-120.95822,40.04312,1314.48],[-120.95848,40.04304,1314.17],[-120.95902,40.04282,1311.82],[-120.95931,40.04273,1313.52],[-120.95946,40.04263,1312.1],[-120.95952,40.04254,1309.93],[-120.95958,40.04237,1305.04],[-120.95964,40.04229,1303.21],[-120.95973,40.04222,1300.7],[-120.95999,40.04219,1299.08],[-120.96011,40.0422,1297.42],[-120.96046,40.04233,1296.1],[-120.96058,40.04235,1294.49],[-120.96069,40.04238,1293.49],[-120.96105,40.04241,1288.06],[-120.9611,40.0424,1286.82],[-120.96112,40.04238,1285.79],[-120.96113,40.04236,1284.95],[-120.96112,40.04233,1284.11],[-120.96108,40.04228,1283.06],[-120.96103,40.04225,1282.78],[-120.9609,40.04224,1284.59],[-120.9606,40.04209,1284.39],[-120.9605,40.04202,1283.92],[-120.96039,40.04189,1281.6],[-120.96027,40.04182,1281.46],[-120.96007,40.04173,1281.6],[-120.95991,40.04168,1281.36],[-120.95981,40.04166,1280.85],[-120.95963,40.04167,1281.55],[-120.95961,40.04166,1280.91],[-120.95961,40.04164,1280.12],[-120.95973,40.04162,1279.48],[-120.95983,40.04162,1279.2],[-120.96001,40.04167,1280.39],[-120.96018,40.04169,1278.38],[-120.96036,40.04175,1277.36],[-120.96058,40.04186,1276.48],[-120.96082,40.04191,1273.78],[-120.96172,40.04205,1264.89],[-120.9619,40.04213,1263.03],[-120.96193,40.04216,1263.11],[-120.96205,40.04222,1261.59],[-120.96219,40.04237,1261.56],[-120.96239,40.04244,1258.01],[-120.96271,40.04263,1256.01],[-120.96307,40.0428,1253.05],[-120.96342,40.04294,1249.59],[-120.96361,40.04301,1247.29],[-120.96385,40.04311,1245.32],[-120.96412,40.04317,1240.41],[-120.96477,40.0434,1234.7],[-120.96494,40.04349,1233.45],[-120.96523,40.04364,1229.69],[-120.96535,40.04377,1230.27],[-120.96549,40.04388,1230.9],[-120.9656,40.04395,1231.82],[-120.96587,40.04405,1232.17],[-120.96613,40.04405,1229.39],[-120.96642,40.04408,1228.19],[-120.96687,40.04408,1224.95],[-120.96721,40.04403,1220.73],[-120.96753,40.04394,1215.08],[-120.96772,40.0439,1213.58],[-120.96802,40.04381,1210.51],[-120.96813,40.04375,1208.21],[-120.96829,40.04368,1204.96],[-120.96851,40.04361,1201.33],[-120.96894,40.04361,1198.89],[-120.96922,40.04367,1196.85],[-120.96928,40.04374,1196.07],[-120.96924,40.04388,1195.82],[-120.96927,40.04415,1189.41],[-120.96927,40.04432,1186.28],[-120.96921,40.04449,1187.01],[-120.96919,40.04463,1187.04],[-120.96922,40.04473,1186.41],[-120.96922,40.04482,1186.64],[-120.9693,40.04489,1185.03],[-120.96943,40.04489,1181.9],[-120.96948,40.04486,1180.42],[-120.96954,40.04479,1178.27],[-120.96963,40.0447,1175.02],[-120.96961,40.0446,1174.23],[-120.96963,40.04453,1173.19],[-120.96963,40.04444,1172.68],[-120.96965,40.04441,1172.02],[-120.96969,40.0444,1170.98],[-120.96974,40.04442,1169.89],[-120.96976,40.04444,1169.57],[-120.9698,40.04455,1169.55],[-120.96988,40.04464,1168.95],[-120.97001,40.04489,1168.9],[-120.97005,40.04493,1167.92],[-120.97015,40.04498,1164.98],[-120.97023,40.04505,1162.28],[-120.97027,40.04505,1160.93],[-120.97032,40.04503,1159.6],[-120.97031,40.04495,1160.27],[-120.97027,40.0448,1161.56],[-120.97027,40.04477,1161.26],[-120.97031,40.04476,1160.21],[-120.97023,40.04474,1161.95],[-120.97014,40.04468,1163.48],[-120.97003,40.04444,1163.11],[-120.96993,40.04418,1164.81],[-120.96991,40.044,1167.16],[-120.96993,40.04391,1168.32],[-120.96999,40.04382,1168.25],[-120.9701,40.04371,1167.55],[-120.97016,40.04356,1169.74],[-120.97014,40.04346,1171.32],[-120.97009,40.04336,1172.33],[-120.97001,40.04331,1174.07],[-120.96982,40.04332,1177.51],[-120.9694,40.04334,1184.4],[-120.96815,40.04338,1187.59],[-120.9672,40.04358,1199.02],[-120.9668,40.04357,1202.41],[-120.96597,40.04343,1207.01],[-120.96553,40.0431,1205.58],[-120.96483,40.04288,1210.91],[-120.96365,40.04211,1213.5],[-120.9632,40.04175,1213.87],[-120.96291,40.04123,1211.93],[-120.9625,40.04107,1211.87],[-120.9618,40.04108,1218.04],[-120.96115,40.04099,1225.53],[-120.96069,40.04088,1230.79],[-120.96046,40.04068,1228.32],[-120.9602,40.0406,1229.83],[-120.95957,40.04054,1231.48],[-120.95895,40.04064,1232],[-120.95842,40.04105,1234.33],[-120.95802,40.04167,1238.4],[-120.95764,40.04182,1238.91],[-120.95681,40.04196,1236.89],[-120.9564,40.04206,1235.78],[-120.95609,40.04226,1237.84],[-120.9559,40.04249,1239.29],[-120.95581,40.0428,1240.96],[-120.95572,40.04329,1245.03],[-120.95587,40.04372,1256.07],[-120.95567,40.04404,1259.41],[-120.95545,40.0443,1260.53],[-120.95454,40.04511,1271.69],[-120.95429,40.04522,1275.1],[-120.95399,40.0452,1276.44],[-120.95383,40.04509,1275.74],[-120.95404,40.04468,1276.4],[-120.95409,40.0444,1279.64],[-120.95408,40.04419,1279.88],[-120.95388,40.04417,1285.03],[-120.95336,40.04459,1293.86],[-120.95294,40.04472,1296.48],[-120.95232,40.04482,1303.47],[-120.95185,40.04501,1309.45],[-120.95164,40.04529,1311.63],[-120.95169,40.0454,1313.58],[-120.95217,40.04534,1311.22],[-120.95245,40.04538,1313.77],[-120.95271,40.04566,1319.96],[-120.9523,40.04649,1334.84],[-120.95249,40.04666,1334.81],[-120.95307,40.04676,1340.22],[-120.95387,40.04675,1346.93],[-120.95418,40.0469,1349.81],[-120.9544,40.0471,1353.59],[-120.95476,40.04719,1354.42],[-120.95529,40.04724,1351.96],[-120.95535,40.04735,1351.68],[-120.95527,40.04742,1355.07],[-120.95458,40.04739,1362.79],[-120.95408,40.0473,1362.71],[-120.95338,40.04737,1372.08],[-120.95272,40.0474,1376.9],[-120.95207,40.04741,1379.14],[-120.95165,40.04734,1380.85],[-120.95135,40.04717,1382.37],[-120.95119,40.04684,1379.75],[-120.95055,40.04666,1385.85],[-120.94969,40.04661,1398.41],[-120.94911,40.04647,1402.91],[-120.94882,40.04618,1401.01],[-120.94846,40.04605,1406.86],[-120.94789,40.0458,1415.98],[-120.94729,40.0458,1420.98],[-120.94683,40.04572,1424.34],[-120.94648,40.04557,1425.48],[-120.94607,40.04552,1429.32],[-120.94592,40.04566,1433.51],[-120.94637,40.04601,1436.97],[-120.94617,40.04619,1445.58],[-120.94567,40.04609,1450.85],[-120.94519,40.04585,1449.79],[-120.94472,40.04576,1456.22],[-120.94449,40.04565,1457.14],[-120.94429,40.04507,1449],[-120.94396,40.04482,1449.95],[-120.94378,40.0445,1451.04],[-120.94385,40.04408,1447.32],[-120.94382,40.04388,1446.01],[-120.94365,40.04379,1445.92],[-120.94325,40.04379,1447.92],[-120.94274,40.0437,1448.17],[-120.94207,40.04368,1449.98],[-120.94169,40.0436,1448.91],[-120.94127,40.04364,1452.19],[-120.94106,40.04347,1448.99],[-120.9408,40.04328,1446.28],[-120.9405,40.04284,1455.78],[-120.94029,40.04282,1460.91],[-120.94013,40.0428,1463.84],[-120.93996,40.04278,1465.32],[-120.93983,40.04279,1466.13],[-120.93974,40.04282,1467.01],[-120.9397,40.04286,1467.76],[-120.93971,40.0429,1468.21],[-120.93972,40.04293,1468.53],[-120.93986,40.0431,1467.64],[-120.93986,40.04318,1467.25],[-120.93983,40.04323,1467.48],[-120.93971,40.04332,1468.79],[-120.9396,40.04336,1470.67],[-120.93918,40.04359,1479.68],[-120.93904,40.04346,1483.54],[-120.93872,40.04328,1487.6],[-120.93868,40.04323,1487.22],[-120.93862,40.04313,1485.06],[-120.93837,40.043,1483.88],[-120.93815,40.04284,1480.8],[-120.93797,40.04274,1478.92],[-120.93783,40.04267,1477.11],[-120.93711,40.0427,1477.89],[-120.93688,40.0426,1475.92],[-120.93678,40.04247,1473.5],[-120.93673,40.04245,1473.48],[-120.93642,40.04233,1473.81],[-120.93632,40.04232,1474.78],[-120.93625,40.04231,1475.2],[-120.93577,40.0422,1474.89],[-120.93562,40.0422,1475.06],[-120.93544,40.04224,1475.11],[-120.93538,40.04229,1476.21],[-120.93521,40.04236,1476.72],[-120.935,40.04249,1476.52],[-120.93485,40.0427,1475.71],[-120.93482,40.04278,1475.19],[-120.93489,40.04296,1476.3],[-120.93501,40.04314,1477.33],[-120.93506,40.04318,1478.02],[-120.93509,40.04323,1478.1],[-120.93526,40.04334,1480.02],[-120.93533,40.04343,1479.86],[-120.93542,40.0435,1480.6],[-120.93543,40.04352,1480.5],[-120.9355,40.04356,1481.59],[-120.93569,40.04378,1483.09],[-120.93582,40.04408,1484.69],[-120.93584,40.04421,1485.3],[-120.93583,40.04431,1485.45],[-120.93579,40.04439,1485.88],[-120.93572,40.04441,1485.39],[-120.93546,40.04441,1483.58],[-120.9353,40.04437,1481.74],[-120.93506,40.04437,1480.17],[-120.93459,40.04444,1480.31],[-120.93438,40.04452,1481.18],[-120.93403,40.04454,1478.08],[-120.93391,40.04454,1476.87],[-120.93369,40.04443,1473.88],[-120.93359,40.04441,1473.84],[-120.93349,40.04443,1474.64],[-120.93333,40.04448,1476.1],[-120.93326,40.04452,1477.17],[-120.93324,40.04455,1477.92],[-120.93305,40.04473,1481.55],[-120.93298,40.04482,1483.1],[-120.93291,40.045,1485.2],[-120.93283,40.04511,1484.53],[-120.93272,40.0452,1481.61],[-120.93242,40.04528,1473.39],[-120.93219,40.04537,1471.13],[-120.93184,40.04546,1471.83],[-120.93147,40.04558,1471.38],[-120.93131,40.0456,1470.06],[-120.93103,40.04557,1465.49],[-120.9309,40.04558,1465.02],[-120.93066,40.04566,1466.85],[-120.93055,40.04571,1468.47],[-120.93042,40.04581,1472.28],[-120.93021,40.04589,1472.41],[-120.92981,40.04602,1471.33],[-120.92937,40.0461,1469.19],[-120.92871,40.04611,1463.05],[-120.92839,40.04608,1460.44],[-120.92811,40.04608,1460.6],[-120.92802,40.04607,1460.44],[-120.92794,40.04604,1459.67],[-120.92788,40.04599,1457.96],[-120.92785,40.04592,1455.25],[-120.92785,40.04588,1453.74],[-120.92784,40.0458,1454.08],[-120.92789,40.04571,1453.68],[-120.92823,40.04555,1450.61],[-120.92829,40.04552,1450.49],[-120.9284,40.0454,1451.56],[-120.92848,40.04528,1454.28],[-120.92858,40.04519,1455.04],[-120.92864,40.04502,1459.38],[-120.92872,40.04491,1460.34],[-120.92878,40.0448,1462.16],[-120.92908,40.04462,1459.45],[-120.92919,40.04452,1460.3],[-120.9294,40.04416,1466.58],[-120.9295,40.04406,1466.25],[-120.92953,40.04405,1465.52],[-120.92956,40.04398,1466.82],[-120.92977,40.04365,1467.63],[-120.92979,40.04354,1468.67],[-120.92976,40.04337,1469.9],[-120.92972,40.04328,1471.36],[-120.92966,40.04323,1473.4],[-120.92965,40.04314,1472.43],[-120.92959,40.04298,1472.4],[-120.92954,40.04294,1473.58],[-120.9295,40.04287,1473.6],[-120.92939,40.04283,1476.54],[-120.92937,40.0428,1476.4],[-120.92921,40.04269,1478.15],[-120.92917,40.04265,1478.16],[-120.92911,40.04254,1476.72],[-120.92909,40.04247,1475.28],[-120.92909,40.04233,1473.29],[-120.9291,40.04226,1471.99],[-120.92912,40.04223,1470.9],[-120.92912,40.04211,1470.56],[-120.92909,40.042,1471.66],[-120.92909,40.04195,1471.68],[-120.92914,40.04181,1470.78],[-120.92915,40.0417,1471.17],[-120.9291,40.04158,1471.94],[-120.92905,40.04152,1472.62],[-120.92897,40.04146,1473.84],[-120.92884,40.04141,1476.03],[-120.92874,40.04137,1477.46],[-120.92869,40.04134,1478.21],[-120.92868,40.04131,1477.97],[-120.92867,40.04126,1477.4],[-120.92869,40.04117,1475.3],[-120.9287,40.04096,1472.89],[-120.92877,40.0407,1469.66],[-120.9288,40.04045,1469],[-120.92878,40.0404,1469.86],[-120.92867,40.04031,1474.06],[-120.92862,40.04014,1475.65],[-120.92851,40.04002,1479.01],[-120.92822,40.03987,1486.61],[-120.92815,40.03981,1487.43],[-120.92799,40.03971,1488.33],[-120.92774,40.03967,1490.63],[-120.92763,40.03963,1490.71],[-120.92761,40.03956,1489.26],[-120.92764,40.03944,1486.92],[-120.92779,40.03926,1482.52],[-120.92781,40.03919,1482.54],[-120.9279,40.03909,1481.03],[-120.92814,40.03895,1477.93],[-120.92821,40.03889,1477.75],[-120.92841,40.03884,1473.7],[-120.92852,40.03877,1473.34],[-120.92842,40.0387,1477.35],[-120.92839,40.03864,1479.58],[-120.92831,40.0386,1482.53],[-120.92818,40.03855,1486.75],[-120.92803,40.03855,1489.87],[-120.92795,40.03852,1490.94],[-120.92789,40.03844,1490.5],[-120.92783,40.03829,1489.54],[-120.92753,40.03793,1492.6],[-120.92728,40.03779,1496.56],[-120.92714,40.03773,1498.66],[-120.92701,40.0377,1500.61],[-120.92667,40.03756,1502.92],[-120.92658,40.03756,1504.33],[-120.92651,40.03754,1504.81],[-120.92638,40.03738,1503.08],[-120.92629,40.03719,1501.39],[-120.92607,40.03705,1504.73],[-120.92562,40.03684,1511.24],[-120.92557,40.03676,1510.31],[-120.9255,40.03669,1509.97],[-120.92545,40.03647,1507.71],[-120.92539,40.03632,1507.65],[-120.92533,40.03605,1507.33],[-120.92538,40.03598,1505.29],[-120.92538,40.03585,1504.76],[-120.9254,40.03579,1504.5],[-120.92549,40.0357,1503.46],[-120.92568,40.03571,1500.38],[-120.92575,40.03568,1500.29],[-120.92617,40.03559,1500.44],[-120.92625,40.03555,1501.97],[-120.92639,40.03544,1506.11],[-120.92653,40.03526,1510.78],[-120.92673,40.0351,1509.97],[-120.92677,40.03502,1511.16],[-120.92688,40.03491,1510.85],[-120.92703,40.03479,1510.23],[-120.92735,40.03464,1509.54],[-120.92763,40.03452,1510.04],[-120.92773,40.03447,1510.24],[-120.92789,40.03432,1512.86],[-120.928,40.03414,1515.94],[-120.92804,40.03394,1519.85],[-120.92806,40.03393,1519.46],[-120.92811,40.03376,1520.64],[-120.92821,40.03317,1517.22],[-120.92815,40.03287,1516.44],[-120.92805,40.03272,1518.73],[-120.92802,40.03268,1519.4],[-120.92796,40.03249,1519.46],[-120.92796,40.0324,1518.72],[-120.92789,40.03219,1520.06],[-120.92788,40.0321,1520.13],[-120.92781,40.03195,1522.45],[-120.9278,40.03187,1522.26],[-120.92774,40.03175,1523.83],[-120.92767,40.03166,1525.9],[-120.92766,40.03156,1525.25],[-120.92761,40.03145,1526.11],[-120.9276,40.03136,1526.08],[-120.92761,40.03132,1525.56],[-120.92765,40.03127,1523.8],[-120.92766,40.03112,1523.59],[-120.9278,40.03084,1522.02],[-120.92798,40.03067,1519.71],[-120.92818,40.03058,1517.83],[-120.92876,40.03052,1511.79],[-120.92905,40.03036,1514.88],[-120.92925,40.03029,1513.75],[-120.92932,40.03023,1514.48],[-120.92932,40.03011,1518.45],[-120.92938,40.02987,1519.03],[-120.92936,40.02964,1518.29],[-120.92941,40.0295,1515.54],[-120.92939,40.02937,1514.82],[-120.9294,40.02932,1514.06],[-120.92944,40.02928,1513.3],[-120.9295,40.02926,1512.43],[-120.92963,40.02926,1510.11],[-120.92976,40.02922,1508.49],[-120.92985,40.02914,1508.46],[-120.92988,40.02908,1509.19],[-120.92995,40.0289,1511.39],[-120.92994,40.02884,1512.58],[-120.92982,40.02881,1514.68],[-120.92962,40.02882,1515.85],[-120.92936,40.02875,1516.89],[-120.92903,40.02875,1522.27],[-120.92896,40.0287,1523.09],[-120.92893,40.02857,1521.18],[-120.92898,40.02841,1517.53],[-120.92898,40.02836,1517.01],[-120.92893,40.02821,1517.44],[-120.92894,40.02805,1516.49],[-120.92892,40.02798,1516.57],[-120.92887,40.02792,1517.21],[-120.92883,40.02782,1516.97],[-120.92877,40.02776,1517.58],[-120.92867,40.02772,1518.89],[-120.92858,40.02765,1519.2],[-120.92855,40.0276,1518.73],[-120.92851,40.02732,1513.52],[-120.92846,40.02726,1513.06],[-120.92842,40.02724,1513.29],[-120.92827,40.02723,1516.45],[-120.92822,40.02718,1517.1],[-120.9282,40.02714,1517.26],[-120.9282,40.02711,1517.03],[-120.92829,40.02696,1513.79],[-120.9283,40.02684,1514.52],[-120.92834,40.02671,1514.82],[-120.92829,40.02639,1514.79],[-120.92826,40.02628,1513.7],[-120.92816,40.02621,1513.81],[-120.92806,40.02617,1514.19],[-120.92798,40.02606,1513.19],[-120.92797,40.02585,1509.81],[-120.92793,40.02568,1508.7],[-120.92793,40.02559,1508.07],[-120.92795,40.02556,1507.64],[-120.92806,40.02545,1505.46],[-120.92811,40.02535,1504.1],[-120.92812,40.0253,1503.46],[-120.92809,40.02521,1502.95],[-120.92798,40.02507,1502.9],[-120.92786,40.02501,1503.69],[-120.92775,40.02493,1503.9],[-120.92761,40.0248,1503.38],[-120.92753,40.02469,1502.06],[-120.92735,40.02455,1501.78],[-120.92728,40.02446,1500.97],[-120.92727,40.02427,1497.16],[-120.92725,40.02423,1496.66],[-120.92718,40.02414,1495.85],[-120.92707,40.02407,1495.92],[-120.92697,40.02398,1495.41],[-120.92685,40.02365,1489.69],[-120.92675,40.02353,1487.89],[-120.92661,40.02342,1485.24],[-120.92631,40.02328,1483.07],[-120.92613,40.02323,1484.01],[-120.92605,40.02319,1483.83],[-120.92591,40.02308,1482.01],[-120.92583,40.023,1480.38],[-120.9258,40.02294,1478.72],[-120.92575,40.0229,1478.09],[-120.92563,40.02284,1477.73],[-120.92556,40.02282,1477.77],[-120.92534,40.02277,1478.52],[-120.92521,40.0227,1478.35],[-120.92506,40.02255,1477.04],[-120.92491,40.0222,1471.01],[-120.92479,40.02202,1467.73],[-120.92455,40.02194,1468.81],[-120.92442,40.02185,1469.98],[-120.92436,40.02169,1469.03],[-120.92436,40.0216,1468.02],[-120.92443,40.02132,1462.59],[-120.92444,40.02118,1460.38],[-120.92433,40.02102,1458.66],[-120.92422,40.02091,1457.52],[-120.92401,40.02075,1453.76],[-120.92386,40.02066,1451.22],[-120.9235,40.02056,1450.5],[-120.92344,40.02051,1449.83],[-120.92334,40.02041,1448.98],[-120.92331,40.02035,1448.77],[-120.92329,40.02024,1448.48],[-120.92332,40.01997,1445.61],[-120.92331,40.01985,1445.62],[-120.92324,40.01967,1446.02],[-120.92312,40.01947,1444.9],[-120.92288,40.01927,1444.03],[-120.92255,40.0191,1440.35],[-120.92212,40.01883,1432.59],[-120.92197,40.01874,1430.04],[-120.92179,40.01865,1426.53],[-120.92173,40.01862,1425.12],[-120.92166,40.0186,1424.33],[-120.9216,40.01859,1424.04],[-120.92148,40.01861,1423.6],[-120.92145,40.01863,1423.52],[-120.92143,40.01865,1423.6],[-120.92139,40.01874,1424.9],[-120.92123,40.01882,1421.27],[-120.92109,40.01894,1415.75],[-120.92107,40.01911,1414.74],[-120.9211,40.01934,1416.34],[-120.92117,40.01947,1421.16],[-120.92126,40.01956,1425.49],[-120.92128,40.01959,1426.56],[-120.92126,40.01964,1427.94],[-120.92111,40.01965,1426.71],[-120.92099,40.01963,1425.17],[-120.92083,40.01963,1424.38],[-120.92057,40.01959,1422.37],[-120.9204,40.01953,1420.78],[-120.92028,40.01952,1421.39],[-120.9201,40.01945,1420.58],[-120.92,40.01937,1418.96],[-120.91975,40.01916,1415.18],[-120.91971,40.0191,1413.6],[-120.91962,40.01898,1411.45],[-120.91952,40.01888,1410.48],[-120.9194,40.01879,1409.01],[-120.91933,40.01876,1408.08],[-120.91926,40.01874,1407.56],[-120.91901,40.01876,1407.98],[-120.91877,40.0188,1407.19],[-120.91836,40.01891,1401.54],[-120.91828,40.01891,1400.71],[-120.91813,40.01888,1398.32],[-120.91806,40.01885,1397.99],[-120.91795,40.01878,1398.64],[-120.91791,40.01873,1398.8],[-120.91787,40.01863,1398.64],[-120.91787,40.0186,1398.29],[-120.91792,40.01865,1397.33],[-120.91792,40.01832,1397.01],[-120.91815,40.0179,1394.19],[-120.91842,40.01718,1397.18],[-120.91866,40.01654,1387.23],[-120.91856,40.0164,1388.16],[-120.9184,40.01639,1392.46],[-120.91815,40.01626,1390.82],[-120.91753,40.01622,1392.9],[-120.91637,40.01634,1381.7],[-120.91584,40.01674,1388.68],[-120.91549,40.01689,1390.34],[-120.91519,40.01689,1387.51],[-120.915,40.01678,1385.44],[-120.915,40.01677,1385.29],[-120.91497,40.01673,1385.75],[-120.91496,40.01667,1386.09],[-120.91494,40.01659,1387.61],[-120.91497,40.01652,1386.96],[-120.91494,40.01659,1387.61],[-120.91496,40.01667,1386.09],[-120.91497,40.01673,1385.75],[-120.915,40.01677,1385.29],[-120.915,40.01678,1385.44],[-120.91498,40.01659,1385.97],[-120.91521,40.01612,1382.67],[-120.91536,40.01569,1385.31],[-120.91569,40.01543,1384.12],[-120.91582,40.01511,1384.24],[-120.91579,40.01481,1386.59],[-120.91614,40.01467,1382.4],[-120.91671,40.0145,1381.43],[-120.91701,40.01425,1382.66],[-120.91706,40.01398,1383.01],[-120.91692,40.01353,1384.51],[-120.91719,40.01317,1382.26],[-120.91798,40.01289,1384.48],[-120.91856,40.01281,1383],[-120.9191,40.01255,1382.53],[-120.9195,40.01215,1387.96],[-120.9198,40.0119,1385.9],[-120.92052,40.01173,1384.26],[-120.9209,40.01154,1378.77],[-120.9211,40.01116,1383.3],[-120.92133,40.01074,1381.77],[-120.92139,40.01042,1383.45],[-120.92155,40.01018,1384.11],[-120.92172,40.01003,1381.23],[-120.92168,40.00977,1385.64],[-120.92163,40.00938,1385.24],[-120.9216,40.00917,1383.3],[-120.92147,40.009,1383],[-120.9213,40.00898,1384.13],[-120.92108,40.0091,1388.33],[-120.92087,40.00914,1388.91],[-120.9205,40.00901,1388.07],[-120.92013,40.00886,1387.79],[-120.91942,40.00895,1390.31],[-120.91883,40.00883,1387.85],[-120.91882,40.00883,1387.86],[-120.91845,40.00892,1388.3],[-120.91817,40.00913,1389.13],[-120.91792,40.00926,1389.54],[-120.91778,40.00924,1388.65],[-120.91768,40.00916,1388.1],[-120.91768,40.00913,1387.57],[-120.91763,40.00904,1386.47],[-120.91761,40.00903,1386.46],[-120.91749,40.00884,1384.05],[-120.9174,40.00875,1382.61],[-120.91698,40.00854,1382.98],[-120.91654,40.00824,1378.45],[-120.91646,40.00821,1378.06],[-120.91637,40.00819,1377.96],[-120.91622,40.00822,1379.65],[-120.91619,40.00823,1380.12],[-120.91604,40.0083,1383.1],[-120.91598,40.0083,1383.19],[-120.91595,40.00826,1382.05],[-120.91592,40.00806,1376.16],[-120.91594,40.00791,1372.33],[-120.91593,40.00777,1369.24],[-120.91596,40.00766,1368.19],[-120.91593,40.00747,1367.64],[-120.91587,40.00728,1367.99],[-120.91587,40.00717,1367.44],[-120.91583,40.00698,1366.37],[-120.91584,40.00692,1365.73],[-120.91591,40.00692,1365.22],[-120.91598,40.00696,1365.09],[-120.91612,40.00707,1364.41],[-120.91617,40.00709,1363.92],[-120.91621,40.00707,1363.33],[-120.91622,40.00701,1362.88],[-120.91608,40.00686,1363.31],[-120.91608,40.00681,1362.88],[-120.91614,40.0068,1362.16],[-120.91631,40.0069,1361.11],[-120.91637,40.00692,1360.58],[-120.91643,40.00691,1359.84],[-120.91645,40.00687,1359.33],[-120.91638,40.00669,1358.86],[-120.91631,40.00658,1358.47],[-120.91625,40.00654,1358.63],[-120.91617,40.00654,1359.37],[-120.91598,40.00654,1360.94],[-120.91597,40.00651,1360.68],[-120.91599,40.00648,1360.23],[-120.91641,40.00633,1355.87],[-120.91669,40.00611,1352.1],[-120.91691,40.00598,1348.66],[-120.91703,40.00586,1346.63],[-120.91707,40.00569,1345.72],[-120.91706,40.00562,1345.77],[-120.91703,40.00557,1346.18],[-120.91695,40.00547,1347.3],[-120.91689,40.00542,1348.16],[-120.91686,40.00538,1348.41],[-120.91685,40.00524,1347.1],[-120.91682,40.00512,1346.13],[-120.91679,40.00507,1345.49],[-120.91643,40.0047,1340.73],[-120.91623,40.00453,1338.53],[-120.91609,40.00433,1336.19],[-120.916,40.00425,1336.32],[-120.91599,40.00419,1335.54],[-120.91608,40.00395,1331.57],[-120.91619,40.00383,1327.91],[-120.91632,40.00374,1324.06],[-120.91641,40.00363,1321.67],[-120.91644,40.00332,1324.28],[-120.9165,40.00329,1323.63],[-120.91679,40.00338,1317.21],[-120.91688,40.00339,1316.2],[-120.91712,40.00336,1314.55],[-120.91729,40.00336,1311.65],[-120.91787,40.00327,1302.91],[-120.91807,40.00321,1302.35],[-120.91896,40.003,1294.79],[-120.91919,40.00292,1292.68],[-120.91926,40.00287,1292.98],[-120.91969,40.00251,1288.38],[-120.91977,40.00237,1285.95],[-120.91976,40.00224,1287.5],[-120.91969,40.00207,1289.98],[-120.91953,40.00184,1292.04],[-120.9194,40.00174,1292.7],[-120.91918,40.00162,1292.33],[-120.91902,40.00151,1289.28],[-120.91833,40.00118,1281.72],[-120.91811,40.00105,1276.79],[-120.91797,40.00099,1275.21],[-120.91776,40.00094,1275.83],[-120.91768,40.00089,1276.36],[-120.91767,40.00076,1272.25],[-120.9177,40.00063,1266.72],[-120.9177,40.00049,1263.33],[-120.91765,40.00036,1261.74],[-120.91761,40.0003,1261.02],[-120.91749,40.00018,1260.21],[-120.91748,40.00016,1259.65],[-120.91752,40.00016,1258.44],[-120.91755,40.00018,1258.34],[-120.9177,40.00029,1257.4],[-120.91771,40.00027,1256.37],[-120.91768,40.00021,1255.33],[-120.9176,40.00012,1253.95],[-120.91743,40.00003,1251.68],[-120.91742,40.00001,1250.32],[-120.91744,40,1249.08],[-120.91755,40.00001,1247.37],[-120.91779,40.0001,1246.99],[-120.91781,40.0001,1246.23],[-120.91781,40.00007,1244.44],[-120.91762,39.99998,1243.7],[-120.91742,39.99992,1243.16],[-120.91742,39.99989,1240.78],[-120.91769,39.99994,1239.6],[-120.91797,40.00004,1236.97],[-120.91816,40.00014,1233.88],[-120.91824,40.00024,1232.62],[-120.91827,40.00034,1234.07],[-120.91826,40.00045,1238.79],[-120.9183,40.0005,1240.14],[-120.91847,40.00054,1237.68],[-120.91958,40.00067,1228.78],[-120.92012,40.00079,1220.84],[-120.9203,40.00086,1217.92],[-120.92047,40.00096,1215.75],[-120.92054,40.00103,1215.85],[-120.92069,40.0013,1219.86],[-120.92102,40.00165,1209.02],[-120.92103,40.00163,1208.2],[-120.92102,40.00157,1208.2],[-120.92095,40.00141,1209.76],[-120.92087,40.00128,1209.79],[-120.92083,40.00104,1203.06],[-120.92078,40.00088,1199.46],[-120.92057,40.00058,1196.51],[-120.92013,40.00025,1192.47],[-120.91993,40.00014,1190.72],[-120.91983,40.00009,1188.7],[-120.91961,40.00003,1186.21],[-120.91911,39.99996,1186.39],[-120.91906,39.99994,1186.46],[-120.91903,39.99986,1182.3],[-120.91896,39.99975,1181.02],[-120.91889,39.99953,1175.75],[-120.91878,39.99936,1172.9],[-120.91866,39.99922,1170.41],[-120.91859,39.99917,1170.11],[-120.91842,39.99909,1170.72],[-120.91805,39.99895,1169.56],[-120.91776,39.99889,1174.09],[-120.91769,39.99883,1174.08],[-120.91773,39.99866,1165.75],[-120.91773,39.99853,1161.67],[-120.91769,39.99828,1158.82],[-120.91763,39.99817,1159.07],[-120.91736,39.99781,1158.3],[-120.91726,39.99754,1153.17],[-120.91715,39.99734,1151.08],[-120.91715,39.9973,1150.24],[-120.91725,39.99721,1146.23],[-120.91724,39.99715,1145.07],[-120.91719,39.99704,1143.51],[-120.9172,39.99696,1141.19],[-120.91727,39.9968,1134.48],[-120.91724,39.99662,1127.88],[-120.91725,39.99658,1126.18],[-120.91728,39.99658,1126.08],[-120.9174,39.99658,1125.66],[-120.91747,39.9966,1124.87],[-120.9176,39.99669,1123.97],[-120.91782,39.99698,1123.13],[-120.91791,39.99714,1123.41],[-120.91792,39.9972,1124.55],[-120.91795,39.99722,1123.96],[-120.91797,39.99719,1122.43],[-120.91797,39.99715,1121.37],[-120.91793,39.99684,1115.71],[-120.91794,39.99633,1107.45],[-120.91793,39.99626,1106.96],[-120.91787,39.99607,1105.02],[-120.91792,39.99593,1101.96],[-120.91822,39.99581,1094.66],[-120.91823,39.99577,1093.43],[-120.9182,39.99574,1093.12],[-120.91809,39.9957,1093.43],[-120.91796,39.9957,1093.49],[-120.91751,39.99591,1101.05],[-120.91715,39.99595,1099.19],[-120.91696,39.996,1097.1],[-120.91678,39.99606,1095.16],[-120.91658,39.99619,1093.4],[-120.91653,39.99624,1092.92],[-120.91643,39.9964,1095.72],[-120.91612,39.99677,1094.65],[-120.91605,39.99684,1093.3],[-120.91601,39.99682,1092.51],[-120.916,39.9968,1092],[-120.91604,39.9966,1084.63],[-120.91603,39.99638,1078.33],[-120.91608,39.99597,1072.24],[-120.91607,39.99584,1072.42],[-120.916,39.99571,1076.37],[-120.916,39.99571,1076.37],[-120.91599,39.99563,1078.11],[-120.91606,39.9955,1077.72],[-120.9161,39.99532,1081.37],[-120.91615,39.99521,1083.37],[-120.91622,39.99513,1083.43],[-120.91628,39.99499,1087.01],[-120.91638,39.9949,1087.01],[-120.91645,39.99481,1087.69],[-120.91651,39.9947,1089.28],[-120.91653,39.99459,1091.9],[-120.91651,39.9944,1094.59],[-120.91652,39.99407,1091.07],[-120.91643,39.99382,1090.13],[-120.91642,39.99376,1090.41],[-120.91643,39.99363,1089.72],[-120.91641,39.99349,1090.79],[-120.91633,39.99327,1094.9],[-120.9163,39.99306,1092.94],[-120.91625,39.99293,1092.03],[-120.91611,39.99277,1092.68],[-120.916,39.99269,1093.59],[-120.91581,39.99248,1091.42],[-120.91568,39.99239,1091.21],[-120.91525,39.99217,1089.45],[-120.91485,39.99203,1088.09],[-120.91456,39.99195,1087.01],[-120.91421,39.9919,1086.87],[-120.91381,39.99183,1084.67],[-120.91363,39.99185,1086.07],[-120.91332,39.99184,1085.85],[-120.91317,39.99185,1086.18],[-120.91266,39.99198,1091.04],[-120.91252,39.99199,1091.02],[-120.91226,39.99203,1091.79],[-120.91189,39.99203,1086.28],[-120.91164,39.99206,1084.82],[-120.91133,39.99207,1086.48],[-120.91088,39.99213,1091.39],[-120.91041,39.99214,1089.78],[-120.91023,39.99212,1088.27],[-120.91002,39.99212,1089.5],[-120.90964,39.99207,1087.93],[-120.90942,39.99201,1084.62],[-120.90928,39.99199,1083.68],[-120.90914,39.99201,1085.16],[-120.90889,39.99214,1091.6],[-120.90843,39.9923,1091.11],[-120.90829,39.99237,1090.59],[-120.90817,39.99252,1093.88],[-120.90811,39.99255,1094.9],[-120.90808,39.99254,1094.91],[-120.908,39.99241,1089.95],[-120.90785,39.9923,1085.99],[-120.90778,39.99227,1085.36],[-120.9076,39.99223,1087.63],[-120.9075,39.99224,1090.31],[-120.90729,39.99223,1094.34],[-120.90707,39.99215,1094.88],[-120.90703,39.99212,1094.12],[-120.90679,39.99207,1095.77],[-120.90666,39.99201,1095],[-120.90651,39.99199,1097.32],[-120.90631,39.99194,1099.08],[-120.90595,39.99179,1098.05],[-120.90573,39.99176,1101.21],[-120.90561,39.9917,1098.9],[-120.90543,39.99163,1095.93],[-120.9052,39.99163,1093.12],[-120.90516,39.99166,1094.63],[-120.90505,39.99178,1101.09],[-120.90502,39.99179,1101.24],[-120.90496,39.99177,1098.9],[-120.90494,39.9917,1094.16],[-120.90482,39.99157,1086.14],[-120.90476,39.99138,1080.51],[-120.90468,39.99102,1081.43],[-120.90464,39.99095,1082.31],[-120.90451,39.99086,1085.5],[-120.90449,39.99082,1085.44],[-120.90449,39.99078,1084.65],[-120.90457,39.99065,1079.51],[-120.90458,39.99056,1079.03],[-120.9045,39.9903,1082.54],[-120.90451,39.98999,1079.72],[-120.90449,39.98993,1079.54],[-120.9044,39.98984,1081.25],[-120.90438,39.9898,1081.6],[-120.90443,39.9897,1079.45],[-120.90441,39.98955,1080.83],[-120.90445,39.98945,1081.6],[-120.90453,39.98931,1081.56],[-120.90456,39.98913,1082.66],[-120.90455,39.98906,1083.13],[-120.90446,39.98883,1083.47],[-120.90435,39.98838,1081.03],[-120.90426,39.98825,1082.38],[-120.90438,39.98814,1079.12],[-120.90442,39.98801,1077.86],[-120.90442,39.98793,1077.6],[-120.90439,39.98786,1078.01],[-120.90425,39.98767,1077.62],[-120.90417,39.98752,1075.6],[-120.90417,39.98746,1075.55],[-120.90421,39.98735,1074.99],[-120.90428,39.98725,1073.4],[-120.90438,39.98696,1075.02],[-120.90447,39.98678,1073.93],[-120.90451,39.98643,1073.93],[-120.90454,39.98636,1073.67],[-120.90475,39.98608,1071.1],[-120.90475,39.98588,1072.33],[-120.90462,39.98561,1072.61],[-120.90446,39.98547,1072.9],[-120.90428,39.98523,1071.95],[-120.90413,39.98509,1071.78],[-120.90405,39.98499,1070.99],[-120.90391,39.98493,1071.6],[-120.90385,39.98492,1072.13],[-120.90376,39.98489,1072.48],[-120.90369,39.98489,1073.29],[-120.9033,39.98478,1071.65],[-120.90299,39.98474,1069.43],[-120.90289,39.98468,1067.77],[-120.90295,39.98441,1062.6],[-120.90365,39.98433,1059.69],[-120.90516,39.98407,1052.44],[-120.90602,39.98346,1042.66],[-120.90612,39.9835,1043.22],[-120.90618,39.98341,1040.85],[-120.9062,39.98331,1038.31],[-120.90618,39.98318,1035.64],[-120.90614,39.98304,1032.79],[-120.90607,39.98295,1032.41],[-120.90603,39.98285,1032.41],[-120.906,39.98274,1032.33],[-120.906,39.98265,1032.2],[-120.90602,39.98249,1031.6],[-120.90605,39.98232,1029.95],[-120.90606,39.98219,1028.55],[-120.90605,39.98208,1027.36],[-120.90601,39.98198,1026.8],[-120.90596,39.98185,1026.27],[-120.90586,39.9817,1025.81],[-120.90571,39.98147,1024.9],[-120.90561,39.98125,1026.1],[-120.90552,39.98101,1026.25],[-120.90545,39.98074,1025.87],[-120.90538,39.98051,1026.12],[-120.90528,39.98022,1027.71],[-120.90526,39.98014,1027.75],[-120.90514,39.97978,1027.94],[-120.90507,39.97958,1027.61],[-120.90503,39.97941,1027.9],[-120.90501,39.97921,1027.98],[-120.905,39.97902,1027.86],[-120.90499,39.97897,1028],[-120.90497,39.97874,1028.04],[-120.90494,39.97848,1028.28],[-120.9049,39.97826,1028.71],[-120.90483,39.978,1029.29],[-120.90476,39.97777,1029.22],[-120.90469,39.97761,1028.91],[-120.90458,39.97737,1029.06],[-120.90454,39.97722,1028.97],[-120.9045,39.97706,1029.21],[-120.90444,39.97683,1029.74],[-120.90437,39.97667,1030.65],[-120.90434,39.97651,1031.25],[-120.90434,39.97639,1031.46],[-120.90436,39.97629,1031.39],[-120.90442,39.97619,1031.16],[-120.90451,39.97608,1032.02],[-120.90464,39.97596,1032.45],[-120.9048,39.97586,1033.43],[-120.90493,39.9758,1033.61],[-120.90505,39.97578,1032.8],[-120.90521,39.97577,1031.3],[-120.9054,39.97579,1029.22],[-120.90578,39.97585,1027.55],[-120.90595,39.97588,1029.27],[-120.90605,39.9759,1030.45],[-120.90615,39.9759,1031.61],[-120.90622,39.97589,1032.34],[-120.90622,39.97589,1032.34],[-120.9064,39.97585,1033.89],[-120.90656,39.97579,1034.72],[-120.9068,39.97568,1034.5],[-120.90725,39.97548,1034.05],[-120.90758,39.97535,1034.96],[-120.9078,39.97526,1036.32],[-120.90798,39.9752,1038.34],[-120.90821,39.97512,1040.46],[-120.90843,39.97503,1041.23],[-120.90868,39.97491,1041.68],[-120.9089,39.97481,1040.5],[-120.90905,39.97475,1039.28],[-120.90923,39.97469,1038.04],[-120.91061,39.97425,1036.48],[-120.91078,39.97419,1036.43],[-120.9109,39.97413,1035.62],[-120.91101,39.97405,1035.9],[-120.91124,39.97388,1036.28],[-120.91147,39.97373,1036.41],[-120.91165,39.97362,1035.53],[-120.91185,39.97353,1035.3],[-120.91243,39.97326,1036.37],[-120.91259,39.97318,1036.14],[-120.91272,39.97313,1035.99],[-120.91289,39.97309,1035.77],[-120.91309,39.97307,1035.59],[-120.91429,39.97302,1035.25],[-120.91452,39.97301,1035.77],[-120.91473,39.97299,1036.13],[-120.91491,39.97296,1036.22],[-120.91509,39.9729,1036.45],[-120.91523,39.97284,1036.55],[-120.91538,39.97274,1036.66],[-120.9155,39.97266,1037.93],[-120.91561,39.97254,1038.48],[-120.91568,39.97243,1038.59],[-120.91572,39.97233,1038.94],[-120.91576,39.9722,1039.52],[-120.91577,39.97206,1039.04],[-120.91577,39.97191,1038.41],[-120.91576,39.97175,1037.73],[-120.91577,39.97164,1037.81],[-120.91582,39.97143,1038.71],[-120.91613,39.97021,1039.41],[-120.9162,39.9699,1039.92],[-120.91633,39.96933,1039.36],[-120.91636,39.96917,1038.86],[-120.91643,39.96891,1039.33],[-120.91649,39.96871,1040.11],[-120.91663,39.9683,1040.45],[-120.91668,39.96816,1040.09],[-120.91671,39.96809,1039.91],[-120.91695,39.96745,1040.07],[-120.91702,39.96726,1038.66],[-120.9171,39.96711,1037.97],[-120.9172,39.96694,1038.36],[-120.91737,39.96671,1036.7],[-120.91752,39.96652,1036.21],[-120.91764,39.96637,1035.24],[-120.91777,39.96626,1033.8],[-120.91793,39.96615,1034.01],[-120.91809,39.96604,1033.83],[-120.91824,39.96595,1033.02],[-120.91842,39.96588,1033.21],[-120.91866,39.9658,1033.78],[-120.91889,39.96574,1033.64],[-120.9191,39.9657,1033.4],[-120.91928,39.96568,1033.24],[-120.91945,39.96568,1033.41],[-120.9196,39.96569,1033.75],[-120.91976,39.96573,1034.32],[-120.91987,39.96578,1034.79],[-120.91995,39.96583,1035.21],[-120.92007,39.96593,1035.91],[-120.92018,39.96601,1036.04],[-120.92036,39.96612,1036.13],[-120.92055,39.96623,1036.24],[-120.92071,39.96634,1036.07],[-120.92088,39.96646,1035.87],[-120.92108,39.96662,1036.07],[-120.92125,39.96675,1036.11],[-120.92272,39.96778,1036.26],[-120.92286,39.96787,1036.29],[-120.92296,39.96793,1036.2],[-120.9232,39.96802,1036.17],[-120.92336,39.96809,1036.24],[-120.92353,39.96818,1036.21],[-120.92367,39.96825,1036.11],[-120.92382,39.96833,1036.14],[-120.92399,39.96841,1036.27],[-120.92419,39.96849,1036.34],[-120.92433,39.96853,1036.34],[-120.92446,39.96857,1036.41],[-120.92457,39.96858,1036.52],[-120.92472,39.96858,1036.55],[-120.92487,39.96857,1036.45],[-120.92503,39.96855,1036.52],[-120.92518,39.96851,1036.63],[-120.92533,39.96848,1036.77],[-120.92544,39.96844,1037.01],[-120.92579,39.9683,1036.68],[-120.9261,39.96817,1036.9],[-120.92622,39.96812,1036.82],[-120.9263,39.96807,1036.47],[-120.92638,39.968,1036.62],[-120.92643,39.96794,1037.13],[-120.92647,39.96788,1037.53],[-120.92649,39.9678,1037.68],[-120.9265,39.96773,1037.7],[-120.92652,39.9676,1037.68],[-120.92653,39.96753,1037.63],[-120.92655,39.96744,1037.5],[-120.92658,39.96735,1037.34],[-120.92663,39.96728,1037.25],[-120.92669,39.96721,1037.15],[-120.92676,39.96715,1037.67],[-120.9269,39.96704,1037.35],[-120.92705,39.96693,1036.54],[-120.92718,39.96686,1036.76],[-120.92731,39.96679,1036.33],[-120.92747,39.96673,1035.62],[-120.92761,39.96669,1035.65],[-120.92778,39.96665,1035.7],[-120.92802,39.9666,1035.68],[-120.92835,39.96654,1035.18],[-120.92875,39.96649,1034.69],[-120.92897,39.96646,1034.56],[-120.92918,39.96645,1034.6],[-120.9294,39.96645,1034.53],[-120.92956,39.96645,1034.5],[-120.92973,39.96648,1034.47],[-120.92985,39.9665,1034.46],[-120.92997,39.96655,1034.47],[-120.93008,39.9666,1034.48],[-120.93024,39.96671,1034.43],[-120.93037,39.9668,1034.42],[-120.93051,39.96692,1034.4],[-120.93063,39.96705,1034.59],[-120.93072,39.96716,1034.83],[-120.93082,39.96732,1035.15],[-120.93088,39.96746,1035.39],[-120.93093,39.96759,1035.61],[-120.93096,39.96773,1035.94],[-120.93099,39.96792,1036.43],[-120.93101,39.96808,1036.8],[-120.93102,39.96832,1037.15],[-120.93103,39.96898,1037.24],[-120.93105,39.96915,1037.2],[-120.93108,39.96937,1037.21],[-120.93112,39.96955,1037.31],[-120.93117,39.96969,1037.4],[-120.93126,39.96987,1037.49],[-120.93138,39.97011,1037.52],[-120.93147,39.9703,1037.57],[-120.93153,39.97048,1037.82],[-120.9316,39.97078,1038.57],[-120.93168,39.97109,1039.42],[-120.93175,39.97146,1040.79],[-120.93179,39.97171,1041.53],[-120.9318,39.97196,1042.22],[-120.93181,39.97225,1042.77],[-120.93181,39.97246,1043.1],[-120.9318,39.9726,1043.3],[-120.93177,39.97274,1043.59],[-120.93175,39.97298,1043.75],[-120.93175,39.97298,1043.75],[-120.93174,39.97311,1043.86],[-120.93175,39.97328,1043.9],[-120.93178,39.97346,1043.88],[-120.93182,39.97359,1043.89],[-120.93191,39.9737,1043.9],[-120.93205,39.9738,1043.83],[-120.93218,39.97385,1043.73],[-120.93232,39.97389,1043.48],[-120.93253,39.97391,1042.96],[-120.93278,39.97394,1042.19],[-120.93303,39.97399,1041.37],[-120.9333,39.97406,1040.27],[-120.93351,39.97416,1039.54],[-120.93372,39.97429,1038.9],[-120.93391,39.97442,1038.37],[-120.9341,39.97457,1038.3],[-120.93439,39.97484,1038.52],[-120.93461,39.97505,1038.62],[-120.93461,39.97505,1038.62],[-120.93468,39.97511,1038.6],[-120.9349,39.97534,1038.27],[-120.93508,39.97557,1038.68],[-120.93523,39.97576,1039.04],[-120.93548,39.97611,1041.07],[-120.93588,39.97598,1039.08],[-120.93603,39.97594,1038.73],[-120.93621,39.97589,1038.28],[-120.93638,39.97586,1038.14],[-120.93687,39.9758,1039.08]]}}
