{"type":"Feature","properties":{"name":"Jamison Creek Loop","sourceLabel":"Trailforks route plan 785988 — Jamison Creek Loop","sourceUrl":"https://www.trailforks.com/routeplan/view/785988/","gpxSha256":"75873e0ad7eb4d65cf47bf7f3c4110b4f3d25a881da7537ca46bb0e82112d150","importedAt":"2026-09-29T19:24:07.134101+00:00","elevationSource":"AWS Terrain Tiles (USGS 3DEP and SRTM), bilinear sampling at zoom 12; Trailforks GPX zero placeholders removed","sourceStats":{"distanceMiles":14.94,"pointCount":1542,"climbingFt":2897,"descendingFt":2898,"movingMinutes":180,"movingTimeEstimated":true}},"geometry":{"type":"LineString","coordinates":[[-120.70742,39.74231,1597.73],[-120.70742,39.74237,1597.57],[-120.70744,39.74237,1597.73],[-120.7074,39.74234,1597.47],[-120.70741,39.74239,1597.44],[-120.70737,39.74241,1597.11],[-120.70735,39.74237,1597],[-120.70732,39.74236,1596.76],[-120.70734,39.74238,1596.91],[-120.70729,39.74237,1596.61],[-120.70744,39.7422,1598.25],[-120.70746,39.7422,1598.49],[-120.70743,39.74221,1598.1],[-120.70742,39.74226,1597.86],[-120.70744,39.74235,1597.79],[-120.70747,39.74239,1597.9],[-120.70756,39.74233,1598.94],[-120.70751,39.74228,1598.72],[-120.70748,39.74215,1599.05],[-120.70749,39.74211,1599.54],[-120.70762,39.74184,1604.2],[-120.70763,39.74177,1605.03],[-120.70757,39.74131,1606.52],[-120.70771,39.74117,1608.49],[-120.70807,39.74098,1611.44],[-120.7083,39.74091,1612.46],[-120.70889,39.7408,1612.07],[-120.70895,39.74083,1612.31],[-120.70907,39.74083,1612.27],[-120.70935,39.7409,1614.15],[-120.70963,39.74087,1616.31],[-120.70999,39.74065,1613.19],[-120.71006,39.74065,1613.51],[-120.71031,39.74053,1613.5],[-120.7104,39.7405,1613.71],[-120.7106,39.74049,1615.33],[-120.7109,39.74042,1613.96],[-120.711,39.74044,1614.4],[-120.71123,39.74052,1618.01],[-120.71155,39.74049,1621.85],[-120.71192,39.74042,1631.33],[-120.71204,39.74035,1632.67],[-120.71215,39.7402,1630.04],[-120.71228,39.7401,1627.26],[-120.71234,39.7401,1627.53],[-120.71248,39.74012,1629.49],[-120.7126,39.74011,1631.36],[-120.7128,39.74001,1629.95],[-120.71285,39.74,1631.84],[-120.71303,39.7399,1633.67],[-120.71354,39.7397,1640.98],[-120.71382,39.73955,1639.72],[-120.71401,39.73949,1642.77],[-120.71439,39.73921,1637.89],[-120.71509,39.73895,1641.52],[-120.71525,39.73887,1639.97],[-120.71538,39.73885,1641.35],[-120.71554,39.73875,1636.27],[-120.71573,39.73866,1637.07],[-120.71596,39.73863,1641.67],[-120.7161,39.73857,1643.78],[-120.71636,39.73839,1646.98],[-120.71643,39.73837,1648.44],[-120.71646,39.73833,1648.36],[-120.71647,39.73827,1647.3],[-120.71646,39.73829,1647.53],[-120.71644,39.73829,1647.12],[-120.71645,39.7383,1647.52],[-120.71658,39.73832,1650.75],[-120.71678,39.73842,1656.49],[-120.71689,39.73846,1659.41],[-120.71704,39.73848,1660.95],[-120.71713,39.73852,1662.24],[-120.71718,39.73852,1662.38],[-120.71731,39.73856,1663.13],[-120.71742,39.73857,1662.82],[-120.71744,39.73858,1662.92],[-120.71749,39.73866,1664.24],[-120.71755,39.7387,1664.75],[-120.71758,39.73869,1664.42],[-120.71766,39.73873,1665.01],[-120.71776,39.73874,1665.1],[-120.7178,39.73872,1664.57],[-120.7179,39.73872,1664.4],[-120.71803,39.73868,1663.68],[-120.71814,39.7386,1661.99],[-120.71816,39.73861,1662.37],[-120.71827,39.73857,1661.72],[-120.71833,39.73858,1662.72],[-120.71838,39.73857,1663.18],[-120.71847,39.73854,1663.65],[-120.71856,39.73856,1665.58],[-120.71862,39.73855,1666.19],[-120.71878,39.73847,1665.18],[-120.71887,39.73836,1662.05],[-120.71898,39.73832,1661.56],[-120.71903,39.73832,1661.88],[-120.71932,39.73843,1666.17],[-120.71946,39.7384,1668.01],[-120.71957,39.73834,1669],[-120.71964,39.73821,1668.44],[-120.71977,39.73811,1668.54],[-120.72,39.73806,1671.52],[-120.72017,39.73797,1673],[-120.72028,39.73795,1674.84],[-120.72036,39.73792,1675.95],[-120.72042,39.73782,1675.51],[-120.72041,39.73773,1673.72],[-120.72044,39.73767,1673.44],[-120.72059,39.73759,1675.69],[-120.72068,39.73756,1677.14],[-120.72103,39.73739,1678.25],[-120.72122,39.73738,1679.51],[-120.7213,39.73739,1680.15],[-120.72141,39.73744,1681.41],[-120.72144,39.73742,1681.51],[-120.72165,39.73746,1683.97],[-120.72183,39.73747,1686.54],[-120.72201,39.73737,1688.24],[-120.72208,39.73735,1689.14],[-120.72213,39.7373,1689.53],[-120.72222,39.73723,1690.59],[-120.72238,39.7372,1693.28],[-120.7225,39.73722,1695.42],[-120.72263,39.73716,1697.69],[-120.72268,39.73715,1698.6],[-120.7229,39.73701,1702.34],[-120.72292,39.73684,1702.02],[-120.72289,39.73665,1700.72],[-120.72292,39.73659,1700.75],[-120.72304,39.73648,1701.92],[-120.72307,39.73641,1702.16],[-120.72306,39.73637,1701.87],[-120.72297,39.7363,1699.98],[-120.72295,39.73622,1699.17],[-120.72296,39.73612,1698.87],[-120.72309,39.73608,1701.78],[-120.72312,39.73604,1702.19],[-120.72318,39.73592,1702.83],[-120.72318,39.73584,1702.47],[-120.72313,39.73573,1700.46],[-120.72315,39.73558,1699.61],[-120.72318,39.73554,1699.91],[-120.72327,39.73548,1701.35],[-120.72332,39.7354,1701.6],[-120.7233,39.7353,1700.14],[-120.72325,39.7352,1698.91],[-120.72324,39.73514,1698.64],[-120.7233,39.73505,1699.5],[-120.72341,39.735,1701.23],[-120.72365,39.73492,1705.49],[-120.72403,39.73483,1708.95],[-120.72418,39.73487,1708.94],[-120.72434,39.73494,1707.69],[-120.72525,39.73515,1710.31],[-120.72558,39.7353,1710.41],[-120.7258,39.73547,1710.49],[-120.72639,39.73566,1710.95],[-120.72659,39.7357,1713.02],[-120.72677,39.73569,1714.79],[-120.72691,39.7357,1716.55],[-120.72706,39.73566,1718.39],[-120.72715,39.73561,1719.54],[-120.72719,39.73547,1719.56],[-120.72726,39.73536,1720.5],[-120.72727,39.7353,1720.44],[-120.72722,39.73514,1718.16],[-120.72723,39.73503,1717.76],[-120.72725,39.73499,1718.21],[-120.72722,39.73483,1716.97],[-120.72728,39.7347,1718.88],[-120.72729,39.73459,1719.48],[-120.72733,39.73447,1720.97],[-120.72739,39.73437,1722.87],[-120.72753,39.734,1725.79],[-120.72765,39.73391,1727.12],[-120.72783,39.73387,1729.57],[-120.72799,39.73381,1731.43],[-120.72805,39.73376,1731.73],[-120.72808,39.73367,1730.64],[-120.72811,39.73364,1730.5],[-120.72829,39.73355,1730.93],[-120.72847,39.73357,1732.78],[-120.72857,39.73355,1733.12],[-120.72865,39.73357,1734.02],[-120.7287,39.73355,1733.84],[-120.72892,39.73354,1734.75],[-120.72904,39.73356,1736.64],[-120.72917,39.73355,1738.12],[-120.72936,39.73357,1741.1],[-120.72957,39.73349,1742.47],[-120.72985,39.73356,1745.45],[-120.72993,39.73352,1744.88],[-120.73007,39.73341,1742.07],[-120.73024,39.73343,1742.14],[-120.73039,39.73348,1743.46],[-120.73064,39.73351,1744.93],[-120.73073,39.7335,1744.64],[-120.73088,39.73361,1747.11],[-120.73106,39.73363,1746.9],[-120.7312,39.73366,1746.61],[-120.73123,39.73369,1747.34],[-120.73139,39.73373,1747.27],[-120.73175,39.73387,1745.69],[-120.732,39.73389,1742.5],[-120.73205,39.73391,1742.65],[-120.73227,39.73395,1742.73],[-120.73242,39.73406,1746.43],[-120.73252,39.73416,1749.67],[-120.73259,39.73432,1754.23],[-120.73264,39.73438,1755.04],[-120.73265,39.7345,1757.55],[-120.73276,39.73469,1759.39],[-120.73285,39.73477,1759.66],[-120.733,39.73482,1759.11],[-120.7331,39.73488,1760.04],[-120.73333,39.73492,1760.48],[-120.73343,39.73492,1760.38],[-120.73353,39.73495,1761.2],[-120.73365,39.73497,1761.75],[-120.73379,39.73493,1761.47],[-120.7339,39.73488,1761.04],[-120.73411,39.73489,1761.73],[-120.73421,39.73495,1762.64],[-120.7343,39.73507,1765.51],[-120.73438,39.73514,1767.15],[-120.73456,39.73522,1767.79],[-120.73462,39.73524,1767.75],[-120.73472,39.73529,1768.28],[-120.73493,39.73528,1767.02],[-120.73503,39.73531,1767.66],[-120.73512,39.73531,1767.3],[-120.7352,39.73535,1767.56],[-120.7354,39.73552,1769.89],[-120.73549,39.73553,1769.2],[-120.73572,39.73561,1770.56],[-120.73598,39.73567,1777.57],[-120.7361,39.73562,1778.12],[-120.73611,39.73559,1776.93],[-120.73617,39.73556,1777.92],[-120.73621,39.73552,1778.8],[-120.73619,39.73549,1777.38],[-120.7362,39.7355,1777.98],[-120.7362,39.73542,1776.35],[-120.73617,39.73536,1774.13],[-120.73613,39.73522,1770.42],[-120.73617,39.73517,1770.4],[-120.73631,39.73512,1771.92],[-120.73656,39.73505,1773.11],[-120.73664,39.73507,1774.97],[-120.7368,39.73515,1780.56],[-120.73697,39.73518,1783.36],[-120.73703,39.73517,1783.45],[-120.73707,39.73515,1783.06],[-120.73719,39.73513,1783.51],[-120.73733,39.73508,1783.59],[-120.73741,39.73507,1784.25],[-120.73755,39.7351,1786.98],[-120.73764,39.73507,1788.06],[-120.73769,39.73499,1788.03],[-120.73772,39.73498,1788.59],[-120.73773,39.73486,1787.77],[-120.73771,39.73467,1786.41],[-120.73774,39.73453,1786.72],[-120.7377,39.73434,1786.68],[-120.73773,39.73423,1787.08],[-120.7378,39.73417,1786.96],[-120.73784,39.73409,1786.11],[-120.73787,39.73407,1786.1],[-120.73799,39.73397,1785.79],[-120.73809,39.73393,1785.81],[-120.73818,39.73377,1781.69],[-120.73834,39.73363,1782.47],[-120.73839,39.73353,1782.68],[-120.7385,39.73327,1781.54],[-120.73855,39.7332,1781.69],[-120.73868,39.73312,1782.44],[-120.73887,39.73289,1782.29],[-120.73893,39.73284,1784.3],[-120.73904,39.73277,1787.17],[-120.73912,39.73274,1788.62],[-120.73919,39.73267,1790.47],[-120.73925,39.73269,1790.67],[-120.73926,39.73266,1791.59],[-120.73934,39.73263,1793.59],[-120.73938,39.73265,1792.81],[-120.73938,39.73261,1794.68],[-120.73943,39.73254,1797.8],[-120.73945,39.73254,1797.74],[-120.73948,39.73248,1799.98],[-120.73951,39.73246,1800.47],[-120.73957,39.73256,1796.71],[-120.73967,39.73256,1798.7],[-120.74003,39.73279,1798.69],[-120.74022,39.73286,1799.08],[-120.74048,39.733,1799.25],[-120.74062,39.73305,1800.03],[-120.74074,39.73304,1800.89],[-120.74098,39.73311,1801.37],[-120.74119,39.73314,1801.35],[-120.74177,39.73325,1800],[-120.74212,39.73326,1800.04],[-120.74227,39.73329,1800.33],[-120.74237,39.73328,1800.4],[-120.74257,39.73344,1801.81],[-120.74262,39.73341,1801.69],[-120.74271,39.73342,1801.85],[-120.743,39.73351,1802.98],[-120.74318,39.73354,1803.9],[-120.74325,39.73353,1803.88],[-120.74354,39.73367,1806.41],[-120.7437,39.73372,1806.76],[-120.74379,39.73373,1807.23],[-120.74398,39.73377,1808.71],[-120.7442,39.73395,1812.69],[-120.7443,39.73401,1813.47],[-120.74445,39.73411,1814.59],[-120.74476,39.7342,1817.14],[-120.74487,39.7342,1818.81],[-120.74496,39.73417,1820.21],[-120.74505,39.73425,1821.31],[-120.74505,39.73422,1821.44],[-120.74502,39.73421,1821.04],[-120.74501,39.73418,1820.98],[-120.74502,39.73419,1821.1],[-120.74522,39.73407,1825.87],[-120.74519,39.73387,1825.68],[-120.74509,39.73365,1821.52],[-120.74506,39.73355,1818.65],[-120.74507,39.73346,1816.78],[-120.74523,39.73335,1817.65],[-120.74541,39.73329,1819],[-120.74559,39.73326,1819.82],[-120.74585,39.73334,1821.07],[-120.74587,39.73331,1821.35],[-120.74596,39.73339,1821.33],[-120.74638,39.73351,1823.65],[-120.74655,39.7336,1825.31],[-120.74673,39.73376,1827.63],[-120.7468,39.7339,1827.72],[-120.7469,39.73397,1828.44],[-120.74702,39.73401,1829.39],[-120.74708,39.73406,1829.52],[-120.74706,39.73409,1829.17],[-120.74712,39.73415,1829],[-120.74729,39.73427,1828.94],[-120.74756,39.73431,1829.62],[-120.74776,39.73431,1829.52],[-120.74807,39.73435,1830.77],[-120.74848,39.73445,1835.57],[-120.7486,39.73444,1835.49],[-120.74906,39.73449,1834.56],[-120.74914,39.73455,1834.83],[-120.74931,39.73462,1835.06],[-120.74936,39.73466,1835.42],[-120.74965,39.73477,1836.26],[-120.74987,39.73478,1836.11],[-120.75012,39.73484,1836.19],[-120.75055,39.73484,1834.58],[-120.75069,39.73486,1834.73],[-120.75083,39.73486,1834.6],[-120.75098,39.73482,1834.19],[-120.75107,39.73469,1832.69],[-120.75119,39.73465,1832.68],[-120.75125,39.7346,1832.27],[-120.7513,39.73454,1831.92],[-120.75127,39.73449,1831.04],[-120.75129,39.73441,1830.43],[-120.75137,39.73427,1829.71],[-120.75147,39.73424,1830.22],[-120.75152,39.7342,1830.09],[-120.75152,39.73412,1829],[-120.75157,39.73411,1829.21],[-120.75154,39.7341,1828.86],[-120.75157,39.73411,1829.21],[-120.75173,39.73409,1829.52],[-120.75178,39.73412,1830.17],[-120.75196,39.73419,1831.95],[-120.7523,39.73421,1832.34],[-120.75262,39.73433,1834.47],[-120.7526,39.73433,1834.48],[-120.75259,39.73432,1834.27],[-120.75261,39.73431,1834.03],[-120.75269,39.73431,1834.17],[-120.75281,39.73434,1835.05],[-120.75318,39.73439,1837.85],[-120.7532,39.73438,1837.83],[-120.75315,39.73432,1836.45],[-120.75323,39.73433,1837.25],[-120.75336,39.7343,1837.97],[-120.75343,39.73426,1838.13],[-120.75342,39.73425,1837.96],[-120.75343,39.73423,1838.22],[-120.75355,39.73423,1839.56],[-120.75358,39.7342,1840.16],[-120.75358,39.73416,1840.52],[-120.7536,39.73416,1840.76],[-120.75362,39.73418,1840.81],[-120.75358,39.73418,1840.34],[-120.75353,39.73415,1840],[-120.75357,39.73415,1840.49],[-120.75359,39.73423,1840.01],[-120.75358,39.73421,1840.07],[-120.75355,39.73427,1839.58],[-120.7535,39.73429,1839.33],[-120.75352,39.7343,1839.69],[-120.75352,39.73425,1839.06],[-120.75344,39.73437,1839.86],[-120.7534,39.73438,1839.59],[-120.75341,39.73444,1840.58],[-120.75336,39.73444,1840.07],[-120.75322,39.73437,1837.82],[-120.75318,39.73437,1837.52],[-120.75305,39.73441,1837.28],[-120.75277,39.73442,1836.66],[-120.75272,39.73444,1837.03],[-120.75261,39.73444,1836.94],[-120.75261,39.73446,1837.39],[-120.75259,39.73446,1837.4],[-120.75261,39.73442,1836.5],[-120.75266,39.73442,1836.54],[-120.75285,39.73454,1839.24],[-120.75297,39.73459,1840.4],[-120.75311,39.73457,1840.72],[-120.75321,39.73463,1842.54],[-120.75343,39.7347,1845.8],[-120.75357,39.7347,1847.29],[-120.75365,39.73467,1847.48],[-120.75373,39.73466,1848.95],[-120.75378,39.73462,1848.9],[-120.75393,39.73456,1849.77],[-120.75412,39.7345,1851.27],[-120.75424,39.73441,1851.5],[-120.75457,39.73437,1856.04],[-120.75468,39.73438,1858],[-120.75483,39.73437,1859.86],[-120.75505,39.73441,1863.42],[-120.75517,39.73446,1865.24],[-120.75523,39.73446,1865.73],[-120.75542,39.7345,1867.47],[-120.75568,39.73457,1870.21],[-120.75581,39.73457,1870.14],[-120.7559,39.73455,1869.56],[-120.756,39.73457,1870.02],[-120.75606,39.73456,1869.83],[-120.75641,39.73459,1870.69],[-120.75663,39.73465,1871.41],[-120.75691,39.73477,1872.44],[-120.75717,39.73479,1872.75],[-120.75735,39.73472,1873.5],[-120.75775,39.73448,1875.15],[-120.75793,39.73439,1875.29],[-120.75804,39.73431,1874.96],[-120.75811,39.73422,1874.29],[-120.75814,39.73416,1873.77],[-120.75818,39.73391,1872.13],[-120.75811,39.73359,1872.71],[-120.75806,39.7335,1873.42],[-120.75798,39.73327,1875.33],[-120.75788,39.73315,1876.76],[-120.75782,39.73303,1878.06],[-120.75782,39.73297,1878.52],[-120.75774,39.7327,1882.88],[-120.75774,39.73268,1883.14],[-120.7578,39.73267,1882.12],[-120.75782,39.73256,1882.92],[-120.7578,39.73251,1883.81],[-120.7578,39.73245,1884.44],[-120.75777,39.73236,1885.81],[-120.75778,39.73232,1885.84],[-120.75775,39.73221,1887.11],[-120.75777,39.73214,1887.14],[-120.7577,39.73203,1888.6],[-120.75772,39.73202,1888.24],[-120.75763,39.73187,1890.05],[-120.75756,39.73181,1891.25],[-120.75754,39.73174,1891.53],[-120.75743,39.73156,1893.18],[-120.75733,39.73146,1894.71],[-120.7573,39.7314,1895.1],[-120.75732,39.73138,1894.7],[-120.75727,39.73128,1895.32],[-120.75715,39.73112,1897.02],[-120.75701,39.73099,1899.11],[-120.75694,39.73088,1899.94],[-120.75688,39.73082,1900.75],[-120.75683,39.73072,1901.23],[-120.75683,39.73067,1901.04],[-120.75667,39.73053,1903.32],[-120.75666,39.7305,1903.4],[-120.7566,39.73046,1904.35],[-120.75657,39.73043,1904.78],[-120.75649,39.73039,1906.03],[-120.75644,39.73034,1906.67],[-120.75639,39.73032,1907.43],[-120.75633,39.73027,1908.12],[-120.75617,39.7302,1910.19],[-120.7561,39.73016,1910.98],[-120.75611,39.73015,1910.76],[-120.75608,39.73012,1911],[-120.75585,39.73,1913.16],[-120.75566,39.72995,1915.25],[-120.75552,39.72995,1917.34],[-120.75548,39.72994,1917.82],[-120.75542,39.72996,1918.94],[-120.75522,39.72998,1922.24],[-120.75512,39.72994,1923.34],[-120.75492,39.72992,1925.79],[-120.75478,39.72986,1926.86],[-120.75456,39.7297,1927.83],[-120.75442,39.72963,1928.58],[-120.75431,39.72954,1928.98],[-120.75408,39.72943,1930.08],[-120.75369,39.72917,1932.58],[-120.75332,39.72899,1936.08],[-120.75314,39.72885,1936.88],[-120.75298,39.72867,1937.19],[-120.75295,39.72858,1936.56],[-120.75296,39.72849,1935.38],[-120.75295,39.72843,1934.81],[-120.75286,39.7282,1933.19],[-120.75276,39.72811,1933.74],[-120.75269,39.72809,1934.65],[-120.75259,39.72802,1935.53],[-120.75253,39.728,1936.32],[-120.75241,39.72793,1937.49],[-120.75228,39.72791,1939.39],[-120.75225,39.72789,1939.74],[-120.75219,39.72787,1940.6],[-120.75204,39.72788,1943.33],[-120.75197,39.72791,1944.99],[-120.75189,39.72792,1946.6],[-120.75185,39.72796,1947.94],[-120.75183,39.72804,1949.49],[-120.75185,39.72809,1949.9],[-120.75188,39.72811,1949.7],[-120.7519,39.72815,1949.98],[-120.75191,39.7282,1950.52],[-120.7519,39.72823,1951.01],[-120.75193,39.72832,1951.56],[-120.75193,39.72847,1953.11],[-120.75178,39.72864,1956.27],[-120.75163,39.72871,1959],[-120.75156,39.7287,1960.02],[-120.75153,39.72868,1960.34],[-120.7515,39.72869,1960.88],[-120.75139,39.72866,1962.31],[-120.75118,39.72856,1964.36],[-120.75106,39.72852,1965.6],[-120.75096,39.7285,1966.75],[-120.75089,39.7285,1967.74],[-120.75076,39.72853,1970.07],[-120.7507,39.72852,1970.85],[-120.75057,39.72855,1973.13],[-120.75034,39.72867,1977.95],[-120.75018,39.72873,1980.76],[-120.75012,39.7288,1982],[-120.74985,39.72888,1986.41],[-120.74973,39.72889,1987.73],[-120.74963,39.72888,1988.74],[-120.74945,39.72892,1990.54],[-120.74936,39.72888,1991.02],[-120.74919,39.72886,1992.2],[-120.74909,39.72893,1993.06],[-120.74893,39.72891,1994.14],[-120.74891,39.72893,1994.29],[-120.74884,39.72892,1994.76],[-120.74875,39.72895,1995.31],[-120.74865,39.72893,1995.97],[-120.74852,39.72894,1996.74],[-120.74828,39.72901,1996.83],[-120.74799,39.72899,1998.78],[-120.74786,39.72903,1998.85],[-120.74775,39.72903,1999.97],[-120.74767,39.72904,2000.84],[-120.74763,39.72907,2001.04],[-120.74757,39.72907,2001.84],[-120.74743,39.72902,2004.1],[-120.74711,39.72883,2009.07],[-120.74701,39.72871,2010.3],[-120.74678,39.72828,2012.09],[-120.74667,39.72811,2013.03],[-120.74669,39.72806,2012.56],[-120.74655,39.72793,2013.8],[-120.74652,39.72786,2013.6],[-120.74646,39.72778,2013.53],[-120.74637,39.7277,2014.29],[-120.74632,39.72763,2014.53],[-120.74597,39.72723,2017.22],[-120.7457,39.72685,2020.69],[-120.74563,39.7268,2022.67],[-120.7456,39.72673,2022.86],[-120.74541,39.72659,2026.21],[-120.74526,39.72652,2027.85],[-120.74519,39.72651,2028.9],[-120.74516,39.72652,2029.56],[-120.74508,39.72651,2030.76],[-120.74502,39.72648,2031.31],[-120.74497,39.72644,2031.54],[-120.74486,39.72643,2033.31],[-120.7448,39.72639,2033.75],[-120.74465,39.72635,2035.51],[-120.74434,39.72615,2038.44],[-120.7443,39.72611,2038.79],[-120.7442,39.72595,2040.43],[-120.74419,39.72588,2040.8],[-120.7442,39.72574,2041.44],[-120.74427,39.72548,2042.5],[-120.74426,39.72536,2043.33],[-120.74427,39.72532,2043.43],[-120.74421,39.7252,2044.67],[-120.74385,39.72499,2049.76],[-120.7437,39.72487,2051.41],[-120.7434,39.72448,2053.04],[-120.74332,39.72441,2053.37],[-120.74331,39.72435,2053.57],[-120.74323,39.72422,2053.56],[-120.74317,39.72414,2053.58],[-120.74305,39.72406,2052.92],[-120.74296,39.72396,2052.33],[-120.74283,39.72388,2051.2],[-120.74276,39.72386,2050.4],[-120.74259,39.72385,2048.23],[-120.74253,39.72381,2047.55],[-120.74235,39.72382,2045.18],[-120.74243,39.72379,2046.29],[-120.74259,39.7238,2048.36],[-120.74266,39.72379,2049.3],[-120.74267,39.72378,2049.46],[-120.74246,39.72357,2047.42],[-120.7423,39.72338,2045.6],[-120.74221,39.72316,2044.48],[-120.74221,39.72295,2044.38],[-120.74232,39.72276,2046.2],[-120.74256,39.72248,2049.8],[-120.74265,39.72231,2051.21],[-120.74268,39.72223,2051.77],[-120.74269,39.72203,2051.88],[-120.74273,39.7217,2051.08],[-120.74277,39.72157,2050.52],[-120.74289,39.72135,2048.12],[-120.7431,39.72112,2044.86],[-120.74342,39.72067,2040.98],[-120.74357,39.72051,2041.37],[-120.74395,39.71984,2038.29],[-120.74411,39.71965,2037.18],[-120.74444,39.71941,2034.92],[-120.74461,39.71931,2033.78],[-120.74526,39.71908,2029.46],[-120.74541,39.71896,2029.64],[-120.74546,39.71888,2030.6],[-120.74547,39.71879,2030.75],[-120.74538,39.71838,2028.09],[-120.74537,39.71823,2026.69],[-120.74538,39.718,2024.85],[-120.74543,39.71768,2023.37],[-120.74542,39.71742,2021.63],[-120.74517,39.71678,2016.18],[-120.7449,39.71643,2009.37],[-120.74485,39.71634,2007.97],[-120.74478,39.71611,2007.32],[-120.74477,39.71577,2006.85],[-120.7448,39.71562,2004.82],[-120.74484,39.71545,2002.6],[-120.74499,39.71516,2000.18],[-120.7449,39.71524,1999.59],[-120.74478,39.71527,1998.54],[-120.74473,39.71527,1997.86],[-120.74432,39.71512,1997.04],[-120.74413,39.71507,1997.47],[-120.74406,39.71503,1998.48],[-120.74397,39.71502,1997.82],[-120.74385,39.71503,1995.9],[-120.74353,39.71508,1990.34],[-120.74342,39.71508,1989.02],[-120.74335,39.71511,1987.4],[-120.74326,39.71511,1987.23],[-120.74318,39.71513,1986.54],[-120.74308,39.71511,1986.87],[-120.74302,39.71512,1986.48],[-120.74295,39.7151,1986.68],[-120.74284,39.71509,1986.33],[-120.74268,39.71507,1985.92],[-120.74254,39.71503,1985.62],[-120.74236,39.71492,1987.16],[-120.74219,39.71487,1987.92],[-120.74215,39.71483,1989.16],[-120.74199,39.71478,1990.52],[-120.74196,39.71471,1993.09],[-120.74185,39.71464,1995.37],[-120.7417,39.71458,1997.01],[-120.74159,39.71457,1997.16],[-120.74148,39.71459,1996.61],[-120.74136,39.71463,1995.28],[-120.74126,39.71472,1992.15],[-120.74118,39.7147,1993.59],[-120.74113,39.71472,1993.25],[-120.74097,39.71468,1996.19],[-120.74068,39.71466,1998.3],[-120.74054,39.7146,2001.11],[-120.7404,39.71457,2002.28],[-120.74028,39.71449,2005.52],[-120.74023,39.71448,2005.7],[-120.7401,39.71436,2009.33],[-120.73988,39.71409,2014.94],[-120.73983,39.71404,2015.14],[-120.73978,39.71393,2016.77],[-120.73975,39.71375,2019.01],[-120.73971,39.71373,2018.57],[-120.73971,39.71369,2019.18],[-120.73966,39.71357,2019.52],[-120.73949,39.71333,2018.29],[-120.73937,39.71314,2017.27],[-120.73936,39.71307,2017.56],[-120.73933,39.713,2017.44],[-120.73933,39.71296,2017.72],[-120.7393,39.71291,2017.46],[-120.73928,39.71264,2019.6],[-120.73924,39.71251,2020.35],[-120.73927,39.71239,2021.89],[-120.73926,39.71234,2022.3],[-120.73927,39.71229,2022.82],[-120.73925,39.71223,2023.23],[-120.73925,39.71214,2024.05],[-120.73923,39.71206,2024.72],[-120.73925,39.71201,2025.22],[-120.73922,39.71193,2025.97],[-120.73918,39.71187,2026.89],[-120.73904,39.71172,2029.72],[-120.73903,39.71168,2030.19],[-120.73897,39.71163,2031.32],[-120.73894,39.71155,2032.41],[-120.73887,39.71146,2033.82],[-120.73886,39.71139,2034.36],[-120.73881,39.71131,2035.71],[-120.73883,39.71127,2035.5],[-120.73881,39.71122,2035.92],[-120.73881,39.71118,2035.94],[-120.73877,39.71108,2036.77],[-120.73878,39.71107,2036.59],[-120.7387,39.71099,2038.2],[-120.73865,39.711,2039.15],[-120.73861,39.71103,2039.88],[-120.73845,39.71106,2043.23],[-120.73828,39.71113,2047.06],[-120.73815,39.71133,2049.88],[-120.73802,39.71148,2052.09],[-120.73791,39.71156,2054.01],[-120.73783,39.71158,2055.58],[-120.73772,39.71168,2057.07],[-120.73751,39.71177,2060.58],[-120.73745,39.71181,2061.62],[-120.73732,39.71183,2064.44],[-120.73722,39.71188,2065.93],[-120.73716,39.71188,2067.34],[-120.73707,39.71195,2068.38],[-120.73689,39.712,2071.95],[-120.7365,39.71207,2079.34],[-120.73639,39.71207,2080.89],[-120.73621,39.71214,2081.87],[-120.73609,39.71216,2082.86],[-120.73596,39.71222,2082.94],[-120.73588,39.71219,2084.18],[-120.73583,39.71212,2085.87],[-120.73583,39.71203,2087.64],[-120.73588,39.71182,2091.72],[-120.73592,39.71179,2091.93],[-120.73597,39.71155,2095.97],[-120.73605,39.71138,2097.78],[-120.73603,39.7113,2099.55],[-120.73595,39.71128,2101.52],[-120.73581,39.71137,2102.29],[-120.73578,39.7114,2102.1],[-120.73567,39.71145,2102.64],[-120.73559,39.71144,2104.12],[-120.73552,39.71146,2104.7],[-120.73535,39.71142,2106.81],[-120.73528,39.71135,2108.5],[-120.73527,39.7113,2109.65],[-120.73528,39.71126,2110.45],[-120.73533,39.7112,2111.45],[-120.73537,39.71109,2113.22],[-120.73538,39.71102,2114.33],[-120.73537,39.71099,2114.64],[-120.73525,39.71086,2116.47],[-120.73513,39.71082,2117.67],[-120.73506,39.71075,2118.33],[-120.73497,39.7107,2118.18],[-120.73489,39.71062,2118.76],[-120.73488,39.71057,2119.62],[-120.73491,39.71043,2122.55],[-120.73488,39.71035,2123.61],[-120.73489,39.71028,2124.91],[-120.73484,39.71016,2126.73],[-120.73483,39.71006,2128.65],[-120.73484,39.71002,2129.49],[-120.73482,39.71,2129.81],[-120.73485,39.70993,2131.45],[-120.73492,39.70981,2134.59],[-120.73501,39.70973,2136.69],[-120.73521,39.70951,2142.09],[-120.73524,39.70951,2141.74],[-120.73527,39.70944,2143.42],[-120.73545,39.70931,2144.81],[-120.73553,39.70916,2146.96],[-120.73553,39.7091,2148.35],[-120.7355,39.70905,2150.2],[-120.73533,39.70896,2155.15],[-120.73514,39.70891,2159.24],[-120.73512,39.70889,2159.84],[-120.73507,39.7089,2159.94],[-120.73489,39.70883,2161.13],[-120.73486,39.7088,2161.6],[-120.73477,39.70863,2164.19],[-120.7346,39.70848,2165.1],[-120.73459,39.70846,2165.29],[-120.73454,39.70845,2165.44],[-120.73447,39.70839,2166.2],[-120.73445,39.70835,2166.45],[-120.73438,39.70831,2166.72],[-120.7342,39.70832,2167.19],[-120.73417,39.7083,2167.38],[-120.73413,39.70831,2167.44],[-120.73409,39.70834,2167.37],[-120.73393,39.70838,2167.73],[-120.73384,39.70842,2167.11],[-120.73375,39.70843,2167.15],[-120.73362,39.70839,2169.18],[-120.73343,39.70836,2171.3],[-120.7334,39.70837,2171.41],[-120.73329,39.70836,2172.58],[-120.73323,39.70837,2173.06],[-120.73308,39.70828,2175.03],[-120.73292,39.70828,2175.68],[-120.73285,39.70824,2175.93],[-120.7328,39.70824,2176.06],[-120.73272,39.70829,2176.36],[-120.73266,39.70837,2176.68],[-120.73255,39.70842,2175.81],[-120.73241,39.70843,2175.98],[-120.7321,39.70842,2178.31],[-120.73202,39.70845,2178.3],[-120.73199,39.70844,2178.78],[-120.7319,39.70848,2178.75],[-120.73183,39.70848,2179.36],[-120.7317,39.70851,2179.84],[-120.73157,39.70849,2180.99],[-120.73139,39.70857,2180.01],[-120.73121,39.70856,2181.1],[-120.73115,39.70855,2181.61],[-120.73109,39.70857,2181.46],[-120.73103,39.70864,2180.22],[-120.73088,39.7087,2179.42],[-120.73086,39.70865,2180.78],[-120.73087,39.70857,2182.54],[-120.73077,39.70849,2184.83],[-120.73075,39.70843,2186.28],[-120.73069,39.70839,2187.5],[-120.73069,39.70837,2187.8],[-120.73061,39.70828,2187.45],[-120.7307,39.70837,2187.75],[-120.73068,39.70839,2187.56],[-120.7307,39.70844,2186.32],[-120.73068,39.70854,2184.16],[-120.73043,39.70855,2183.95],[-120.73027,39.70858,2182.8],[-120.73021,39.70861,2181.54],[-120.73003,39.70852,2182.49],[-120.72994,39.70844,2183.65],[-120.72981,39.70827,2182.64],[-120.72944,39.70811,2176.6],[-120.72914,39.70802,2171.05],[-120.72882,39.70788,2168.05],[-120.72841,39.70774,2164.86],[-120.72802,39.70758,2164.45],[-120.72763,39.70737,2164.44],[-120.7275,39.70733,2164.64],[-120.7273,39.7073,2164.08],[-120.72691,39.70727,2163.8],[-120.72653,39.70721,2165.26],[-120.72632,39.70725,2166.07],[-120.72611,39.70733,2166.85],[-120.72581,39.7074,2166.45],[-120.7253,39.70743,2165.46],[-120.72522,39.70745,2165.33],[-120.72514,39.70748,2165.39],[-120.72492,39.7077,2164.51],[-120.72481,39.70776,2164.26],[-120.72444,39.70783,2166.36],[-120.72405,39.70794,2169.54],[-120.72374,39.70796,2173.31],[-120.72348,39.70795,2175.66],[-120.72327,39.708,2176.96],[-120.72309,39.70798,2178.98],[-120.72289,39.70808,2180.91],[-120.72268,39.70814,2183.16],[-120.72254,39.70813,2185.34],[-120.7225,39.70811,2186.43],[-120.72247,39.70806,2187.22],[-120.72243,39.70804,2187.95],[-120.72236,39.70805,2188.9],[-120.72216,39.70813,2190.47],[-120.72199,39.70813,2192.9],[-120.72186,39.70807,2196.29],[-120.72181,39.70801,2198.1],[-120.72154,39.70791,2204.81],[-120.7215,39.70787,2206.36],[-120.72142,39.70783,2208.12],[-120.72126,39.70784,2210.64],[-120.7212,39.70787,2211.02],[-120.72105,39.7079,2212.4],[-120.72103,39.70794,2211.86],[-120.72101,39.70792,2212.45],[-120.72102,39.70787,2213.34],[-120.72086,39.70814,2209.36],[-120.72063,39.70826,2208.02],[-120.72056,39.70832,2206.76],[-120.72055,39.7083,2207.51],[-120.72052,39.70833,2206.84],[-120.72051,39.70839,2204.99],[-120.72057,39.70852,2199.79],[-120.72047,39.70852,2200.96],[-120.7204,39.70855,2200.76],[-120.72032,39.70864,2198.19],[-120.72015,39.70877,2193.85],[-120.72012,39.70883,2192.26],[-120.72017,39.70891,2190.43],[-120.72015,39.70897,2189.39],[-120.71998,39.70924,2185.31],[-120.7198,39.70948,2181.11],[-120.71975,39.70958,2179.81],[-120.71975,39.70968,2178.66],[-120.71966,39.70969,2178.9],[-120.71958,39.70985,2176.8],[-120.71947,39.71002,2175.35],[-120.71951,39.71016,2175.12],[-120.71951,39.71031,2174.99],[-120.7194,39.71055,2174.53],[-120.71939,39.71062,2174.09],[-120.71934,39.71071,2173.36],[-120.7193,39.7109,2170.79],[-120.71924,39.71099,2168.56],[-120.71918,39.71117,2166.02],[-120.71918,39.71122,2165.66],[-120.71922,39.71146,2165.3],[-120.71917,39.71169,2163.89],[-120.71916,39.71195,2160.16],[-120.71914,39.712,2159.12],[-120.71906,39.71211,2157.18],[-120.71889,39.71225,2153.85],[-120.71881,39.71232,2152.05],[-120.71876,39.71256,2149.88],[-120.71868,39.71265,2149.85],[-120.71849,39.713,2146.38],[-120.71838,39.71333,2147.71],[-120.71825,39.71357,2149.64],[-120.71809,39.71383,2150.86],[-120.718,39.71393,2151.73],[-120.7177,39.71402,2150.29],[-120.71758,39.71409,2150.35],[-120.71745,39.71419,2148.52],[-120.71728,39.71433,2147.09],[-120.71711,39.7146,2145.98],[-120.7171,39.71474,2148.13],[-120.71713,39.71488,2151.83],[-120.71713,39.71499,2153.66],[-120.7171,39.71506,2153.88],[-120.71698,39.71514,2150.05],[-120.71694,39.71525,2150.98],[-120.71695,39.71536,2154.72],[-120.71689,39.71556,2156.35],[-120.71693,39.71572,2159.56],[-120.71692,39.71579,2159.21],[-120.71702,39.71605,2163.32],[-120.717,39.71614,2162.57],[-120.71698,39.7162,2161.71],[-120.71701,39.71624,2163.62],[-120.71705,39.71635,2167.21],[-120.71705,39.71638,2167.82],[-120.71696,39.71644,2164.76],[-120.71688,39.71661,2166.97],[-120.71683,39.71667,2167.94],[-120.71682,39.71672,2169.7],[-120.71684,39.7167,2169.43],[-120.71685,39.7167,2169.71],[-120.71695,39.71664,2170.37],[-120.71698,39.71664,2171.4],[-120.71713,39.71656,2174.64],[-120.71721,39.7166,2178.52],[-120.71724,39.7167,2181.21],[-120.7172,39.71676,2181.13],[-120.71716,39.71693,2183.48],[-120.71709,39.71705,2185.12],[-120.71707,39.71713,2186.45],[-120.71708,39.71745,2190.33],[-120.71695,39.71756,2193.2],[-120.71693,39.71762,2194.39],[-120.71687,39.71768,2195.7],[-120.71677,39.71776,2197.67],[-120.71662,39.71779,2199.47],[-120.71658,39.71781,2200.29],[-120.71642,39.71784,2200.92],[-120.7164,39.71786,2201.45],[-120.71633,39.71786,2201.39],[-120.7163,39.7179,2202.44],[-120.71597,39.71801,2202.65],[-120.71593,39.71806,2203.78],[-120.71592,39.71804,2203.07],[-120.71592,39.71803,2202.76],[-120.71593,39.71803,2202.86],[-120.7159,39.71802,2202.25],[-120.71593,39.71806,2203.78],[-120.71592,39.71808,2204.31],[-120.71586,39.71809,2203.76],[-120.71581,39.71818,2205.16],[-120.71582,39.7182,2205.8],[-120.71582,39.71825,2206.85],[-120.71585,39.71833,2209.12],[-120.71585,39.71839,2210.36],[-120.71568,39.71834,2205.99],[-120.71576,39.71836,2208],[-120.71577,39.71839,2208.84],[-120.71566,39.71973,2228.4],[-120.716,39.72014,2232.75],[-120.7168,39.72101,2226.6],[-120.71686,39.72187,2214.57],[-120.71678,39.72265,2204.52],[-120.71672,39.72274,2202.37],[-120.71657,39.7228,2201.4],[-120.71595,39.72291,2189.77],[-120.71561,39.72297,2188.49],[-120.71512,39.72327,2181.24],[-120.71503,39.72364,2174.87],[-120.71484,39.7241,2173.06],[-120.71482,39.72445,2172.44],[-120.71446,39.72536,2177.95],[-120.71432,39.7256,2182],[-120.71432,39.72583,2179.08],[-120.71421,39.72597,2182.9],[-120.71419,39.72616,2183.26],[-120.71403,39.72627,2186.29],[-120.71385,39.72625,2189.95],[-120.71375,39.72621,2192.99],[-120.71354,39.72604,2205.34],[-120.71355,39.7259,2211.86],[-120.71338,39.72554,2235.02],[-120.71344,39.72565,2227.89],[-120.71345,39.72574,2223.64],[-120.71354,39.72589,2212.78],[-120.71355,39.72605,2204.57],[-120.71376,39.7262,2193.2],[-120.71386,39.72625,2189.76],[-120.71404,39.72627,2186.12],[-120.71417,39.72616,2183.87],[-120.71421,39.72598,2182.86],[-120.71431,39.72585,2179.46],[-120.71432,39.7256,2182],[-120.71486,39.7244,2170.67],[-120.71483,39.72411,2173.38],[-120.71504,39.72357,2175.82],[-120.71512,39.72328,2180.9],[-120.71561,39.72297,2188.49],[-120.71644,39.72281,2199.62],[-120.71669,39.72274,2202.7],[-120.71676,39.72266,2204.52],[-120.71689,39.72154,2218.67],[-120.71665,39.72074,2230.01],[-120.71611,39.72028,2232.66],[-120.71572,39.71972,2228.49],[-120.71572,39.71831,2206.11],[-120.7157,39.71817,2202.57],[-120.71571,39.71812,2201.44],[-120.71579,39.71804,2200.68],[-120.71592,39.71796,2200.59],[-120.71631,39.71781,2199.92],[-120.71653,39.71775,2198.76],[-120.71679,39.71764,2195.36],[-120.71685,39.7176,2194.47],[-120.717,39.71741,2190.65],[-120.71703,39.71735,2189.72],[-120.71706,39.71715,2186.69],[-120.71733,39.71653,2181.09],[-120.71733,39.7165,2180.9],[-120.7173,39.71649,2180.18],[-120.71707,39.71658,2172.79],[-120.71667,39.71678,2168.24],[-120.71668,39.71671,2165.43],[-120.71686,39.71638,2159.29],[-120.71696,39.71602,2159.79],[-120.71694,39.71582,2160.09],[-120.71687,39.71558,2155.45],[-120.71689,39.71524,2148.47],[-120.71692,39.71519,2148.45],[-120.71706,39.71501,2150.69],[-120.7171,39.71491,2150.81],[-120.71708,39.71466,2145.7],[-120.71711,39.71452,2144.41],[-120.71724,39.71435,2146.2],[-120.7176,39.71407,2150.52],[-120.71776,39.71397,2150.13],[-120.71797,39.71391,2151.7],[-120.71827,39.71355,2149.56],[-120.71839,39.71329,2147.28],[-120.7185,39.71298,2146.5],[-120.71858,39.71284,2148.01],[-120.71881,39.71255,2149.79],[-120.71887,39.71227,2153.29],[-120.7189,39.71226,2153.77],[-120.71902,39.71213,2157.04],[-120.71916,39.71191,2161.04],[-120.71915,39.71188,2161.68],[-120.71918,39.7118,2163.45],[-120.71915,39.71165,2163.9],[-120.71918,39.71157,2164.55],[-120.71918,39.71144,2164.88],[-120.71921,39.71137,2165.4],[-120.71916,39.71128,2164.95],[-120.71915,39.71117,2165.56],[-120.71919,39.71111,2166.63],[-120.71919,39.71105,2167.09],[-120.7193,39.71091,2170.67],[-120.71933,39.71084,2171.96],[-120.71932,39.71079,2172.54],[-120.71934,39.71076,2172.99],[-120.71933,39.71073,2173.2],[-120.7194,39.71057,2174.41],[-120.71944,39.71035,2174.96],[-120.71949,39.71023,2174.97],[-120.71948,39.7101,2175.22],[-120.71947,39.71008,2175.24],[-120.71944,39.71008,2175.19],[-120.7194,39.71012,2175.07],[-120.71939,39.7102,2174.99],[-120.71932,39.71027,2174.94],[-120.71916,39.71039,2171.08],[-120.71906,39.7104,2168.67],[-120.71877,39.7106,2155.79],[-120.7187,39.71068,2152.29],[-120.7185,39.711,2144.32],[-120.71821,39.71138,2135.67],[-120.71818,39.7114,2134.83],[-120.71798,39.71143,2128.47],[-120.71787,39.71147,2125.95],[-120.71764,39.71158,2121.25],[-120.71744,39.71165,2116.88],[-120.71739,39.71169,2115.83],[-120.71733,39.71178,2114.63],[-120.71724,39.71205,2112.32],[-120.71723,39.71218,2111.53],[-120.71723,39.71235,2110.8],[-120.71721,39.71241,2110.51],[-120.71717,39.71246,2109.84],[-120.7168,39.71278,2106],[-120.71672,39.71283,2105.12],[-120.71663,39.71286,2103.73],[-120.71644,39.71286,2099.71],[-120.71635,39.71287,2097.93],[-120.71621,39.71294,2096.18],[-120.7161,39.71301,2095.25],[-120.71583,39.71327,2094.46],[-120.7156,39.71346,2092.25],[-120.71537,39.71376,2087.46],[-120.71524,39.71405,2082.03],[-120.71518,39.71412,2079.49],[-120.7151,39.71418,2076.15],[-120.71503,39.71426,2073.11],[-120.71497,39.71428,2070.9],[-120.71489,39.71426,2068.48],[-120.71476,39.71416,2065.6],[-120.71456,39.71406,2059.41],[-120.71449,39.71396,2057.06],[-120.71446,39.71395,2056.33],[-120.71416,39.71389,2048.53],[-120.71404,39.7139,2046.74],[-120.71393,39.71394,2045.29],[-120.71378,39.71394,2042.98],[-120.71371,39.71392,2042.2],[-120.71342,39.71379,2037.19],[-120.71327,39.71379,2035.39],[-120.71322,39.71382,2035.11],[-120.71319,39.71387,2035.26],[-120.71314,39.71392,2035.13],[-120.71304,39.71397,2033.11],[-120.7127,39.71409,2027.77],[-120.71253,39.71419,2026],[-120.71241,39.71428,2023.01],[-120.7123,39.71448,2018.01],[-120.71208,39.71462,2014.31],[-120.71184,39.7147,2013.02],[-120.71155,39.71487,2006.52],[-120.71121,39.71503,2000.37],[-120.71107,39.71513,1997.56],[-120.71095,39.7152,1995.45],[-120.71065,39.71551,1990.04],[-120.71047,39.71567,1987.39],[-120.7104,39.71571,1986.68],[-120.71006,39.71582,1982.36],[-120.70993,39.71594,1980.53],[-120.70979,39.71614,1978.27],[-120.7096,39.71624,1975.95],[-120.70941,39.71629,1974.31],[-120.70908,39.71653,1970.36],[-120.70895,39.71659,1968.88],[-120.70869,39.71658,1966.92],[-120.70853,39.71661,1965.12],[-120.70845,39.71668,1963.24],[-120.70831,39.71676,1960.5],[-120.70783,39.71692,1952.15],[-120.70781,39.71694,1951.34],[-120.70782,39.71697,1950.74],[-120.70794,39.71712,1948.31],[-120.70781,39.71725,1942.79],[-120.70765,39.71737,1937.74],[-120.70765,39.71745,1937.32],[-120.70768,39.71751,1937.41],[-120.70765,39.71758,1936.65],[-120.70769,39.71772,1938.25],[-120.70768,39.71776,1938.57],[-120.70725,39.71809,1933.71],[-120.70715,39.7182,1932.31],[-120.70705,39.71827,1930.58],[-120.70687,39.71829,1927.42],[-120.70683,39.71838,1926.67],[-120.70678,39.71843,1925.55],[-120.70666,39.7185,1922.6],[-120.70664,39.71856,1921.55],[-120.70662,39.71867,1919.93],[-120.70649,39.71869,1917.15],[-120.70646,39.71873,1915.49],[-120.7065,39.71887,1912.53],[-120.70649,39.71909,1905.58],[-120.70644,39.71911,1903.56],[-120.70637,39.71909,1902.34],[-120.70621,39.71902,1901.23],[-120.7061,39.71901,1899.85],[-120.70592,39.71905,1895.59],[-120.70586,39.71904,1894.73],[-120.70572,39.71907,1890.96],[-120.70567,39.71911,1888.71],[-120.70557,39.71915,1885.58],[-120.70551,39.71921,1882.76],[-120.70545,39.71931,1879.37],[-120.70546,39.71941,1877.15],[-120.70542,39.71951,1874.3],[-120.70525,39.71954,1871.43],[-120.70505,39.71972,1864.54],[-120.70503,39.71979,1862.68],[-120.70509,39.71992,1860.81],[-120.70506,39.71998,1858.99],[-120.7049,39.72001,1855.81],[-120.70468,39.7201,1853],[-120.70442,39.72013,1849.71],[-120.70432,39.72018,1848.08],[-120.70421,39.72029,1846.14],[-120.70373,39.72042,1839.76],[-120.70361,39.72048,1838.2],[-120.70359,39.72064,1837.92],[-120.70361,39.72093,1838.06],[-120.70355,39.72108,1837.57],[-120.7035,39.72115,1837.21],[-120.70339,39.72124,1835.86],[-120.70329,39.72129,1834.36],[-120.70306,39.72153,1830.23],[-120.70298,39.72157,1829.17],[-120.70281,39.7216,1827.38],[-120.70263,39.72161,1826.14],[-120.70227,39.72158,1823.21],[-120.70198,39.72162,1821.04],[-120.70187,39.72154,1819.97],[-120.70178,39.7214,1818.24],[-120.7017,39.72133,1817.22],[-120.70156,39.72126,1816.19],[-120.70155,39.72119,1816.01],[-120.70148,39.72116,1815.58],[-120.70147,39.72107,1815.39],[-120.70157,39.72098,1816.35],[-120.70157,39.72094,1816.62],[-120.70162,39.72086,1817.45],[-120.7016,39.7208,1817.75],[-120.70149,39.7208,1817.13],[-120.70145,39.72078,1816.95],[-120.70129,39.72076,1815.53],[-120.70125,39.72073,1815.19],[-120.70117,39.7207,1814.44],[-120.70102,39.72075,1813.07],[-120.70089,39.72063,1812.33],[-120.70079,39.72058,1811.88],[-120.7007,39.72058,1811.8],[-120.70056,39.7206,1811.58],[-120.70043,39.72059,1811.63],[-120.70036,39.72051,1812.56],[-120.70035,39.72037,1813.85],[-120.70033,39.72035,1813.98],[-120.70019,39.7203,1813.97],[-120.69999,39.72029,1813.65],[-120.69983,39.72031,1813.47],[-120.69967,39.72032,1813.48],[-120.69932,39.72047,1813.75],[-120.69923,39.72056,1813.71],[-120.69914,39.72057,1814.04],[-120.6989,39.72066,1814.55],[-120.6988,39.72077,1814.07],[-120.69882,39.72086,1813.02],[-120.69871,39.72115,1811.92],[-120.69871,39.72125,1811.48],[-120.69893,39.72185,1805.29],[-120.69895,39.72195,1804.72],[-120.69888,39.72212,1803.86],[-120.69885,39.72214,1803.77],[-120.69878,39.72226,1803.35],[-120.69866,39.72237,1803.18],[-120.69861,39.72252,1802.37],[-120.69861,39.72257,1802.06],[-120.69865,39.7227,1800.51],[-120.69865,39.7229,1797.51],[-120.69867,39.72294,1797],[-120.69867,39.72311,1795.16],[-120.69864,39.72319,1794.34],[-120.69854,39.72329,1793.31],[-120.69849,39.72331,1793.01],[-120.69832,39.72331,1793.07],[-120.69831,39.72332,1793.01],[-120.69828,39.72346,1791.56],[-120.6981,39.72369,1790.41],[-120.698,39.72379,1790.34],[-120.69795,39.72398,1789.44],[-120.69781,39.72412,1789.62],[-120.69777,39.72421,1789.09],[-120.69755,39.7244,1790.69],[-120.6975,39.72452,1790.56],[-120.69742,39.72463,1790.76],[-120.69745,39.72476,1789.32],[-120.69735,39.72488,1789.34],[-120.69735,39.72496,1788.71],[-120.6973,39.725,1789.62],[-120.69717,39.72513,1791.75],[-120.69714,39.7253,1790.82],[-120.69711,39.72535,1791.16],[-120.69706,39.72551,1791.27],[-120.69699,39.7256,1791.92],[-120.69701,39.72565,1790.99],[-120.69701,39.72567,1790.83],[-120.69698,39.72566,1791.75],[-120.69699,39.72567,1791.33],[-120.69697,39.72572,1791.56],[-120.69697,39.72578,1791.02],[-120.69694,39.72583,1791.52],[-120.69676,39.72597,1795.37],[-120.69677,39.72609,1793.84],[-120.69672,39.72624,1793.52],[-120.69657,39.72634,1796.23],[-120.69645,39.72645,1797.2],[-120.69638,39.72647,1798.56],[-120.69623,39.72664,1798.12],[-120.69616,39.7267,1798.69],[-120.69618,39.72682,1795.45],[-120.69616,39.72689,1794.61],[-120.69613,39.72695,1794.44],[-120.69601,39.72711,1794.14],[-120.69588,39.72743,1791.07],[-120.69585,39.72759,1789.96],[-120.69585,39.72774,1789.16],[-120.69584,39.7278,1789.04],[-120.69579,39.72785,1789.12],[-120.69571,39.72787,1789.41],[-120.69553,39.72806,1789.2],[-120.69547,39.72806,1789.59],[-120.69542,39.7281,1789.62],[-120.69531,39.72814,1790.02],[-120.69518,39.72824,1789.87],[-120.69499,39.72828,1790.63],[-120.69489,39.72844,1788.85],[-120.69474,39.72861,1786.72],[-120.69448,39.72867,1786.08],[-120.69434,39.72879,1784.32],[-120.69431,39.72892,1782.68],[-120.69422,39.72902,1781.73],[-120.69416,39.7292,1779.76],[-120.69407,39.72935,1778.4],[-120.694,39.7295,1777.53],[-120.69399,39.72962,1777.33],[-120.6939,39.7297,1777.53],[-120.69387,39.72978,1777.62],[-120.69391,39.72986,1777.17],[-120.69389,39.73003,1776.73],[-120.69378,39.73024,1776.75],[-120.69375,39.73048,1776.63],[-120.69378,39.73058,1776.29],[-120.69385,39.73076,1775.5],[-120.69385,39.73085,1775.35],[-120.69392,39.73101,1774.23],[-120.694,39.73128,1770.11],[-120.69401,39.73143,1767.33],[-120.69395,39.73159,1766.33],[-120.69385,39.73163,1767.44],[-120.69377,39.73172,1766.04],[-120.69374,39.73186,1762.85],[-120.69367,39.73202,1758.97],[-120.69351,39.73214,1756.39],[-120.6935,39.7322,1755.35],[-120.69348,39.73242,1751.68],[-120.69336,39.73265,1751.95],[-120.69331,39.7327,1752.86],[-120.69319,39.73302,1755.89],[-120.6932,39.73334,1754.73],[-120.69325,39.73352,1751.52],[-120.69321,39.73365,1750.33],[-120.69319,39.73381,1749.51],[-120.69319,39.73403,1749.99],[-120.69325,39.73415,1751],[-120.69332,39.73421,1751.14],[-120.69358,39.73428,1749.27],[-120.69386,39.73439,1748.05],[-120.6943,39.73452,1745.93],[-120.69447,39.73467,1744.64],[-120.6948,39.73487,1741.06],[-120.69491,39.73497,1739.61],[-120.69503,39.73539,1738.4],[-120.69512,39.73547,1737.14],[-120.69527,39.73567,1735.58],[-120.69539,39.73578,1734.73],[-120.6956,39.73603,1732.32],[-120.69565,39.73613,1731.5],[-120.69574,39.73623,1729.62],[-120.69578,39.73634,1729.2],[-120.69579,39.73643,1729.33],[-120.69581,39.73647,1729.06],[-120.69605,39.73667,1724.57],[-120.69624,39.7369,1719.88],[-120.69631,39.73701,1717.33],[-120.69655,39.73726,1709.29],[-120.6966,39.73737,1707.47],[-120.69664,39.73738,1706.27],[-120.69667,39.73732,1705.67],[-120.69671,39.73733,1704.45],[-120.69689,39.73749,1698.76],[-120.69711,39.73776,1693.26],[-120.69727,39.73788,1689.72],[-120.69736,39.73799,1687.8],[-120.69742,39.73805,1686.65],[-120.69743,39.73811,1686.64],[-120.69742,39.73821,1687.21],[-120.69752,39.73845,1688.81],[-120.69772,39.73856,1684.52],[-120.69781,39.73865,1681.69],[-120.69795,39.73885,1677.75],[-120.69797,39.73897,1676.88],[-120.69807,39.73905,1673.76],[-120.69817,39.73917,1670.48],[-120.69826,39.73922,1667.66],[-120.69829,39.7393,1666.22],[-120.69841,39.73942,1661.97],[-120.69852,39.73948,1657.42],[-120.69856,39.73954,1655.46],[-120.69865,39.73959,1652.14],[-120.69877,39.73978,1648.11],[-120.69884,39.73983,1646.02],[-120.6989,39.73991,1645.02],[-120.69901,39.73998,1641.87],[-120.69915,39.74011,1639.74],[-120.69922,39.74013,1638.11],[-120.69939,39.74028,1635.81],[-120.69953,39.74042,1634.92],[-120.69958,39.74049,1635.34],[-120.69966,39.74048,1633.11],[-120.69974,39.74052,1632.22],[-120.70021,39.74085,1630.02],[-120.70025,39.74089,1629.59],[-120.70025,39.74094,1630.39],[-120.70024,39.74116,1633.08],[-120.70027,39.74123,1631.95],[-120.70035,39.74121,1630.78],[-120.70042,39.74127,1629.36],[-120.70052,39.74127,1627.17],[-120.70061,39.74125,1624.99],[-120.70066,39.74119,1623.37],[-120.70067,39.74119,1623.1],[-120.70075,39.74135,1622.71],[-120.70083,39.74143,1621.11],[-120.70087,39.74151,1619.86],[-120.70082,39.7418,1618.52],[-120.70086,39.74188,1616.81],[-120.70091,39.74194,1615.53],[-120.70104,39.74202,1613.2],[-120.70112,39.74202,1612.02],[-120.70131,39.74211,1610.15],[-120.70135,39.74215,1609.65],[-120.70135,39.7422,1609.47],[-120.70141,39.74225,1608.85],[-120.70155,39.74231,1607.88],[-120.70152,39.74237,1607.79],[-120.70139,39.74247,1608.34],[-120.70136,39.7425,1608.47],[-120.70138,39.74253,1608.17],[-120.70142,39.7425,1607.95],[-120.70151,39.74236,1607.87],[-120.70156,39.74235,1607.69],[-120.70184,39.74213,1607.99],[-120.70198,39.74205,1608.52],[-120.70199,39.74199,1609.02],[-120.70204,39.74187,1609.89],[-120.70215,39.7417,1610.8],[-120.7022,39.74168,1610.81],[-120.7023,39.74161,1611.01],[-120.70255,39.7416,1610.32],[-120.70284,39.74153,1609.44],[-120.70291,39.74153,1609.2],[-120.70297,39.74146,1609.08],[-120.70303,39.74144,1608.9],[-120.70337,39.7416,1607.56],[-120.70357,39.74163,1606.83],[-120.70365,39.74166,1606.42],[-120.70392,39.74171,1605.1],[-120.70405,39.74176,1604.2],[-120.70408,39.7418,1603.89],[-120.70419,39.74206,1602.6],[-120.70451,39.74228,1601.31],[-120.70465,39.74232,1600.91],[-120.70507,39.74237,1599.82],[-120.70512,39.74237,1599.69],[-120.70525,39.74218,1598.75],[-120.70553,39.74191,1595.34],[-120.70587,39.74169,1594.94],[-120.70597,39.74164,1595.15],[-120.70614,39.74165,1595.5],[-120.70644,39.74154,1596.53],[-120.70658,39.74154,1596.97],[-120.70679,39.74147,1597.89],[-120.70691,39.74145,1598.41],[-120.70698,39.74147,1598.76],[-120.70716,39.74158,1599.95],[-120.70723,39.74164,1600.17],[-120.70728,39.74172,1599.83],[-120.70728,39.7418,1599.11],[-120.70721,39.74198,1597.62],[-120.70721,39.74206,1597.22],[-120.70723,39.74214,1596.81],[-120.70735,39.74227,1597.1],[-120.70746,39.74231,1598.11],[-120.70752,39.7423,1598.73],[-120.70755,39.74227,1599.19],[-120.70754,39.74229,1598.97]]}}
