{"type":"Feature","properties":{"name":"Jamison Creek Big Way","sourceLabel":"Trailforks route plan 785635 — Jamison Creek Big Way","sourceUrl":"https://www.trailforks.com/routeplan/view/785635/","gpxSha256":"0f987ff3feec7e02d96c67245473ab3245efc5b3be4e9c09f3cd4deb74f98157","importedAt":"2026-09-29T06:36:10.229390+00:00","elevationSource":"AWS Terrain Tiles; zero export elevations replaced with terrain samples","sourceStats":{"distanceMiles":24.28,"climbingFt":3986,"descendingFt":3977,"movingMinutes":270,"movingTimeEstimated":true}},"geometry":{"type":"LineString","coordinates":[[-120.61954,39.76818,1330.26],[-120.62005,39.77136,1327.19],[-120.62552,39.77355,1326.38],[-120.62789,39.77516,1329.27],[-120.62992,39.77643,1328.75],[-120.63181,39.77708,1326.65],[-120.63279,39.77725,1325.32],[-120.63392,39.77771,1326.36],[-120.63463,39.77864,1327.15],[-120.63717,39.77952,1331.52],[-120.63729,39.7796,1331.64],[-120.63771,39.77979,1332.12],[-120.63814,39.77989,1333.92],[-120.6404,39.78016,1355.1],[-120.64222,39.78036,1357.33],[-120.64306,39.78042,1352.74],[-120.64356,39.78049,1348.87],[-120.64415,39.7806,1344.61],[-120.64594,39.78109,1340.45],[-120.64725,39.7814,1334.9],[-120.64747,39.78143,1335.51],[-120.6479,39.78146,1339.53],[-120.64847,39.78146,1343.96],[-120.6489,39.78142,1349.02],[-120.64953,39.78125,1356.1],[-120.64971,39.78117,1356.52],[-120.65022,39.78101,1360.41],[-120.65153,39.78066,1370.75],[-120.65201,39.78049,1373.28],[-120.65212,39.78047,1374.31],[-120.65243,39.78036,1377.6],[-120.65252,39.78034,1378.59],[-120.6531,39.78017,1387.16],[-120.65334,39.78012,1389.58],[-120.65352,39.78005,1390.09],[-120.65382,39.77998,1392.03],[-120.65424,39.77986,1397.17],[-120.65465,39.77969,1403.04],[-120.65545,39.77928,1414.69],[-120.65576,39.77917,1418.42],[-120.65625,39.77903,1421.83],[-120.65647,39.77894,1424.27],[-120.65665,39.77891,1426.44],[-120.65689,39.77884,1429.32],[-120.65719,39.77879,1431.42],[-120.65741,39.77873,1432.98],[-120.65835,39.77841,1441.99],[-120.6588,39.77822,1445.15],[-120.65915,39.778,1449.82],[-120.65947,39.77785,1453.86],[-120.65984,39.77762,1457.17],[-120.66004,39.77755,1459.4],[-120.66026,39.77751,1460.78],[-120.66047,39.77751,1461.15],[-120.66063,39.77754,1462.05],[-120.66098,39.77765,1463.06],[-120.66157,39.77794,1469.26],[-120.66206,39.77807,1471.22],[-120.6624,39.7781,1472.18],[-120.66273,39.77807,1474.76],[-120.66386,39.77782,1485.7],[-120.66439,39.77773,1489.14],[-120.66471,39.77772,1490.91],[-120.66486,39.7777,1491.62],[-120.66486,39.77773,1491.68],[-120.66505,39.77769,1492.54],[-120.66526,39.77769,1493.55],[-120.66607,39.77753,1496.73],[-120.66635,39.77752,1497.83],[-120.66705,39.77743,1501.5],[-120.66765,39.77732,1507.97],[-120.66793,39.7773,1510.25],[-120.66884,39.77715,1520.49],[-120.66931,39.77709,1523.55],[-120.66986,39.777,1528.54],[-120.6702,39.77691,1533.22],[-120.67046,39.77687,1534.14],[-120.67062,39.77683,1534.51],[-120.67091,39.7767,1535.34],[-120.67129,39.77659,1535.75],[-120.67195,39.77634,1535.85],[-120.67258,39.77599,1536.14],[-120.67277,39.77586,1536.72],[-120.67307,39.77561,1538.59],[-120.67317,39.77549,1539.8],[-120.67327,39.77536,1540.98],[-120.67346,39.77507,1543.06],[-120.67359,39.77482,1544.78],[-120.67379,39.77454,1546.6],[-120.67392,39.77431,1548.64],[-120.67421,39.77389,1551.47],[-120.67443,39.77368,1551.77],[-120.67482,39.77334,1551.96],[-120.67487,39.77331,1551.83],[-120.67555,39.77276,1553.28],[-120.6762,39.77219,1553.81],[-120.67628,39.77208,1554.86],[-120.67663,39.77175,1560.13],[-120.67684,39.77149,1562.64],[-120.67693,39.77141,1562.89],[-120.67728,39.77093,1568.91],[-120.67753,39.77071,1571.49],[-120.6776,39.77067,1571.53],[-120.67765,39.77062,1571.76],[-120.67776,39.77057,1571.73],[-120.67784,39.77049,1572.42],[-120.67771,39.77054,1572.39],[-120.67821,39.77022,1576.1],[-120.67828,39.77016,1576.32],[-120.6788,39.76968,1577.57],[-120.67894,39.76954,1578.85],[-120.67907,39.76944,1578.79],[-120.67917,39.76932,1579.42],[-120.6796,39.76891,1581.89],[-120.6802,39.76826,1581.79],[-120.68058,39.7677,1581.84],[-120.6808,39.76742,1582.22],[-120.6811,39.76715,1581.66],[-120.68124,39.76707,1580.94],[-120.68175,39.76666,1581.33],[-120.68201,39.76639,1580.81],[-120.68225,39.76605,1580.32],[-120.68231,39.76593,1580.53],[-120.68258,39.7655,1580.93],[-120.68297,39.765,1580.73],[-120.68351,39.76445,1580.08],[-120.68357,39.76441,1579.68],[-120.68367,39.76429,1579.79],[-120.68403,39.76395,1579.43],[-120.68461,39.76328,1579.53],[-120.68535,39.76262,1578.21],[-120.6861,39.76205,1577.75],[-120.68701,39.76153,1574.25],[-120.68767,39.76109,1570.27],[-120.6887,39.76035,1568.88],[-120.68928,39.75997,1568.88],[-120.68956,39.75981,1568.76],[-120.69001,39.75958,1568.11],[-120.69042,39.75935,1566.96],[-120.69114,39.75906,1565.1],[-120.69124,39.75903,1564.07],[-120.69125,39.75904,1563.75],[-120.69126,39.75902,1563.91],[-120.69124,39.75896,1565.12],[-120.69108,39.75883,1567.76],[-120.69106,39.75878,1568.42],[-120.69111,39.7587,1569.32],[-120.69124,39.75859,1570.49],[-120.69235,39.75797,1573.34],[-120.69247,39.75786,1573.84],[-120.69265,39.75759,1575.1],[-120.69305,39.75726,1575.32],[-120.69312,39.75717,1575.55],[-120.69336,39.75671,1576.57],[-120.69351,39.75634,1577.33],[-120.69356,39.75602,1577.85],[-120.69356,39.75539,1580],[-120.69362,39.75519,1580.17],[-120.69413,39.7547,1577.76],[-120.69426,39.75439,1577.47],[-120.69429,39.7543,1577.47],[-120.6943,39.75418,1577.93],[-120.69434,39.7537,1580.43],[-120.69434,39.75343,1581.82],[-120.69444,39.75317,1582.44],[-120.69449,39.75307,1582.58],[-120.69456,39.75298,1582.6],[-120.69468,39.75284,1582.5],[-120.6948,39.75276,1582.21],[-120.69526,39.75258,1580.87],[-120.69537,39.75252,1580.59],[-120.69574,39.75223,1579.75],[-120.69632,39.75143,1578.66],[-120.69635,39.75127,1578.97],[-120.6967,39.75099,1578.35],[-120.6968,39.75085,1578.82],[-120.69688,39.75064,1579.02],[-120.69702,39.75045,1578.27],[-120.69716,39.75031,1578.04],[-120.69734,39.75018,1578.11],[-120.69747,39.7501,1578.04],[-120.69769,39.75001,1577.85],[-120.69788,39.74984,1577.74],[-120.69799,39.7497,1578.55],[-120.69825,39.74936,1580.03],[-120.69831,39.74924,1580.34],[-120.69837,39.74915,1580.27],[-120.69842,39.74911,1579.89],[-120.69848,39.74908,1579.29],[-120.69869,39.74902,1576.85],[-120.69877,39.74891,1576.63],[-120.69886,39.74859,1578.18],[-120.69887,39.74845,1579.15],[-120.6989,39.74835,1579.54],[-120.69917,39.74793,1580.38],[-120.69925,39.74775,1580.91],[-120.69943,39.74741,1581.65],[-120.69949,39.74721,1583.28],[-120.69987,39.74656,1590.52],[-120.69993,39.74639,1591.97],[-120.69999,39.74628,1592.53],[-120.70008,39.74606,1593.43],[-120.70017,39.74586,1594.08],[-120.7003,39.7457,1594.26],[-120.70038,39.74544,1595.24],[-120.70048,39.74522,1595.83],[-120.70057,39.74508,1596.1],[-120.7007,39.74468,1597.96],[-120.70073,39.7445,1598.95],[-120.70074,39.74428,1600.16],[-120.70079,39.74408,1601.03],[-120.70082,39.74384,1602.67],[-120.70083,39.74362,1604.2],[-120.70085,39.74356,1604.47],[-120.70083,39.74349,1605.06],[-120.70086,39.74304,1608.14],[-120.70092,39.74293,1608.84],[-120.7011,39.74279,1609.05],[-120.70115,39.74273,1609.18],[-120.70128,39.74255,1608.94],[-120.70152,39.7424,1607.69],[-120.70161,39.74228,1607.77],[-120.70178,39.7422,1607.57],[-120.702,39.74199,1609.01],[-120.70208,39.74189,1609.69],[-120.7021,39.74182,1610.11],[-120.70218,39.74179,1610.16],[-120.70219,39.74177,1610.27],[-120.70249,39.74165,1610.27],[-120.7027,39.74151,1610.07],[-120.70292,39.74142,1609.3],[-120.70302,39.74136,1609.13],[-120.70306,39.74136,1608.99],[-120.70322,39.74147,1608.24],[-120.70334,39.74152,1607.85],[-120.70364,39.74159,1606.72],[-120.70392,39.7417,1605.15],[-120.70403,39.74179,1604.19],[-120.70409,39.74201,1603.15],[-120.70414,39.74209,1602.73],[-120.70433,39.74222,1601.88],[-120.70456,39.74231,1601.14],[-120.70462,39.74235,1600.93],[-120.70484,39.74238,1600.4],[-120.70506,39.74236,1599.84],[-120.7052,39.74232,1599.36],[-120.7053,39.74225,1598.51],[-120.70543,39.7421,1596.82],[-120.70555,39.74203,1595.45],[-120.70581,39.74176,1594.8],[-120.70598,39.74167,1595.1],[-120.70617,39.74165,1595.57],[-120.70669,39.74154,1597.36],[-120.70682,39.74153,1597.88],[-120.70711,39.74154,1599.71],[-120.70721,39.74161,1600.19],[-120.70724,39.74169,1599.85],[-120.70725,39.74179,1599.07],[-120.70722,39.74193,1597.89],[-120.70715,39.74208,1597.1],[-120.70718,39.74219,1596.66],[-120.70725,39.74226,1596.61],[-120.70732,39.74229,1596.78],[-120.7074,39.74235,1597.45],[-120.70743,39.74235,1597.71],[-120.70755,39.74205,1600.96],[-120.70757,39.74192,1602.59],[-120.70761,39.74186,1603.84],[-120.70764,39.74175,1605.39],[-120.70762,39.74171,1605.43],[-120.70762,39.74165,1606],[-120.70774,39.74151,1608.89],[-120.70792,39.74112,1610.98],[-120.7081,39.74104,1612.2],[-120.7083,39.74098,1613.25],[-120.7088,39.7409,1613.64],[-120.70921,39.74099,1615.65],[-120.70946,39.74096,1616.83],[-120.70956,39.7409,1616.42],[-120.70968,39.74086,1616.52],[-120.70977,39.74084,1616.6],[-120.70999,39.74074,1615.32],[-120.71019,39.74062,1614.04],[-120.71029,39.74059,1614.26],[-120.71042,39.7406,1615.86],[-120.71055,39.74058,1617.07],[-120.7107,39.74053,1617.45],[-120.71104,39.74058,1618.81],[-120.71142,39.74052,1619.53],[-120.71181,39.74049,1629.19],[-120.71195,39.74046,1634.3],[-120.71206,39.7404,1635.98],[-120.71214,39.74026,1631.96],[-120.71223,39.7402,1630.69],[-120.71259,39.74014,1632.74],[-120.71305,39.73992,1635.77],[-120.71362,39.73973,1646.72],[-120.71396,39.73957,1646.61],[-120.71413,39.73945,1644.48],[-120.71435,39.73933,1644.07],[-120.71494,39.73907,1645.57],[-120.71531,39.73892,1644.65],[-120.71549,39.73882,1641.19],[-120.7159,39.73873,1643.83],[-120.71634,39.73845,1647.29],[-120.71642,39.73843,1649.3],[-120.71663,39.73845,1655.08],[-120.71692,39.73852,1661.63],[-120.71704,39.73853,1662.23],[-120.7174,39.7387,1665.41],[-120.71758,39.73873,1665.19],[-120.71764,39.73872,1664.84],[-120.71773,39.73874,1665.13],[-120.71787,39.73873,1664.71],[-120.71793,39.7387,1663.81],[-120.71817,39.7387,1665],[-120.71826,39.73868,1664.9],[-120.71829,39.73869,1665.36],[-120.71855,39.73864,1667.77],[-120.7187,39.7386,1668.46],[-120.71892,39.73844,1665.27],[-120.71899,39.73843,1665.41],[-120.71923,39.73847,1666.96],[-120.7194,39.73845,1667.94],[-120.71966,39.73826,1669.62],[-120.71993,39.73818,1672.86],[-120.72007,39.73809,1673.43],[-120.72019,39.73806,1675.06],[-120.72034,39.73798,1676.55],[-120.7205,39.73778,1676.57],[-120.72059,39.73768,1676.85],[-120.72116,39.73737,1678.99],[-120.72128,39.73737,1679.85],[-120.7217,39.73751,1685.05],[-120.72173,39.7375,1685.29],[-120.72179,39.73752,1686.54],[-120.72185,39.73751,1687.42],[-120.72202,39.73744,1689.11],[-120.72212,39.73734,1689.66],[-120.72218,39.73732,1690.43],[-120.72247,39.73728,1694.96],[-120.72257,39.73726,1696.68],[-120.7227,39.73719,1698.94],[-120.72284,39.73707,1701.49],[-120.72291,39.73692,1702.25],[-120.72293,39.73675,1701.7],[-120.72306,39.73654,1702.42],[-120.72308,39.73641,1702.32],[-120.72304,39.73634,1701.43],[-120.72315,39.73619,1703.23],[-120.72318,39.73609,1703.6],[-120.7232,39.73603,1703.72],[-120.72318,39.7359,1702.74],[-120.72319,39.7358,1702.36],[-120.72321,39.73574,1702.3],[-120.72334,39.73558,1704.04],[-120.72336,39.73553,1703.97],[-120.72332,39.73529,1700.54],[-120.72333,39.73522,1700.53],[-120.72348,39.7351,1702.77],[-120.72376,39.73499,1707.38],[-120.72404,39.73495,1709.57],[-120.72435,39.73503,1708.36],[-120.72464,39.73505,1706.64],[-120.72514,39.73516,1710.46],[-120.7252,39.73518,1710.77],[-120.72529,39.73525,1711.41],[-120.72565,39.73545,1712.23],[-120.72569,39.73545,1711.68],[-120.72584,39.73553,1710.88],[-120.72623,39.73563,1709.65],[-120.72664,39.73569,1713.38],[-120.72693,39.73567,1716.54],[-120.72702,39.73564,1717.65],[-120.7271,39.73551,1718.23],[-120.72716,39.73548,1719.1],[-120.7272,39.73543,1719.53],[-120.72728,39.73525,1720.39],[-120.7273,39.73519,1720.53],[-120.72729,39.73497,1719.29],[-120.72734,39.73483,1720.52],[-120.72743,39.73464,1723.36],[-120.72743,39.7346,1723.41],[-120.72746,39.73455,1724.31],[-120.72746,39.73452,1724.34],[-120.72751,39.73439,1725.82],[-120.72756,39.73434,1727.07],[-120.72765,39.73415,1728.66],[-120.72772,39.73405,1729.46],[-120.72789,39.73399,1731.96],[-120.728,39.7339,1732.82],[-120.72861,39.73366,1735.8],[-120.72896,39.73364,1737.31],[-120.72916,39.73366,1740.2],[-120.72944,39.73361,1743.06],[-120.72965,39.73365,1746.62],[-120.72991,39.73359,1746.32],[-120.73006,39.73359,1746.35],[-120.7302,39.73363,1747.11],[-120.73028,39.73363,1747.02],[-120.73035,39.73365,1747.59],[-120.73043,39.73364,1747.51],[-120.73061,39.73366,1748.37],[-120.73117,39.73379,1750.73],[-120.73125,39.73379,1750.2],[-120.73153,39.73391,1749.99],[-120.73195,39.73394,1744.86],[-120.73214,39.73399,1745.04],[-120.73222,39.73399,1744.65],[-120.73239,39.7341,1748.37],[-120.73247,39.73428,1754.57],[-120.73247,39.73434,1755.82],[-120.73254,39.7344,1756.41],[-120.73261,39.73453,1758.5],[-120.73283,39.73473,1759.14],[-120.73306,39.73491,1760.94],[-120.73344,39.73503,1762.78],[-120.7336,39.73502,1762.6],[-120.73379,39.73497,1762.13],[-120.73388,39.73496,1762.42],[-120.73411,39.73502,1764.66],[-120.73415,39.73506,1765.5],[-120.73435,39.73519,1768.44],[-120.73463,39.73531,1769.68],[-120.73482,39.73537,1770.25],[-120.73503,39.73539,1770.23],[-120.73538,39.73558,1771.94],[-120.7358,39.73571,1775.05],[-120.73592,39.7357,1777.53],[-120.73598,39.73566,1777.09],[-120.73608,39.73564,1778.59],[-120.73616,39.73558,1778.02],[-120.73619,39.73554,1778.38],[-120.73617,39.73531,1773.18],[-120.73622,39.73525,1773.34],[-120.73633,39.73518,1774.14],[-120.73647,39.73514,1775.62],[-120.73657,39.73515,1777.47],[-120.73685,39.73523,1784.64],[-120.73709,39.73522,1785.67],[-120.73729,39.73517,1785.79],[-120.73752,39.73519,1788.71],[-120.7376,39.73516,1789.43],[-120.73766,39.73511,1789.4],[-120.73775,39.73496,1789.07],[-120.73778,39.73494,1789.57],[-120.73783,39.73457,1788.63],[-120.73778,39.73446,1787.57],[-120.73789,39.73429,1789.34],[-120.73792,39.73418,1788.58],[-120.738,39.73411,1788.63],[-120.73817,39.73391,1786.33],[-120.73829,39.73384,1786.22],[-120.73839,39.73377,1786.47],[-120.7386,39.7335,1789.84],[-120.73862,39.73345,1789.8],[-120.73863,39.73337,1787.88],[-120.73866,39.73334,1787.73],[-120.73863,39.73335,1787.34],[-120.73863,39.73337,1787.88],[-120.73866,39.73337,1788.55],[-120.73867,39.73332,1787.4],[-120.73871,39.73327,1786.86],[-120.73882,39.73319,1786.84],[-120.73894,39.733,1784.12],[-120.73905,39.73291,1784.52],[-120.73936,39.73284,1789.96],[-120.73942,39.73283,1790.81],[-120.73963,39.73285,1793.31],[-120.73969,39.73283,1794.12],[-120.73974,39.73284,1794.67],[-120.7398,39.73281,1795.58],[-120.73985,39.73284,1795.99],[-120.74022,39.73299,1798.57],[-120.74033,39.73301,1799.28],[-120.74044,39.73306,1800.35],[-120.74048,39.73306,1800.27],[-120.74094,39.73321,1799.92],[-120.74108,39.73322,1799.97],[-120.74146,39.73333,1800.42],[-120.74175,39.73337,1800.63],[-120.74183,39.7334,1800.86],[-120.74211,39.73344,1801.42],[-120.7423,39.73349,1802.4],[-120.74295,39.73352,1803.08],[-120.74332,39.73357,1804.82],[-120.74358,39.73369,1806.63],[-120.74403,39.73395,1812.71],[-120.74421,39.73399,1813.34],[-120.74434,39.73397,1812.94],[-120.74455,39.73388,1813.48],[-120.74461,39.73382,1813.68],[-120.74466,39.73374,1813.82],[-120.74465,39.73361,1811.82],[-120.74471,39.73351,1811.04],[-120.74492,39.73337,1813.67],[-120.74515,39.73332,1816.68],[-120.74553,39.73334,1819.74],[-120.74571,39.73338,1820.29],[-120.74589,39.73345,1820.64],[-120.74594,39.73348,1821.27],[-120.74617,39.73354,1823.25],[-120.74635,39.73361,1824.8],[-120.74639,39.73364,1825.17],[-120.74642,39.73367,1825.46],[-120.74649,39.73371,1826.08],[-120.7466,39.73383,1827.12],[-120.74696,39.73413,1828.44],[-120.74734,39.73431,1829.14],[-120.74748,39.73434,1829.54],[-120.74827,39.73441,1832.83],[-120.74849,39.73448,1836.14],[-120.74869,39.73458,1837.42],[-120.74892,39.73466,1837.55],[-120.74902,39.73466,1836.96],[-120.74918,39.73469,1836.4],[-120.74928,39.73468,1835.94],[-120.74939,39.73472,1836.14],[-120.74949,39.7347,1835.56],[-120.74967,39.73473,1835.65],[-120.75006,39.73472,1834.75],[-120.75028,39.73475,1834.48],[-120.75049,39.73471,1833.14],[-120.75071,39.73465,1831.84],[-120.75076,39.73461,1831.22],[-120.75088,39.73458,1830.52],[-120.75111,39.73447,1830.04],[-120.75118,39.73449,1830.54],[-120.7514,39.73441,1831.43],[-120.75146,39.73438,1831.66],[-120.75168,39.73418,1830.73],[-120.7518,39.73417,1831.06],[-120.75221,39.73424,1832.83],[-120.75246,39.73432,1834.35],[-120.75277,39.73452,1838.77],[-120.75296,39.73466,1841.94],[-120.75319,39.73477,1845.43],[-120.75355,39.73477,1848.6],[-120.75392,39.73458,1850.28],[-120.75414,39.73451,1851.86],[-120.75433,39.73443,1853.57],[-120.75445,39.73443,1855.44],[-120.75464,39.73441,1857.97],[-120.75502,39.73443,1863.48],[-120.75522,39.73454,1867.64],[-120.75547,39.73458,1870.8],[-120.75579,39.73462,1871.77],[-120.75625,39.7346,1870.71],[-120.75636,39.73461,1870.98],[-120.75684,39.73475,1872.37],[-120.757,39.73477,1872.24],[-120.75708,39.73476,1872.01],[-120.75743,39.73463,1873.45],[-120.7576,39.73458,1874.71],[-120.75786,39.73445,1875.57],[-120.75799,39.73436,1875.29],[-120.75808,39.73428,1874.8],[-120.75815,39.73413,1873.49],[-120.75818,39.73394,1872.14],[-120.75817,39.7339,1872.1],[-120.75819,39.73377,1872.13],[-120.75816,39.73369,1872.23],[-120.75813,39.73364,1872.44],[-120.75811,39.73351,1873.14],[-120.75807,39.73341,1873.92],[-120.75798,39.73326,1875.4],[-120.75798,39.73321,1875.73],[-120.75793,39.73308,1876.87],[-120.75789,39.73268,1880.61],[-120.75787,39.73258,1881.85],[-120.75789,39.73249,1882.29],[-120.75785,39.73222,1884.93],[-120.75768,39.73187,1889.16],[-120.75765,39.7318,1889.64],[-120.75742,39.73147,1893.13],[-120.75736,39.73135,1893.9],[-120.75696,39.73088,1899.58],[-120.75683,39.73067,1901.04],[-120.75662,39.7304,1903.76],[-120.75628,39.73017,1908.33],[-120.75594,39.73,1911.99],[-120.75579,39.72995,1913.5],[-120.75557,39.7299,1916.08],[-120.75505,39.72989,1923.88],[-120.75486,39.72985,1925.82],[-120.75476,39.72981,1926.69],[-120.75433,39.72953,1928.76],[-120.75407,39.72939,1929.88],[-120.75398,39.72932,1930.23],[-120.75339,39.729,1935.21],[-120.75322,39.72889,1936.3],[-120.75307,39.72874,1936.73],[-120.753,39.72844,1934.21],[-120.7529,39.72829,1933.73],[-120.75264,39.72804,1934.91],[-120.75256,39.72799,1935.7],[-120.75233,39.72789,1938.41],[-120.75212,39.72787,1941.81],[-120.75202,39.72787,1943.54],[-120.75191,39.7279,1945.93],[-120.75183,39.72799,1948.74],[-120.75181,39.72816,1951.6],[-120.75186,39.72833,1952.73],[-120.75186,39.72849,1954.23],[-120.75182,39.72861,1955.49],[-120.75166,39.72868,1958.35],[-120.75153,39.72869,1960.42],[-120.75141,39.72865,1961.92],[-120.7514,39.72863,1961.9],[-120.75137,39.72866,1962.61],[-120.75138,39.72864,1962.28],[-120.75136,39.72864,1962.58],[-120.75136,39.72862,1962.39],[-120.75134,39.72863,1962.78],[-120.75137,39.72863,1962.34],[-120.75135,39.72864,1962.73],[-120.75138,39.7286,1961.92],[-120.75137,39.72862,1962.25],[-120.75139,39.72861,1961.86],[-120.75137,39.72862,1962.25],[-120.75137,39.72867,1962.71],[-120.75136,39.72863,1962.49],[-120.7514,39.72866,1962.16],[-120.75139,39.72863,1962.04],[-120.75129,39.72863,1963.52],[-120.75111,39.72854,1965.13],[-120.75098,39.72851,1966.59],[-120.7508,39.7285,1969.1],[-120.75054,39.72857,1973.83],[-120.75034,39.72866,1977.86],[-120.75015,39.72877,1981.4],[-120.74999,39.72883,1984.11],[-120.74966,39.72891,1988.58],[-120.74912,39.72893,1992.85],[-120.74857,39.72893,1996.48],[-120.7477,39.729,2000.95],[-120.74738,39.72898,2005.06],[-120.74728,39.72893,2006.66],[-120.74712,39.7288,2008.91],[-120.74709,39.72876,2009.3],[-120.74707,39.72869,2009.5],[-120.74699,39.72863,2010.47],[-120.74691,39.72852,2011.28],[-120.7469,39.72847,2011.3],[-120.74681,39.72837,2012.03],[-120.74678,39.72828,2012.09],[-120.74665,39.72805,2013.05],[-120.74664,39.72799,2012.92],[-120.74639,39.72767,2013.62],[-120.74619,39.72747,2014.89],[-120.74598,39.72723,2016.91],[-120.74578,39.72696,2019.5],[-120.74563,39.7268,2022.67],[-120.74553,39.72672,2024.92],[-120.74536,39.72663,2027.83],[-120.74503,39.72648,2031.14],[-120.74475,39.72639,2034.63],[-120.74449,39.72625,2037.01],[-120.74436,39.72614,2038.09],[-120.74429,39.72605,2038.77],[-120.74426,39.72595,2039.64],[-120.74425,39.72569,2041.25],[-120.74427,39.72553,2042.22],[-120.74423,39.72534,2043.84],[-120.74421,39.72529,2044.43],[-120.74414,39.72521,2045.66],[-120.74395,39.72507,2048.48],[-120.74358,39.72472,2051.83],[-120.74313,39.72414,2053.25],[-120.74288,39.72399,2051.33],[-120.74277,39.72388,2050.44],[-120.74263,39.72379,2048.9],[-120.74237,39.72352,2046.3],[-120.74233,39.72346,2045.89],[-120.74224,39.72326,2044.82],[-120.74223,39.72311,2044.81],[-120.74225,39.72294,2045.12],[-120.74227,39.72286,2045.43],[-120.74267,39.72243,2051.61],[-120.7427,39.72235,2052.08],[-120.74278,39.72152,2049.78],[-120.74287,39.72135,2047.88],[-120.74293,39.72128,2047.09],[-120.7431,39.72113,2045.1],[-120.74331,39.72084,2041.54],[-120.74365,39.72053,2042.63],[-120.74379,39.7203,2042.75],[-120.74391,39.72004,2040.89],[-120.74409,39.71977,2039.55],[-120.74436,39.71952,2036.99],[-120.74455,39.71943,2036.79],[-120.74526,39.71914,2030.51],[-120.74543,39.71904,2030.91],[-120.74549,39.71889,2031.32],[-120.74548,39.71873,2030.9],[-120.74543,39.71853,2029.71],[-120.74542,39.71824,2028.26],[-120.74547,39.71782,2025.78],[-120.74547,39.71747,2023.04],[-120.74542,39.71729,2021.33],[-120.74527,39.71694,2018.18],[-120.74519,39.71678,2016.68],[-120.74495,39.71645,2010.73],[-120.74487,39.71627,2008.66],[-120.74483,39.7161,2008.67],[-120.74483,39.7159,2008.7],[-120.74487,39.71572,2008.35],[-120.7449,39.71542,2003.2],[-120.74493,39.71533,2001.85],[-120.74493,39.71521,1999.91],[-120.74512,39.71518,2001.66],[-120.74522,39.71511,2001.61],[-120.74527,39.71503,2000.12],[-120.7454,39.71495,1998.62],[-120.74546,39.71483,1996.34],[-120.74543,39.71476,1994.72],[-120.74546,39.71468,1993.54],[-120.74548,39.71468,1993.46],[-120.74546,39.71466,1993.47],[-120.74549,39.71466,1993.29],[-120.74553,39.71461,1992.57],[-120.74556,39.71456,1991.69],[-120.74561,39.7145,1990.05],[-120.74565,39.71427,1987.62],[-120.74561,39.71417,1988.74],[-120.74561,39.71411,1988.68],[-120.74558,39.7141,1989.8],[-120.74556,39.71404,1990.51],[-120.74553,39.71403,1991.64],[-120.7455,39.71389,1992.42],[-120.74541,39.71381,1994.84],[-120.74539,39.71376,1994.85],[-120.74536,39.71374,1995.52],[-120.74538,39.71375,1995.03],[-120.74536,39.71376,1995.78],[-120.74541,39.7139,1995.94],[-120.74544,39.71405,1995.06],[-120.74543,39.71418,1995.44],[-120.74552,39.71447,1991.46],[-120.74547,39.71456,1992.93],[-120.74545,39.71469,1993.62],[-120.7455,39.71481,1996],[-120.74544,39.71488,1997.36],[-120.74542,39.71494,1998.49],[-120.74536,39.71498,1999.12],[-120.74536,39.71502,2000.34],[-120.7453,39.71507,2001.38],[-120.74503,39.71515,2000.31],[-120.74498,39.71515,2000.06],[-120.74489,39.71509,1999.71],[-120.74483,39.71509,1999.71],[-120.74487,39.71508,1999.74],[-120.74502,39.71515,2000.26],[-120.74502,39.71519,2000.62],[-120.74496,39.71524,2000.33],[-120.74479,39.71528,1998.84],[-120.7447,39.71527,1997.46],[-120.7443,39.71508,1998.26],[-120.74413,39.71503,1998.91],[-120.74374,39.71501,1995.12],[-120.7431,39.71509,1987.44],[-120.74272,39.7151,1985.42],[-120.74243,39.715,1985.36],[-120.74209,39.71478,1990.77],[-120.7419,39.71469,1993.61],[-120.74184,39.71465,1994.92],[-120.74164,39.71457,1997.1],[-120.7414,39.71457,1997.58],[-120.74132,39.7146,1996.56],[-120.74091,39.71465,1997.77],[-120.7407,39.71464,1999.06],[-120.74057,39.71462,2000.28],[-120.74042,39.71457,2002.29],[-120.74025,39.71446,2006.67],[-120.74018,39.7144,2008.5],[-120.73998,39.71419,2014.06],[-120.73987,39.71405,2015.67],[-120.73981,39.71391,2017.7],[-120.73973,39.7137,2019.4],[-120.73951,39.7133,2018.94],[-120.73941,39.71298,2019.21],[-120.73937,39.71279,2019.8],[-120.73933,39.71277,2019.23],[-120.73931,39.71267,2019.8],[-120.73932,39.71256,2020.94],[-120.73935,39.71254,2021.51],[-120.73938,39.71244,2022.58],[-120.73938,39.71225,2023.88],[-120.73937,39.71209,2024.96],[-120.73928,39.71194,2025.91],[-120.73914,39.71176,2028.31],[-120.73911,39.71168,2029.31],[-120.73905,39.7116,2030.68],[-120.73896,39.71151,2032.37],[-120.73889,39.7114,2033.77],[-120.73884,39.71128,2035.31],[-120.73885,39.71117,2035.19],[-120.73883,39.71103,2035.66],[-120.73878,39.71098,2036.67],[-120.73864,39.71093,2039.46],[-120.73856,39.71094,2041.01],[-120.73845,39.71098,2043.34],[-120.73825,39.71113,2047.74],[-120.73808,39.7113,2051.62],[-120.73795,39.71147,2053.68],[-120.73789,39.71152,2054.71],[-120.73715,39.71186,2067.98],[-120.73678,39.71199,2074.82],[-120.73671,39.71203,2075.48],[-120.73671,39.71205,2075.03],[-120.73663,39.71204,2077.06],[-120.73649,39.71208,2079.37],[-120.73634,39.7121,2080.95],[-120.7362,39.71216,2081.64],[-120.73601,39.71219,2083.03],[-120.73594,39.71224,2082.76],[-120.73589,39.71224,2083.2],[-120.73592,39.71223,2083.11],[-120.73587,39.71224,2083.38],[-120.7359,39.71224,2083.11],[-120.73583,39.71221,2084.27],[-120.73585,39.71214,2085.34],[-120.73583,39.71211,2086.05],[-120.73584,39.71209,2086.31],[-120.73589,39.71199,2087.96],[-120.73588,39.71193,2089.35],[-120.73592,39.71187,2090.25],[-120.73596,39.71171,2093.05],[-120.73595,39.71166,2094.13],[-120.73598,39.71162,2094.52],[-120.73599,39.71154,2095.88],[-120.73604,39.71147,2096.4],[-120.73605,39.7114,2097.44],[-120.73609,39.71136,2097.39],[-120.73608,39.71132,2098.24],[-120.73595,39.7113,2101.13],[-120.73576,39.71137,2103.12],[-120.73569,39.71141,2103.28],[-120.73551,39.71146,2104.86],[-120.73538,39.71145,2106.05],[-120.73527,39.71139,2107.57],[-120.73526,39.71136,2108.27],[-120.73527,39.71126,2110.44],[-120.73534,39.7112,2111.45],[-120.73539,39.7111,2113.06],[-120.73539,39.71106,2113.69],[-120.73536,39.71095,2115.06],[-120.73531,39.71088,2115.96],[-120.73519,39.71084,2117.03],[-120.73499,39.71073,2117.85],[-120.73491,39.71063,2118.81],[-120.73488,39.71056,2119.82],[-120.73493,39.7105,2121.57],[-120.7349,39.71036,2123.64],[-120.73493,39.71031,2124.76],[-120.73493,39.71025,2125.76],[-120.73486,39.7101,2128.02],[-120.73487,39.71008,2128.46],[-120.73485,39.71002,2129.52],[-120.73487,39.70993,2131.5],[-120.73491,39.70989,2132.59],[-120.73499,39.70978,2135.45],[-120.73524,39.70958,2139.71],[-120.73539,39.7094,2143.1],[-120.73547,39.70935,2143.29],[-120.73553,39.70928,2143.73],[-120.73559,39.70915,2145.75],[-120.73557,39.7091,2147.42],[-120.73552,39.70903,2150.2],[-120.7354,39.70898,2153.63],[-120.73539,39.70896,2154.23],[-120.73513,39.70893,2158.93],[-120.73489,39.70884,2161],[-120.73484,39.70876,2162.2],[-120.73479,39.70862,2164.15],[-120.73471,39.70849,2164.97],[-120.73455,39.70842,2165.72],[-120.73445,39.70835,2166.45],[-120.73419,39.70832,2167.22],[-120.73412,39.70834,2167.3],[-120.73403,39.70833,2167.72],[-120.73388,39.7084,2167.46],[-120.73374,39.70842,2167.46],[-120.73348,39.70836,2170.9],[-120.73334,39.70838,2171.76],[-120.73326,39.70836,2172.86],[-120.73285,39.70843,2174.15],[-120.73279,39.70841,2175.14],[-120.73267,39.70843,2175.2],[-120.7324,39.70841,2176.44],[-120.73217,39.70844,2177.37],[-120.73209,39.70842,2178.39],[-120.7318,39.70845,2180.29],[-120.73171,39.70848,2180.43],[-120.7315,39.70848,2181.54],[-120.73138,39.70853,2180.96],[-120.7313,39.70853,2181.34],[-120.7311,39.70858,2181.19],[-120.73067,39.70864,2181.94],[-120.73053,39.70866,2181.28],[-120.73032,39.70864,2181.53],[-120.73015,39.7086,2181.32],[-120.73003,39.70854,2181.96],[-120.72988,39.70844,2182.42],[-120.72984,39.70838,2183.08],[-120.72982,39.70831,2182.81],[-120.72977,39.70825,2181.89],[-120.72978,39.70827,2182.05],[-120.72982,39.70828,2182.83],[-120.72979,39.70829,2182.22],[-120.72967,39.70827,2179.89],[-120.72939,39.70815,2175.41],[-120.72923,39.70812,2173.1],[-120.72908,39.70806,2170.65],[-120.72893,39.70796,2168.81],[-120.7284,39.70777,2164.61],[-120.72809,39.70763,2163.84],[-120.72795,39.70756,2164.18],[-120.72772,39.70742,2164.12],[-120.7276,39.70737,2164.35],[-120.72715,39.7073,2163.75],[-120.72688,39.70729,2163.68],[-120.72665,39.70726,2164.67],[-120.72646,39.70728,2165.4],[-120.7262,39.70736,2165.66],[-120.72583,39.70743,2165.87],[-120.72568,39.70743,2165.89],[-120.72541,39.70746,2165.51],[-120.72518,39.70747,2165.36],[-120.72512,39.7075,2165.51],[-120.72506,39.70758,2166.15],[-120.72495,39.70767,2164.88],[-120.72492,39.70771,2164.34],[-120.7248,39.70777,2164.18],[-120.72445,39.70785,2166.05],[-120.72406,39.7079,2170.17],[-120.72395,39.7079,2171.65],[-120.72324,39.70799,2177.38],[-120.72308,39.70797,2179.22],[-120.72299,39.70799,2180.25],[-120.7229,39.70808,2180.76],[-120.72271,39.70815,2182.54],[-120.72255,39.70814,2184.94],[-120.72248,39.70809,2186.86],[-120.72238,39.70809,2188.3],[-120.72236,39.70807,2188.74],[-120.72233,39.70807,2189.16],[-120.72215,39.70815,2189.93],[-120.72196,39.70814,2192.99],[-120.72193,39.7081,2194.69],[-120.72187,39.70806,2196.28],[-120.72175,39.708,2199.32],[-120.7217,39.70799,2200.38],[-120.72154,39.70789,2205.2],[-120.72142,39.70783,2208.12],[-120.72131,39.70781,2209.63],[-120.72119,39.70783,2211.5],[-120.72112,39.70785,2212.48],[-120.72096,39.70795,2212.35],[-120.72098,39.70797,2211.77],[-120.72102,39.7079,2212.74],[-120.72104,39.70773,2213.35],[-120.72104,39.70775,2213.39],[-120.721,39.70787,2213.52],[-120.72105,39.7077,2213.11],[-120.72102,39.70764,2213.45],[-120.72105,39.7077,2213.11],[-120.72105,39.70774,2213.2],[-120.72099,39.70791,2212.83],[-120.72099,39.70794,2212.25],[-120.72093,39.70803,2211.15],[-120.72093,39.70809,2210.02],[-120.72088,39.70815,2208.73],[-120.72077,39.7082,2208.35],[-120.72072,39.70827,2206.66],[-120.72066,39.70833,2205.42],[-120.72056,39.70839,2204.46],[-120.7205,39.70841,2204.41],[-120.72031,39.70862,2198.79],[-120.72024,39.70868,2196.61],[-120.72022,39.70875,2194.66],[-120.72008,39.70885,2191.67],[-120.72015,39.70899,2189.06],[-120.72003,39.70909,2187.64],[-120.71973,39.70954,2180.26],[-120.71963,39.70977,2177.86],[-120.71946,39.70998,2175.4],[-120.71937,39.7102,2174.99],[-120.71916,39.71033,2171.23],[-120.71875,39.71057,2154.91],[-120.71863,39.71082,2149.27],[-120.71846,39.71102,2142.64],[-120.71819,39.71138,2135.01],[-120.71813,39.71137,2132.98],[-120.71787,39.71142,2125.65],[-120.71773,39.71148,2122.94],[-120.71763,39.71155,2121.01],[-120.7174,39.71162,2115.97],[-120.71733,39.71176,2114.61],[-120.7173,39.71192,2113.86],[-120.71725,39.712,2112.62],[-120.71722,39.7121,2111.7],[-120.71724,39.7123,2111.16],[-120.71719,39.71242,2110.14],[-120.71677,39.71278,2105.4],[-120.7166,39.71285,2102.99],[-120.71646,39.71282,2099.57],[-120.7163,39.71286,2096.7],[-120.7162,39.71294,2095.98],[-120.71607,39.71302,2094.85],[-120.71587,39.71326,2095.06],[-120.71573,39.71336,2093.86],[-120.71562,39.71346,2092.63],[-120.71553,39.71359,2091.49],[-120.71534,39.71375,2086.83],[-120.71529,39.71384,2085.18],[-120.71522,39.71406,2081.41],[-120.71517,39.71411,2079.29],[-120.7151,39.71414,2076.64],[-120.71506,39.71419,2074.77],[-120.715,39.71421,2072.64],[-120.71494,39.7142,2070.82],[-120.71479,39.71415,2066.61],[-120.71452,39.71402,2057.98],[-120.71449,39.71394,2057.02],[-120.71442,39.71396,2055.4],[-120.71421,39.71392,2050.24],[-120.71409,39.71391,2047.75],[-120.71401,39.71394,2046.66],[-120.71384,39.71396,2043.76],[-120.7137,39.71394,2042.04],[-120.71357,39.71387,2039.96],[-120.71345,39.71377,2037.29],[-120.7133,39.71375,2035.28],[-120.7132,39.71383,2034.97],[-120.71317,39.7139,2035.32],[-120.71305,39.71398,2033.08],[-120.71292,39.71402,2030.85],[-120.71265,39.71407,2027.72],[-120.71243,39.7142,2025.25],[-120.71243,39.71422,2024.72],[-120.71246,39.71424,2024.42],[-120.71243,39.71427,2023.42],[-120.71243,39.71431,2022.37],[-120.71232,39.71443,2019.41],[-120.71218,39.7145,2017.77],[-120.71203,39.71461,2014.51],[-120.71178,39.7147,2013.27],[-120.71168,39.71479,2009.77],[-120.71121,39.715,2000.93],[-120.71097,39.71522,1995.43],[-120.71088,39.71534,1992.93],[-120.71082,39.71541,1991.7],[-120.71079,39.71542,1991.49],[-120.71071,39.71552,1990.18],[-120.7106,39.71559,1988.84],[-120.71044,39.71575,1986.36],[-120.71013,39.7158,1983.19],[-120.70995,39.71587,1981.14],[-120.70982,39.71607,1978.96],[-120.70964,39.71622,1976.38],[-120.70957,39.71625,1975.67],[-120.70937,39.71628,1974.13],[-120.70932,39.71636,1973.4],[-120.70918,39.71642,1971.8],[-120.70911,39.71651,1970.77],[-120.709,39.71656,1969.42],[-120.70884,39.71657,1968.18],[-120.70865,39.71655,1966.88],[-120.70854,39.71658,1965.7],[-120.70844,39.71667,1963.32],[-120.70837,39.71669,1962.32],[-120.7083,39.71675,1960.59],[-120.70811,39.71679,1958.49],[-120.70783,39.71692,1952.15],[-120.70789,39.71705,1949.66],[-120.70794,39.71708,1949.5],[-120.70795,39.71712,1948.43],[-120.70771,39.71725,1941.61],[-120.70765,39.7173,1939.42],[-120.70764,39.71734,1938.14],[-120.70766,39.71735,1938.07],[-120.70765,39.71743,1937.42],[-120.70768,39.7175,1937.46],[-120.70765,39.71752,1936.96],[-120.70763,39.71757,1936.48],[-120.70768,39.71771,1937.97],[-120.70768,39.71775,1938.45],[-120.70758,39.71778,1937.26],[-120.70753,39.71785,1937.11],[-120.70736,39.71799,1935.02],[-120.70714,39.71821,1932.13],[-120.70701,39.71827,1929.92],[-120.70692,39.71826,1928.37],[-120.70689,39.71829,1927.79],[-120.70686,39.71836,1927.21],[-120.7068,39.7184,1926.12],[-120.70668,39.71843,1923.76],[-120.70664,39.71852,1922.01],[-120.70665,39.71862,1921.04],[-120.70663,39.71868,1919.94],[-120.70664,39.71865,1920.52],[-120.70652,39.71863,1918.6],[-120.70654,39.71867,1918.5],[-120.70647,39.71873,1915.68],[-120.7065,39.7188,1914.39],[-120.70648,39.7191,1904.98],[-120.70642,39.71911,1903.02],[-120.7062,39.719,1901.79],[-120.70614,39.719,1900.84],[-120.70614,39.71902,1900.13],[-120.70606,39.71899,1899.93],[-120.70604,39.71901,1898.91],[-120.70594,39.71901,1897.33],[-120.70587,39.71899,1896.64],[-120.70582,39.71901,1894.94],[-120.70571,39.71902,1892.37],[-120.70569,39.71905,1891.01],[-120.70563,39.71908,1888.88],[-120.70551,39.71913,1885.08],[-120.70545,39.71929,1879.84],[-120.70544,39.71942,1876.63],[-120.7054,39.71949,1874.48],[-120.70524,39.7195,1872.13],[-120.70521,39.71953,1871.05],[-120.70522,39.71955,1870.78],[-120.70522,39.71954,1870.99],[-120.70501,39.71974,1863.47],[-120.70503,39.71982,1862.02],[-120.7051,39.71988,1861.85],[-120.7051,39.71992,1860.98],[-120.70507,39.71995,1859.82],[-120.70485,39.72,1855.33],[-120.70462,39.72008,1852.48],[-120.70454,39.72006,1851.7],[-120.70433,39.72011,1848.61],[-120.7042,39.72021,1846.28],[-120.70405,39.72029,1843.98],[-120.70376,39.72036,1840.18],[-120.70363,39.72045,1838.48],[-120.70356,39.72052,1837.52],[-120.70359,39.72059,1837.91],[-120.70366,39.72086,1838.61],[-120.70366,39.72096,1838.49],[-120.70364,39.72099,1838.28],[-120.70357,39.72104,1837.65],[-120.70347,39.7212,1836.92],[-120.70326,39.72133,1833.79],[-120.70317,39.72137,1832.23],[-120.70287,39.72162,1827.86],[-120.70271,39.72164,1826.62],[-120.70221,39.72157,1822.62],[-120.70195,39.72156,1820.66],[-120.70187,39.72151,1819.75],[-120.70179,39.72139,1818.23],[-120.70172,39.72132,1817.27],[-120.70167,39.72129,1816.89],[-120.70162,39.72132,1816.68],[-120.70154,39.72129,1816.13],[-120.70151,39.72123,1815.86],[-120.70145,39.72119,1815.42],[-120.70144,39.7212,1815.35],[-120.70139,39.72119,1814.93],[-120.70138,39.72104,1814.81],[-120.70154,39.72091,1816.67],[-120.70164,39.72087,1817.49],[-120.70164,39.72082,1817.84],[-120.70159,39.72076,1817.91],[-120.70143,39.72069,1817.02],[-120.70127,39.72067,1815.46],[-120.70116,39.72063,1814.36],[-120.7011,39.72065,1813.81],[-120.70105,39.7207,1813.39],[-120.70102,39.72071,1813.13],[-120.70082,39.72054,1812.25],[-120.70075,39.72051,1812.34],[-120.70046,39.72054,1812.22],[-120.70039,39.72052,1812.47],[-120.70031,39.72041,1813.41],[-120.70029,39.72028,1814.47],[-120.70011,39.72019,1814.84],[-120.69996,39.7202,1814.53],[-120.69991,39.72022,1814.25],[-120.69971,39.72023,1814.04],[-120.69965,39.72026,1813.76],[-120.69937,39.72041,1813.68],[-120.69925,39.72055,1813.72],[-120.69906,39.72061,1814.03],[-120.69883,39.72072,1814.38],[-120.6987,39.72103,1812.76],[-120.69867,39.72116,1812.71],[-120.69869,39.72129,1811.69],[-120.69875,39.72149,1809.45],[-120.69875,39.72155,1809.04],[-120.69885,39.7218,1805.93],[-120.69886,39.72187,1805.36],[-120.69885,39.72194,1804.95],[-120.69882,39.72202,1804.48],[-120.69873,39.72215,1803.76],[-120.6987,39.72236,1803.13],[-120.69867,39.72238,1803.1],[-120.69861,39.72249,1802.55],[-120.69864,39.72243,1802.84],[-120.69862,39.72255,1802.15],[-120.69863,39.7228,1799.1],[-120.69859,39.72289,1797.9],[-120.69864,39.72292,1797.32],[-120.69865,39.72295,1796.95],[-120.69862,39.72304,1795.99],[-120.69862,39.72318,1794.41],[-120.69856,39.72322,1793.99],[-120.69841,39.72339,1791.98],[-120.69825,39.72337,1792.67],[-120.69824,39.72343,1791.93],[-120.69817,39.72359,1790.95],[-120.69797,39.72379,1790.73],[-120.69797,39.72385,1790.24],[-120.69794,39.72391,1790.07],[-120.6978,39.72403,1790.45],[-120.69773,39.72418,1789.6],[-120.69758,39.72438,1790.33],[-120.69753,39.72441,1790.95],[-120.69746,39.72453,1791.08],[-120.69742,39.72457,1791.31],[-120.69743,39.72471,1789.92],[-120.69742,39.72475,1789.67],[-120.69735,39.72482,1789.82],[-120.69731,39.72494,1789.92],[-120.69734,39.725,1788.56],[-120.69725,39.72508,1790.31],[-120.69716,39.7252,1791.29],[-120.69699,39.72558,1792.09],[-120.69698,39.72567,1791.67],[-120.6969,39.72585,1792.55],[-120.69684,39.72592,1793.66],[-120.6967,39.726,1796.65],[-120.69667,39.72626,1794.32],[-120.69664,39.7263,1794.64],[-120.69641,39.72648,1797.51],[-120.69629,39.72661,1797.1],[-120.69625,39.72668,1796.71],[-120.69615,39.72674,1798.04],[-120.69619,39.72683,1794.97],[-120.69613,39.7269,1795.18],[-120.69613,39.72694,1794.59],[-120.69608,39.72701,1794.56],[-120.69599,39.72709,1794.86],[-120.69598,39.72714,1794.14],[-120.69596,39.7272,1793.55],[-120.69587,39.7273,1793.15],[-120.69583,39.7277,1789.39],[-120.69584,39.72776,1789.16],[-120.69588,39.72778,1788.89],[-120.69578,39.72785,1789.16],[-120.69564,39.72791,1789.54],[-120.69554,39.72805,1789.21],[-120.69544,39.7281,1789.49],[-120.69529,39.72816,1789.98],[-120.69519,39.72826,1789.53],[-120.69506,39.7283,1789.86],[-120.69502,39.72829,1790.28],[-120.695,39.72834,1789.66],[-120.69463,39.72861,1787.07],[-120.69446,39.72864,1786.81],[-120.69448,39.72865,1786.54],[-120.69445,39.72865,1786.6],[-120.6944,39.72868,1786],[-120.69436,39.72873,1785.09],[-120.69429,39.72878,1784.56],[-120.69427,39.72885,1783.7],[-120.69416,39.72895,1782.61],[-120.69414,39.72899,1782.13],[-120.69411,39.72913,1780.47],[-120.69399,39.72925,1778.69],[-120.69396,39.7293,1778.38],[-120.69393,39.72954,1777.48],[-120.69384,39.72964,1777.96],[-120.69383,39.72967,1777.99],[-120.69384,39.72974,1777.85],[-120.69387,39.72978,1777.62],[-120.69381,39.73009,1776.92],[-120.69373,39.73031,1776.89],[-120.69372,39.73054,1776.82],[-120.69381,39.73087,1775.68],[-120.69385,39.73092,1775.15],[-120.69394,39.73118,1772.68],[-120.69395,39.73138,1769.98],[-120.69389,39.73147,1769.79],[-120.69385,39.73161,1767.85],[-120.69375,39.73166,1767.62],[-120.69369,39.73175,1765.83],[-120.69367,39.73185,1763.36],[-120.69361,39.73195,1760.89],[-120.6936,39.73204,1758.47],[-120.69347,39.73212,1757.29],[-120.69344,39.73241,1752.64],[-120.69339,39.73252,1752.57],[-120.69333,39.73258,1753.33],[-120.69322,39.73274,1754.98],[-120.69315,39.73293,1757.15],[-120.69315,39.73326,1756.98],[-120.69314,39.7333,1756.84],[-120.69317,39.73339,1755.05],[-120.69321,39.73345,1753.45],[-120.69316,39.73363,1751.78],[-120.69316,39.73375,1750.16],[-120.69321,39.73389,1749.13],[-120.69334,39.73407,1748.93],[-120.69342,39.73414,1749.1],[-120.69352,39.73416,1748.33],[-120.69392,39.73438,1747.49],[-120.69392,39.7344,1747.63],[-120.6939,39.73439,1747.72],[-120.69392,39.73439,1747.56],[-120.6939,39.7344,1747.79],[-120.69391,39.73441,1747.77],[-120.69371,39.73448,1750.08],[-120.69367,39.73452,1750.8],[-120.69366,39.73456,1751.09],[-120.69358,39.73465,1752.27],[-120.69354,39.73467,1752.73],[-120.69338,39.73471,1754.3],[-120.69329,39.73475,1755.11],[-120.69326,39.73491,1756.32],[-120.69327,39.73507,1757.24],[-120.69322,39.7352,1757.62],[-120.69315,39.73527,1758.06],[-120.69312,39.73536,1758.01],[-120.69299,39.73548,1758.79],[-120.69297,39.73556,1758.86],[-120.69293,39.73561,1759.68],[-120.69289,39.73564,1760.47],[-120.69281,39.73567,1761.98],[-120.6928,39.7357,1762.42],[-120.69283,39.73579,1762.85],[-120.69278,39.73589,1764.77],[-120.69274,39.73592,1765.7],[-120.69273,39.7359,1765.57],[-120.69263,39.73595,1767.4],[-120.69257,39.73596,1768.21],[-120.69257,39.73598,1768.38],[-120.6925,39.73601,1769.32],[-120.69252,39.73602,1769.21],[-120.69249,39.73603,1769.57],[-120.69246,39.73608,1770.22],[-120.69227,39.7362,1772.48],[-120.69201,39.73621,1775.3],[-120.69193,39.73618,1776.24],[-120.69189,39.73619,1776.72],[-120.69191,39.73621,1776.48],[-120.69183,39.73626,1777.36],[-120.6917,39.7363,1778.62],[-120.69164,39.7363,1779.23],[-120.6916,39.73634,1779.44],[-120.69155,39.73635,1779.85],[-120.69146,39.73641,1780.62],[-120.69132,39.73648,1782.06],[-120.6913,39.73647,1782.42],[-120.69126,39.7364,1783.67],[-120.69129,39.73637,1783.51],[-120.69127,39.7364,1783.52],[-120.69124,39.73633,1784.7],[-120.69125,39.73627,1785.16],[-120.69122,39.73619,1786.53],[-120.69123,39.73614,1786.88],[-120.69122,39.73612,1787.29],[-120.69116,39.73611,1788.6],[-120.69111,39.73611,1789.8],[-120.6911,39.73613,1789.79],[-120.69105,39.73613,1790.98],[-120.69096,39.73607,1793.86],[-120.69089,39.73598,1796.55],[-120.69084,39.73599,1797.64],[-120.69075,39.73595,1800.05],[-120.6907,39.7359,1801.65],[-120.69062,39.73584,1803.98],[-120.69062,39.73586,1803.77],[-120.69057,39.73589,1804.51],[-120.69059,39.73588,1804.19],[-120.69058,39.73591,1804.09],[-120.69044,39.73592,1806.67],[-120.69037,39.73584,1808.47],[-120.69026,39.73578,1809.87],[-120.69021,39.73579,1810.6],[-120.69016,39.73578,1811.28],[-120.69005,39.73581,1812.81],[-120.68999,39.73581,1813.59],[-120.68994,39.73572,1814.18],[-120.68994,39.73565,1814.13],[-120.68983,39.73557,1815.79],[-120.68981,39.73551,1816],[-120.68977,39.73549,1816.7],[-120.68968,39.73547,1818.41],[-120.68962,39.73555,1819.54],[-120.68952,39.73554,1821.4],[-120.68945,39.73556,1822.68],[-120.68941,39.73554,1823.43],[-120.68942,39.73548,1823.36],[-120.68927,39.73546,1826.25],[-120.6892,39.7354,1827.86],[-120.68912,39.73542,1829.33],[-120.68905,39.73539,1830.92],[-120.68893,39.73546,1832.79],[-120.68886,39.73544,1834.34],[-120.68889,39.73543,1833.84],[-120.68891,39.73545,1833.27],[-120.68889,39.73544,1833.75],[-120.68881,39.73545,1835.23],[-120.6887,39.73547,1837.18],[-120.68862,39.73553,1838.07],[-120.6886,39.73549,1838.92],[-120.68857,39.73549,1839.51],[-120.68848,39.73552,1840.91],[-120.68834,39.73553,1843.34],[-120.68828,39.73555,1844.1],[-120.6882,39.73554,1845.61],[-120.6881,39.73556,1847.01],[-120.68799,39.73562,1848.23],[-120.68791,39.73562,1849.38],[-120.68782,39.73571,1849.96],[-120.68767,39.73576,1851.35],[-120.68756,39.73582,1851.97],[-120.68745,39.73582,1853.15],[-120.68739,39.73583,1853.69],[-120.68733,39.73582,1854.65],[-120.68699,39.73588,1858.58],[-120.68683,39.73586,1860.88],[-120.68676,39.73588,1861.4],[-120.68668,39.73587,1862.57],[-120.68664,39.7359,1862.43],[-120.68654,39.7359,1863.6],[-120.68635,39.73594,1864.91],[-120.68629,39.73592,1866.13],[-120.68629,39.7359,1866.6],[-120.68627,39.73591,1866.61],[-120.68623,39.73589,1867.59],[-120.6862,39.73589,1867.97],[-120.68608,39.73582,1871.41],[-120.686,39.73582,1872.45],[-120.68592,39.7358,1874.22],[-120.68591,39.73583,1873.25],[-120.68583,39.73582,1874.65],[-120.6858,39.7358,1875.76],[-120.68584,39.73565,1880.71],[-120.6858,39.73563,1881.92],[-120.68573,39.73563,1882.76],[-120.68566,39.73562,1883.96],[-120.68547,39.73551,1890.59],[-120.68536,39.7355,1892.19],[-120.68532,39.73546,1894.29],[-120.68527,39.73547,1894.34],[-120.68526,39.73548,1894.04],[-120.68527,39.7355,1893.15],[-120.68525,39.73548,1894.14],[-120.68517,39.73546,1895.63],[-120.68507,39.73547,1896.21],[-120.68503,39.73546,1896.88],[-120.68501,39.7354,1898.8],[-120.68497,39.73538,1899.64],[-120.6849,39.73536,1900.74],[-120.68484,39.73537,1900.95],[-120.68477,39.73531,1902.92],[-120.68476,39.73527,1904.14],[-120.68468,39.73523,1905.64],[-120.68465,39.73519,1906.8],[-120.6846,39.73518,1907.58],[-120.68452,39.73512,1909.85],[-120.68442,39.73509,1911.46],[-120.68435,39.73503,1913.21],[-120.68424,39.73497,1915.19],[-120.68417,39.7349,1916.83],[-120.68405,39.73483,1918.53],[-120.68401,39.73477,1919.5],[-120.68385,39.73461,1922.74],[-120.68366,39.73451,1924.03],[-120.68356,39.73449,1924.16],[-120.68334,39.73446,1924.3],[-120.6831,39.73446,1924.89],[-120.68299,39.73441,1925.25],[-120.68282,39.73436,1925.79],[-120.68264,39.73426,1926.11],[-120.68253,39.73426,1926.56],[-120.68246,39.73421,1926.71],[-120.68221,39.73419,1927.69],[-120.68216,39.73421,1928.15],[-120.68208,39.7342,1928.62],[-120.682,39.73422,1929.31],[-120.68175,39.73417,1930.9],[-120.68145,39.73405,1932.93],[-120.68137,39.734,1933.46],[-120.6813,39.73394,1934.15],[-120.68107,39.73389,1935.9],[-120.68074,39.73369,1936.09],[-120.68059,39.73367,1936.09],[-120.68029,39.73355,1934.58],[-120.68018,39.73353,1934.14],[-120.68006,39.73353,1933.71],[-120.68002,39.7336,1934.45],[-120.67997,39.73364,1934.74],[-120.67993,39.73375,1935.92],[-120.67974,39.73385,1935.99],[-120.6797,39.73389,1936.2],[-120.67948,39.734,1935.86],[-120.67923,39.73414,1935.88],[-120.67915,39.73423,1937.71],[-120.67903,39.73429,1937.41],[-120.67883,39.73448,1938.88],[-120.67869,39.73458,1937.24],[-120.67863,39.73469,1936.73],[-120.67855,39.73476,1936.35],[-120.67846,39.73495,1935.31],[-120.67838,39.735,1934.76],[-120.67827,39.73501,1934.24],[-120.67818,39.73504,1933.9],[-120.67783,39.73499,1932.54],[-120.67762,39.73501,1932.22],[-120.67735,39.73499,1931.91],[-120.67722,39.73495,1931.84],[-120.6768,39.73491,1930.95],[-120.67669,39.73487,1930.61],[-120.67661,39.73488,1930.23],[-120.67656,39.73486,1930.05],[-120.67637,39.7349,1929.14],[-120.67627,39.73489,1928.94],[-120.67619,39.73492,1928.6],[-120.67613,39.7349,1928.55],[-120.67605,39.73491,1928.31],[-120.6759,39.73487,1928.54],[-120.67574,39.73487,1928.52],[-120.67564,39.73484,1928.84],[-120.67559,39.73487,1928.56],[-120.67556,39.73481,1929.23],[-120.67554,39.7348,1929.37],[-120.67555,39.73476,1928.75],[-120.67557,39.7348,1929.33],[-120.67557,39.73478,1929.45],[-120.67556,39.7348,1929.34],[-120.67555,39.73478,1929.48],[-120.67557,39.73479,1929.44],[-120.67552,39.73482,1929.16],[-120.6756,39.73485,1928.77],[-120.67524,39.7348,1929.02],[-120.67513,39.73481,1928.38],[-120.67488,39.73478,1926.62],[-120.67475,39.73478,1925.05],[-120.67469,39.73476,1923.97],[-120.67461,39.73475,1923.17],[-120.67452,39.73476,1922.62],[-120.67392,39.73478,1921.37],[-120.67352,39.73474,1917.49],[-120.6734,39.73475,1915.81],[-120.67306,39.73469,1909.71],[-120.67287,39.73464,1907.4],[-120.6727,39.73458,1906.66],[-120.67248,39.73453,1906.93],[-120.67231,39.73444,1905.43],[-120.67218,39.73441,1904.64],[-120.67198,39.7343,1904.32],[-120.67144,39.73407,1905.45],[-120.67142,39.73403,1905.94],[-120.67122,39.73385,1907.21],[-120.67104,39.73374,1908.25],[-120.67086,39.73366,1907.76],[-120.67059,39.73363,1907.64],[-120.67052,39.73358,1907.12],[-120.67046,39.7335,1906.9],[-120.67041,39.73349,1906.66],[-120.67035,39.73344,1906.56],[-120.67022,39.73329,1907.48],[-120.67018,39.7332,1907.43],[-120.67005,39.73311,1905.32],[-120.67001,39.73296,1906.35],[-120.67001,39.73288,1906.36],[-120.66997,39.7328,1906.78],[-120.66996,39.7327,1907.08],[-120.66996,39.73259,1905.85],[-120.66999,39.73254,1903.85],[-120.66999,39.73232,1899.46],[-120.66997,39.73227,1899.11],[-120.66986,39.7321,1898.46],[-120.66979,39.73203,1896.31],[-120.6697,39.73198,1894.87],[-120.66966,39.73198,1894.97],[-120.66959,39.73202,1896.43],[-120.66946,39.73217,1897.56],[-120.66935,39.73223,1892.81],[-120.66938,39.73221,1894.18],[-120.6694,39.73222,1895.03],[-120.66933,39.7321,1891.41],[-120.66943,39.73175,1883.02],[-120.66946,39.73169,1880.82],[-120.66957,39.73162,1878.59],[-120.66974,39.73159,1876.61],[-120.66968,39.73157,1875.94],[-120.66954,39.7316,1877.77],[-120.6693,39.73169,1877.73],[-120.66923,39.73174,1878.24],[-120.66903,39.73194,1878.18],[-120.66868,39.73221,1868.27],[-120.66846,39.7323,1862.18],[-120.66846,39.73225,1862.98],[-120.66848,39.73219,1864.19],[-120.66852,39.73214,1865.63],[-120.66858,39.73197,1866.44],[-120.66864,39.73187,1867.3],[-120.66871,39.73166,1865.28],[-120.669,39.7314,1863.85],[-120.66917,39.73122,1861.63],[-120.66944,39.73104,1859.75],[-120.6695,39.73101,1859.73],[-120.66947,39.73101,1859.61],[-120.66947,39.73099,1859.43],[-120.66948,39.73101,1859.65],[-120.66943,39.73103,1859.62],[-120.66925,39.73099,1858.51],[-120.66914,39.73099,1857.95],[-120.66903,39.73101,1857.48],[-120.66861,39.73102,1854.56],[-120.66846,39.73105,1853.55],[-120.66834,39.73115,1853.39],[-120.66821,39.73131,1853.44],[-120.66795,39.73152,1853.92],[-120.66778,39.73157,1853.19],[-120.66765,39.73165,1853.2],[-120.66739,39.73193,1855.01],[-120.66698,39.73217,1853.09],[-120.66666,39.73227,1847.01],[-120.66662,39.7323,1846.14],[-120.66659,39.73235,1845.38],[-120.66659,39.73237,1845.29],[-120.66653,39.73242,1844],[-120.66653,39.73247,1843.59],[-120.66651,39.73252,1842.9],[-120.66652,39.73256,1842.73],[-120.66648,39.73259,1841.99],[-120.66644,39.73306,1838.55],[-120.66638,39.7332,1837.19],[-120.66629,39.73332,1835.82],[-120.66621,39.73338,1834.95],[-120.66619,39.73344,1834.46],[-120.6662,39.73351,1834.11],[-120.66615,39.73358,1833.44],[-120.66612,39.73368,1832.71],[-120.66613,39.73379,1831.99],[-120.66611,39.73393,1830.72],[-120.66613,39.734,1830.21],[-120.66619,39.73412,1828.79],[-120.66622,39.73428,1826.45],[-120.6663,39.73437,1825.5],[-120.66637,39.73449,1823.9],[-120.66642,39.73461,1820.72],[-120.66642,39.73467,1818.37],[-120.66645,39.73479,1814.19],[-120.66655,39.73493,1811.36],[-120.66661,39.73511,1807.03],[-120.66661,39.73516,1805.76],[-120.66666,39.73523,1805.12],[-120.66673,39.73543,1802.01],[-120.6667,39.73551,1799.71],[-120.66675,39.73559,1798.91],[-120.66681,39.73555,1800.9],[-120.66682,39.73558,1800.35],[-120.6668,39.73559,1799.81],[-120.66679,39.73573,1796.26],[-120.66683,39.73586,1793.45],[-120.66718,39.73597,1793.11],[-120.66726,39.73609,1789.84],[-120.66716,39.73624,1784.45],[-120.66715,39.73631,1782.18],[-120.66713,39.73633,1781.49],[-120.66712,39.73642,1778.7],[-120.66717,39.73646,1777.49],[-120.66718,39.73654,1774.96],[-120.66714,39.73656,1774.3],[-120.66713,39.73671,1770.09],[-120.66725,39.73687,1765.64],[-120.66732,39.73695,1763.48],[-120.66732,39.737,1762.33],[-120.6673,39.73708,1760.54],[-120.66736,39.73721,1757.39],[-120.66735,39.73724,1756.74],[-120.66739,39.73728,1755.79],[-120.66748,39.73748,1751.78],[-120.66748,39.73752,1751.1],[-120.66741,39.73759,1749.55],[-120.66736,39.73768,1747.5],[-120.66735,39.73774,1746.47],[-120.66738,39.73785,1745.02],[-120.66733,39.73796,1742.87],[-120.66727,39.73804,1741.09],[-120.66723,39.73807,1740.29],[-120.66711,39.73808,1739.21],[-120.66702,39.73813,1738],[-120.66679,39.7382,1735.46],[-120.66667,39.7383,1733.12],[-120.6666,39.73832,1732.52],[-120.66652,39.73839,1730.78],[-120.66635,39.73865,1724.8],[-120.66632,39.73877,1722.13],[-120.66628,39.73884,1720.17],[-120.6663,39.73892,1718.42],[-120.6662,39.73908,1713.83],[-120.66609,39.73951,1702.3],[-120.66568,39.73989,1691.98],[-120.66537,39.74026,1684.93],[-120.66532,39.74025,1684.86],[-120.66534,39.74032,1683.97],[-120.66536,39.74031,1684.26],[-120.6653,39.7403,1683.97],[-120.66529,39.74032,1683.57],[-120.66521,39.74025,1684.43],[-120.66516,39.74024,1684.48],[-120.66508,39.74026,1683.64],[-120.66488,39.74038,1681.8],[-120.66476,39.7405,1680.01],[-120.66461,39.74059,1679.83],[-120.6642,39.74098,1679.06],[-120.66402,39.74107,1679.84],[-120.66391,39.74116,1679.6],[-120.66378,39.74123,1679.94],[-120.66368,39.74137,1678.07],[-120.66366,39.74149,1675.44],[-120.66362,39.7416,1673.27],[-120.66325,39.74208,1663.95],[-120.66319,39.74216,1662.31],[-120.66315,39.74227,1659.27],[-120.66305,39.74236,1656.92],[-120.66296,39.74239,1656],[-120.66285,39.74246,1653.55],[-120.66223,39.74306,1630.99],[-120.6621,39.7431,1629.44],[-120.66199,39.74323,1624.74],[-120.66188,39.74328,1624.37],[-120.66183,39.74334,1623.45],[-120.66181,39.74345,1621.31],[-120.66182,39.74348,1620.66],[-120.6616,39.74358,1619.82],[-120.66147,39.74368,1618.84],[-120.66137,39.74371,1618.79],[-120.66131,39.74377,1617.74],[-120.66126,39.74378,1617.71],[-120.6612,39.74383,1616.86],[-120.66115,39.74385,1616.61],[-120.66108,39.7439,1615.79],[-120.66108,39.74409,1612.03],[-120.66103,39.74418,1610.43],[-120.66096,39.74437,1607.11],[-120.66085,39.74451,1604.65],[-120.66079,39.74455,1603.67],[-120.66063,39.74487,1599.05],[-120.66058,39.74493,1598.24],[-120.66058,39.74495,1598.13],[-120.66054,39.74505,1597.1],[-120.66055,39.74507,1597.09],[-120.66059,39.74504,1597.74],[-120.66046,39.74509,1595.84],[-120.66034,39.74511,1594.17],[-120.6603,39.74514,1593.41],[-120.66025,39.74522,1592.21],[-120.66018,39.7453,1590.99],[-120.66005,39.74539,1589.01],[-120.65998,39.74546,1587.6],[-120.65984,39.74555,1586.4],[-120.65975,39.74566,1585.45],[-120.65971,39.74567,1585.45],[-120.65954,39.74576,1584.83],[-120.65951,39.74598,1581.18],[-120.65942,39.7461,1579.33],[-120.65937,39.74614,1578.63],[-120.65929,39.74617,1578.27],[-120.65926,39.7462,1577.65],[-120.65925,39.74628,1575.82],[-120.6592,39.74635,1574.24],[-120.6592,39.74644,1572.9],[-120.65915,39.7465,1572.62],[-120.65902,39.74656,1572.09],[-120.65897,39.74662,1571.4],[-120.65893,39.74664,1571.06],[-120.65889,39.74674,1570.64],[-120.65874,39.74687,1569.69],[-120.65884,39.74702,1570.59],[-120.65879,39.74721,1570.72],[-120.65875,39.74725,1570.35],[-120.65875,39.74728,1570.37],[-120.65871,39.74731,1569.98],[-120.65865,39.74744,1569.42],[-120.6587,39.74746,1569.93],[-120.65875,39.74752,1570.32],[-120.6588,39.74763,1570.57],[-120.65877,39.74769,1570.15],[-120.65872,39.74774,1569.54],[-120.65855,39.74798,1567.22],[-120.65858,39.74809,1566.84],[-120.65859,39.74818,1566.4],[-120.65856,39.7482,1566.06],[-120.65859,39.74819,1566.35],[-120.65857,39.74818,1566.25],[-120.65857,39.74824,1565.91],[-120.65843,39.74852,1562.81],[-120.6583,39.74873,1560.02],[-120.65826,39.74885,1558.48],[-120.65824,39.74906,1555.93],[-120.65821,39.74911,1555.16],[-120.65807,39.74932,1552.03],[-120.6579,39.74946,1549.67],[-120.65787,39.74954,1548.65],[-120.65781,39.74962,1547.5],[-120.65778,39.74965,1547.04],[-120.65774,39.74965,1546.83],[-120.65773,39.74968,1546.48],[-120.65761,39.74987,1544.08],[-120.65756,39.75,1542.83],[-120.65752,39.75004,1542.37],[-120.65738,39.75075,1535.63],[-120.65739,39.75097,1533.23],[-120.65744,39.75117,1530.93],[-120.65743,39.75127,1529.62],[-120.65733,39.7515,1526.48],[-120.6572,39.75158,1525.16],[-120.65696,39.75157,1524.49],[-120.65693,39.75158,1524.31],[-120.65676,39.7515,1524.61],[-120.65671,39.75146,1524.94],[-120.65664,39.75136,1526.02],[-120.65655,39.75126,1527.12],[-120.65615,39.75109,1526.46],[-120.65594,39.75094,1526.09],[-120.65583,39.75089,1525.62],[-120.65577,39.75089,1525.33],[-120.65562,39.75096,1524.52],[-120.65558,39.75111,1523.11],[-120.65546,39.75129,1521.65],[-120.65505,39.75143,1522.97],[-120.65496,39.75142,1523.28],[-120.65468,39.75145,1523.8],[-120.65457,39.75155,1523.64],[-120.65457,39.75168,1523.03],[-120.65461,39.75234,1520.24],[-120.65458,39.75249,1520.09],[-120.65461,39.75257,1519.47],[-120.6546,39.75262,1519.5],[-120.65474,39.75311,1516.75],[-120.65474,39.75319,1516.29],[-120.65469,39.7539,1509.23],[-120.65463,39.75425,1507.46],[-120.65453,39.75448,1507.61],[-120.65445,39.7546,1508.55],[-120.65426,39.75514,1506.52],[-120.65422,39.75522,1506.1],[-120.65418,39.75537,1504.88],[-120.65411,39.75549,1505.06],[-120.6541,39.75554,1504.7],[-120.65388,39.75592,1501.9],[-120.65374,39.75611,1500.79],[-120.65351,39.75651,1497.87],[-120.6533,39.75673,1496.81],[-120.65311,39.75686,1495.98],[-120.65278,39.75702,1495.96],[-120.65253,39.75708,1496.46],[-120.65229,39.75717,1496.19],[-120.65186,39.75727,1495.84],[-120.65137,39.75752,1493.33],[-120.65086,39.75765,1493.33],[-120.65079,39.75765,1493.42],[-120.65058,39.75768,1493.33],[-120.6503,39.75775,1492.86],[-120.65002,39.75786,1491.61],[-120.64991,39.75786,1492.03],[-120.64971,39.75794,1491.37],[-120.64965,39.75798,1490.97],[-120.64929,39.75801,1490.94],[-120.64911,39.75805,1490.44],[-120.64899,39.75804,1490.92],[-120.6487,39.75804,1491.64],[-120.64838,39.75809,1492.15],[-120.64831,39.75807,1492.71],[-120.64823,39.75808,1492.99],[-120.64809,39.75811,1493.45],[-120.64794,39.75817,1493.61],[-120.64786,39.75818,1493.84],[-120.64804,39.75813,1493.51],[-120.64721,39.75832,1493.92],[-120.64698,39.75839,1493.4],[-120.64664,39.75842,1493.79],[-120.64646,39.75847,1493.53],[-120.64624,39.7586,1492.33],[-120.64617,39.75861,1492.28],[-120.64609,39.75864,1491.82],[-120.6458,39.75864,1491.58],[-120.64551,39.75867,1491.69],[-120.64534,39.75871,1491.73],[-120.64526,39.75876,1491.53],[-120.64524,39.75874,1491.74],[-120.64514,39.75876,1491.81],[-120.6449,39.75883,1491.44],[-120.64478,39.7589,1491.16],[-120.64445,39.75893,1490.9],[-120.64422,39.75909,1489.1],[-120.64399,39.75929,1487.76],[-120.64381,39.75939,1488.5],[-120.64376,39.7594,1488.74],[-120.6437,39.75941,1488.85],[-120.64334,39.75932,1491],[-120.6433,39.75933,1490.97],[-120.6431,39.75928,1491.7],[-120.64291,39.7593,1492.14],[-120.64271,39.75924,1493.49],[-120.64255,39.75921,1494.52],[-120.6425,39.75916,1495.22],[-120.64249,39.75907,1496.11],[-120.64243,39.75899,1496.91],[-120.64242,39.75893,1497.36],[-120.64236,39.75883,1498.29],[-120.64232,39.75881,1498.6],[-120.6422,39.75882,1499.02],[-120.642,39.75888,1499.43],[-120.64191,39.75893,1499.41],[-120.64144,39.75902,1500.85],[-120.6414,39.75905,1500.72],[-120.64109,39.75912,1502],[-120.64091,39.75924,1501.27],[-120.64086,39.75931,1500.59],[-120.64082,39.75935,1500.14],[-120.64067,39.75939,1499.52],[-120.6401,39.75962,1496.97],[-120.6397,39.7598,1495.42],[-120.63942,39.75989,1494.43],[-120.63915,39.75994,1493.93],[-120.639,39.75995,1493.95],[-120.63868,39.75993,1494.74],[-120.63816,39.76002,1494.89],[-120.6381,39.76005,1494.67],[-120.6375,39.76012,1496.25],[-120.63656,39.76027,1496.28],[-120.6364,39.76029,1496.04],[-120.63612,39.76029,1495.79],[-120.63606,39.7603,1495.63],[-120.6359,39.76042,1494.34],[-120.63579,39.76045,1493.9],[-120.63566,39.76039,1494.24],[-120.63532,39.7604,1493.41],[-120.63521,39.76038,1493.27],[-120.63514,39.76031,1493.47],[-120.63501,39.76007,1494.47],[-120.63497,39.76003,1494.53],[-120.63482,39.75988,1494.64],[-120.63472,39.75983,1494.34],[-120.6346,39.75981,1493.79],[-120.63415,39.75983,1491.18],[-120.63391,39.75978,1489.43],[-120.63367,39.7597,1487.48],[-120.63364,39.75971,1487.09],[-120.63356,39.75983,1485.43],[-120.63342,39.75984,1483.45],[-120.63282,39.75967,1473.25],[-120.63226,39.75959,1461.98],[-120.63214,39.75954,1460.5],[-120.63189,39.75935,1458.34],[-120.63172,39.75926,1456.11],[-120.63143,39.75914,1452.14],[-120.63127,39.75908,1449.85],[-120.63118,39.75906,1448.18],[-120.63109,39.7591,1446.41],[-120.63092,39.75921,1443.33],[-120.63057,39.75948,1437.82],[-120.63047,39.75953,1436.58],[-120.63014,39.75976,1430.69],[-120.62994,39.75986,1428.87],[-120.62976,39.76003,1424.79],[-120.62962,39.76025,1420.18],[-120.6291,39.76059,1415.17],[-120.62903,39.76059,1414.93],[-120.6288,39.76056,1410.58],[-120.62859,39.76056,1406.84],[-120.62846,39.76057,1404.99],[-120.62811,39.76068,1404.51],[-120.62788,39.76072,1403.37],[-120.62739,39.76097,1400.92],[-120.62714,39.76115,1395.87],[-120.62706,39.76118,1394.96],[-120.62689,39.7612,1392.94],[-120.62682,39.76118,1392.43],[-120.62677,39.76114,1391.8],[-120.62673,39.76098,1391.16],[-120.62675,39.76093,1391.43],[-120.62687,39.76082,1391.33],[-120.62696,39.76077,1391.51],[-120.62713,39.76071,1393.3],[-120.62732,39.76067,1395.79],[-120.62738,39.76052,1390.15],[-120.62763,39.76048,1391.7],[-120.62795,39.76038,1391.14],[-120.62798,39.76041,1392.94],[-120.62782,39.7604,1390.04],[-120.62775,39.76041,1389.51],[-120.62757,39.76048,1390.87],[-120.62752,39.76047,1389.65],[-120.62734,39.7605,1388.61],[-120.62727,39.76049,1387.32],[-120.62656,39.76061,1383.47],[-120.6265,39.76065,1383.59],[-120.62604,39.76087,1381.04],[-120.62587,39.76097,1379.56],[-120.62574,39.76113,1377.93],[-120.62562,39.76135,1374.77],[-120.62542,39.7618,1371.51],[-120.62536,39.7619,1371.05],[-120.62526,39.7623,1368.72],[-120.62522,39.76239,1367.47],[-120.62513,39.7629,1361.78],[-120.6251,39.76299,1360.49],[-120.62499,39.76305,1358.96],[-120.62464,39.76341,1354.01],[-120.62446,39.76357,1352.65],[-120.62437,39.76364,1352.19],[-120.62393,39.76412,1349.04],[-120.62382,39.76421,1348.14],[-120.62348,39.7646,1345.64],[-120.62332,39.76475,1345.44],[-120.62306,39.76508,1344.69],[-120.62243,39.76581,1341.7],[-120.62218,39.76605,1340.54],[-120.6219,39.7664,1338.31],[-120.6218,39.76649,1337.64],[-120.62164,39.76668,1336.25],[-120.62144,39.76686,1334.87],[-120.62117,39.76694,1333.85],[-120.621,39.76692,1333.72],[-120.62086,39.76694,1333.43],[-120.62077,39.76703,1332.9],[-120.62047,39.76719,1331.97],[-120.62025,39.76727,1331.22],[-120.62007,39.76736,1330.64],[-120.61999,39.76739,1330.6],[-120.61964,39.76744,1331.08],[-120.61952,39.76748,1331.5],[-120.61948,39.76753,1331.62],[-120.61947,39.76757,1331.59],[-120.61948,39.76783,1331.1],[-120.61947,39.76793,1330.89],[-120.61961,39.76817,1330.17]]}}
