{"type":"Feature","properties":{"name":"Lakes Basin Intense Explore","sourceLabel":"Trailforks route plan","sourceUrl":"https://www.trailforks.com/ridelog/planner/view/601617/","retrievedAt":"2026-09-28","gpxSha256":"94f9e1c423f2557015b8348103a36585d63944fda2ebb79beea07f2bc76fe4e6","dataUsePolicy":"https://www.trailforks.com/about/data/","licenseNote":"Downloaded through the source page export. No agreement checkbox was presented for this ride-log or route-plan export. Trailforks attribution retained; commercial permission has not been established.","elevationSource":"AWS Terrain Tiles / USGS (export contains zero elevations)","repair":{"type":"close-loop","date":"2026-09-29","originalCoordinatesSha256":"b857e4d75db116cbde42282423f35037a9ad016b11eebefefb0dd123308363c7","originalPointCount":1942,"closureDistanceM":33.87973279846849,"method":"Append the first point to join the finish to the start across the approximately 34 m recording gap, as requested by Brian. Every original coordinate and elevation is retained."}},"geometry":{"type":"LineString","coordinates":[[-120.66706,39.69861,1929.87],[-120.66699,39.69852,1930.02],[-120.66691,39.69847,1929.98],[-120.6669,39.69837,1930.47],[-120.66687,39.69824,1931.08],[-120.66672,39.69814,1931.21],[-120.66664,39.69792,1932.42],[-120.66671,39.69765,1934.75],[-120.66677,39.69748,1936.09],[-120.66695,39.69726,1937.31],[-120.66696,39.69725,1937.36],[-120.66696,39.69725,1937.36],[-120.66699,39.69715,1937.97],[-120.667,39.69705,1938.61],[-120.66685,39.697,1939.8],[-120.66677,39.69691,1941.67],[-120.66673,39.69676,1944.43],[-120.66677,39.69664,1946.61],[-120.66673,39.69652,1949.64],[-120.66681,39.6964,1951.89],[-120.66679,39.69627,1955.58],[-120.66671,39.6962,1958.35],[-120.66659,39.6962,1959.64],[-120.66638,39.6962,1960.73],[-120.66624,39.69613,1961.61],[-120.6662,39.69606,1963.16],[-120.66614,39.69599,1964.58],[-120.66615,39.69594,1965.63],[-120.66622,39.69595,1965.99],[-120.66634,39.696,1965.64],[-120.66637,39.69597,1966.62],[-120.66635,39.6959,1967.5],[-120.66629,39.69587,1967.42],[-120.66624,39.69579,1967.94],[-120.66624,39.69572,1968.74],[-120.66627,39.69563,1969.89],[-120.66617,39.69544,1969.68],[-120.66614,39.69537,1970],[-120.66618,39.69525,1972.68],[-120.66621,39.6951,1976.31],[-120.66616,39.69498,1977.65],[-120.66578,39.69477,1972.01],[-120.66557,39.69459,1974.01],[-120.66546,39.69449,1975.08],[-120.66532,39.69432,1977.33],[-120.66527,39.69427,1977.37],[-120.66529,39.69419,1978.64],[-120.66533,39.69376,1978.18],[-120.6654,39.69347,1975.79],[-120.6655,39.69326,1975.65],[-120.66548,39.69312,1974.93],[-120.66562,39.69301,1976.68],[-120.66568,39.69298,1977.39],[-120.66592,39.69287,1979.31],[-120.66609,39.69273,1979.41],[-120.66622,39.69253,1978.25],[-120.66633,39.69242,1978.45],[-120.66649,39.69236,1979.2],[-120.6667,39.69238,1980.45],[-120.66686,39.69237,1981.01],[-120.66701,39.69232,1980.84],[-120.66723,39.69226,1980.85],[-120.66745,39.69227,1982.08],[-120.6676,39.69221,1982.7],[-120.66776,39.69209,1982.68],[-120.66785,39.69197,1981.93],[-120.66795,39.69195,1982.26],[-120.66816,39.69186,1982.24],[-120.66842,39.69177,1981.14],[-120.66856,39.69181,1981.56],[-120.66883,39.69173,1980.57],[-120.66898,39.69175,1980.74],[-120.6691,39.69172,1980.45],[-120.66914,39.69168,1980.07],[-120.66923,39.69162,1979.45],[-120.66931,39.69163,1979.4],[-120.66938,39.69165,1979.46],[-120.66942,39.69171,1979.88],[-120.66948,39.69177,1980.23],[-120.66948,39.69177,1980.23],[-120.6695,39.69186,1980.92],[-120.66946,39.69193,1981.57],[-120.66944,39.69202,1982.52],[-120.66947,39.69205,1982.95],[-120.66952,39.69205,1982.86],[-120.66955,39.69202,1982.31],[-120.66962,39.692,1981.8],[-120.66969,39.69201,1981.81],[-120.66976,39.69201,1981.64],[-120.66978,39.69204,1982.16],[-120.66976,39.6921,1983.32],[-120.66966,39.69219,1985.07],[-120.66966,39.69226,1986.31],[-120.66968,39.69229,1987.33],[-120.66972,39.69229,1987.31],[-120.66983,39.69224,1985.9],[-120.66994,39.69222,1985.27],[-120.67008,39.69224,1985.09],[-120.67028,39.69228,1984.91],[-120.67045,39.69225,1983.55],[-120.67066,39.69223,1982.57],[-120.67089,39.69223,1981.99],[-120.67096,39.69229,1982.21],[-120.67115,39.69237,1982.46],[-120.67154,39.69245,1982.78],[-120.67179,39.69242,1983.01],[-120.67212,39.69244,1984.26],[-120.67252,39.69246,1986.09],[-120.67288,39.69241,1987.48],[-120.67303,39.69243,1988.91],[-120.6732,39.69237,1990.1],[-120.67344,39.69231,1993],[-120.67356,39.69232,1995.7],[-120.67399,39.69234,2003.54],[-120.67453,39.69244,2007.68],[-120.67483,39.69253,2008.67],[-120.67511,39.69251,2008.54],[-120.67527,39.69255,2008.96],[-120.67555,39.69255,2008.84],[-120.67579,39.69261,2008.95],[-120.67607,39.6927,2009.17],[-120.67612,39.69281,2009.88],[-120.6761,39.69288,2010.83],[-120.67611,39.69293,2011.51],[-120.67615,39.69295,2011.69],[-120.67634,39.69293,2011.08],[-120.6765,39.6929,2011.32],[-120.67668,39.69291,2012.42],[-120.67691,39.69303,2015.5],[-120.677,39.69313,2017.89],[-120.67706,39.69327,2020.22],[-120.67711,39.69334,2021.69],[-120.67724,39.69336,2023.46],[-120.67728,39.6934,2024.28],[-120.67742,39.69351,2025.97],[-120.67746,39.69355,2026.42],[-120.67742,39.69374,2028.09],[-120.67754,39.69378,2029.05],[-120.6776,39.69383,2029.72],[-120.67775,39.6939,2030.57],[-120.67787,39.69397,2031.39],[-120.67799,39.69407,2031.8],[-120.67813,39.69413,2031.79],[-120.67814,39.6942,2030.93],[-120.67814,39.69422,2030.67],[-120.67814,39.69422,2030.67],[-120.67835,39.6941,2033.13],[-120.67844,39.69407,2034.05],[-120.67852,39.69405,2034.99],[-120.67862,39.69403,2036.23],[-120.67869,39.69401,2037.27],[-120.67885,39.69397,2039.86],[-120.67895,39.69394,2042.01],[-120.67904,39.69388,2045.31],[-120.67909,39.69382,2047.19],[-120.67912,39.69377,2047.46],[-120.67915,39.69371,2047.69],[-120.67919,39.69363,2047.77],[-120.67935,39.69292,2045.02],[-120.67926,39.69284,2044.29],[-120.67921,39.69281,2043.8],[-120.67922,39.69237,2040.96],[-120.67936,39.69241,2043.36],[-120.67957,39.69232,2044.65],[-120.67984,39.69223,2046.14],[-120.68024,39.69225,2047.86],[-120.68095,39.69237,2054.58],[-120.68101,39.69242,2056.42],[-120.68137,39.69257,2062.87],[-120.68148,39.69256,2064.1],[-120.68163,39.69255,2065.94],[-120.6818,39.69254,2068.23],[-120.68198,39.69259,2069.87],[-120.6821,39.69256,2071.87],[-120.6822,39.69252,2073.91],[-120.68225,39.69241,2075.09],[-120.68236,39.6922,2076.96],[-120.68253,39.69188,2079.08],[-120.68257,39.69178,2080.29],[-120.68263,39.69173,2082.35],[-120.68284,39.69163,2089.76],[-120.68296,39.69156,2094],[-120.6831,39.69155,2098.21],[-120.68319,39.69156,2100.84],[-120.68323,39.69161,2101.8],[-120.68329,39.69169,2102.98],[-120.68341,39.69176,2104.57],[-120.68344,39.6918,2104.6],[-120.68347,39.69184,2104.56],[-120.68351,39.6919,2104.29],[-120.68356,39.69193,2104.42],[-120.6836,39.69195,2104.53],[-120.68366,39.69197,2104.51],[-120.68373,39.692,2104.3],[-120.68377,39.69203,2104.33],[-120.68384,39.69207,2104.53],[-120.68389,39.69211,2104.69],[-120.68394,39.69214,2104.92],[-120.684,39.69215,2105.09],[-120.68404,39.69217,2105.14],[-120.68407,39.69221,2105.12],[-120.68408,39.69225,2105.05],[-120.68412,39.69227,2105.25],[-120.68419,39.69229,2105.72],[-120.68425,39.69231,2106.11],[-120.68431,39.69233,2106.41],[-120.68436,39.69234,2106.46],[-120.68441,39.69233,2106.22],[-120.68449,39.6923,2105.79],[-120.68451,39.69226,2105.46],[-120.68453,39.69222,2105.66],[-120.68457,39.6922,2105.8],[-120.68463,39.69219,2105.91],[-120.68469,39.69219,2106.02],[-120.68476,39.69218,2106.22],[-120.68482,39.6922,2106.24],[-120.68488,39.69223,2106.19],[-120.68494,39.69224,2106.26],[-120.68497,39.69227,2106.15],[-120.68499,39.69231,2105.9],[-120.68499,39.69235,2105.62],[-120.685,39.6924,2105.25],[-120.68502,39.69246,2104.75],[-120.68505,39.69252,2104.17],[-120.68508,39.69256,2103.97],[-120.68511,39.6926,2103.76],[-120.68515,39.69263,2103.44],[-120.68519,39.69265,2103.08],[-120.68521,39.69268,2102.81],[-120.68523,39.69271,2102.5],[-120.68524,39.69276,2102.16],[-120.68528,39.69278,2101.61],[-120.68533,39.6928,2100.99],[-120.68538,39.69283,2100.62],[-120.68543,39.69283,2100.19],[-120.68549,39.69285,2099.59],[-120.68554,39.69288,2098.96],[-120.68561,39.69289,2098.15],[-120.68566,39.69291,2097.41],[-120.68572,39.69296,2097.07],[-120.68578,39.69299,2096.94],[-120.68585,39.69301,2096.83],[-120.68592,39.69308,2095.34],[-120.68599,39.69315,2093.43],[-120.68605,39.69322,2091.64],[-120.68609,39.69327,2090.28],[-120.68613,39.69331,2088.92],[-120.68617,39.69336,2087.37],[-120.68622,39.69339,2086.2],[-120.68627,39.69343,2084.41],[-120.68631,39.69346,2082.82],[-120.68634,39.69349,2081.18],[-120.68638,39.69352,2079.61],[-120.68644,39.69354,2078.82],[-120.68646,39.69357,2077.42],[-120.68645,39.6936,2076.4],[-120.6864,39.69363,2075.76],[-120.68635,39.69365,2075.64],[-120.68631,39.69368,2075.97],[-120.68634,39.69372,2074.51],[-120.68638,39.69374,2073.54],[-120.68641,39.69375,2073.15],[-120.6865,39.69377,2072.09],[-120.68658,39.69379,2070.96],[-120.68664,39.69383,2069.26],[-120.68671,39.69388,2067.37],[-120.68674,39.69393,2066.29],[-120.68676,39.69398,2065.09],[-120.6868,39.69402,2064.09],[-120.68687,39.69406,2062.93],[-120.68699,39.69413,2060.38],[-120.68711,39.69417,2058.45],[-120.68727,39.69418,2057.75],[-120.68745,39.6942,2056.49],[-120.68763,39.69423,2054.52],[-120.6878,39.69426,2052.58],[-120.68792,39.69428,2051.03],[-120.68804,39.69431,2049.13],[-120.68811,39.69432,2048.24],[-120.68814,39.69431,2048.3],[-120.68817,39.69433,2047.46],[-120.68817,39.69436,2046.56],[-120.68815,39.69438,2046.14],[-120.68814,39.69443,2045],[-120.68812,39.69448,2043.96],[-120.68814,39.69451,2043.06],[-120.6882,39.69452,2042.28],[-120.68827,39.69453,2041.4],[-120.68836,39.69452,2040.85],[-120.68845,39.69455,2039.48],[-120.68853,39.69457,2038.82],[-120.68863,39.69456,2038.92],[-120.68871,39.69455,2039.07],[-120.6888,39.69455,2038.8],[-120.68889,39.69456,2038.09],[-120.689,39.69458,2037.07],[-120.68908,39.69458,2036.7],[-120.6892,39.69458,2035.19],[-120.6893,39.69458,2033.72],[-120.6894,39.69459,2031.97],[-120.68951,39.69464,2029.73],[-120.68959,39.69467,2028.82],[-120.68973,39.69468,2028.29],[-120.68984,39.69471,2027.69],[-120.6899,39.69479,2025.59],[-120.68993,39.69485,2023.83],[-120.68999,39.6949,2022.73],[-120.69005,39.69497,2020.74],[-120.69013,39.69507,2017.37],[-120.69018,39.69513,2015.96],[-120.69021,39.69521,2014.43],[-120.69019,39.69527,2012.93],[-120.69018,39.69533,2011.69],[-120.69022,39.69534,2012.31],[-120.69028,39.69538,2012.7],[-120.69035,39.69544,2012.83],[-120.69037,39.69554,2012.32],[-120.6904,39.69564,2011.71],[-120.69045,39.69571,2011.38],[-120.69055,39.69577,2011.83],[-120.69065,39.6958,2012.2],[-120.69073,39.69588,2010.82],[-120.69081,39.69594,2009.1],[-120.69086,39.69599,2008.79],[-120.69092,39.69607,2009.04],[-120.69095,39.69615,2008.81],[-120.69096,39.69624,2008.41],[-120.69098,39.69634,2008.89],[-120.69101,39.69645,2009.42],[-120.69105,39.69656,2009.87],[-120.69111,39.69666,2010.37],[-120.69115,39.69675,2010.79],[-120.69118,39.69686,2011.59],[-120.69118,39.69694,2011.88],[-120.69114,39.69705,2011.87],[-120.6911,39.69712,2012.22],[-120.69105,39.69719,2012.52],[-120.69102,39.69727,2013.07],[-120.69101,39.69737,2014.74],[-120.69091,39.69749,2016.23],[-120.69081,39.69761,2018.06],[-120.69069,39.69777,2020.62],[-120.69056,39.6979,2022.06],[-120.69047,39.698,2023.1],[-120.69039,39.69811,2024.47],[-120.69037,39.69816,2025],[-120.69034,39.69822,2025.55],[-120.69031,39.69829,2026.21],[-120.69029,39.69834,2026.63],[-120.69031,39.69837,2026.75],[-120.69035,39.69839,2027.12],[-120.69039,39.69838,2027.59],[-120.69044,39.69836,2028.21],[-120.69048,39.69834,2028.73],[-120.69055,39.69831,2029.43],[-120.69059,39.69826,2029.25],[-120.69062,39.69822,2029.05],[-120.69068,39.69819,2029.44],[-120.69072,39.69818,2029.85],[-120.69077,39.69816,2030.22],[-120.69082,39.69815,2030.76],[-120.69085,39.69815,2031.31],[-120.69086,39.69817,2031.87],[-120.69086,39.6982,2032.42],[-120.69086,39.69823,2032.97],[-120.69086,39.69826,2033.53],[-120.69086,39.6983,2034.27],[-120.69089,39.69833,2035.36],[-120.69093,39.69835,2036.22],[-120.69099,39.69835,2037.3],[-120.69105,39.69833,2038.24],[-120.69112,39.69831,2039.15],[-120.69118,39.69829,2039.78],[-120.69124,39.69829,2040.38],[-120.69129,39.6983,2041.06],[-120.69133,39.69832,2041.81],[-120.69138,39.69833,2042.48],[-120.69144,39.69834,2043.22],[-120.69148,39.69836,2043.74],[-120.6915,39.69839,2044.14],[-120.69151,39.69843,2044.51],[-120.69148,39.69845,2044.27],[-120.69144,39.69845,2043.79],[-120.6914,39.69847,2043.4],[-120.69136,39.69851,2043.05],[-120.69132,39.69854,2042.61],[-120.69129,39.69857,2042.28],[-120.69129,39.69859,2042.33],[-120.69132,39.6986,2042.79],[-120.69136,39.69858,2043.31],[-120.6914,39.69858,2043.89],[-120.69145,39.69859,2044.66],[-120.69149,39.69861,2045.39],[-120.69153,39.69866,2046.72],[-120.69156,39.69871,2047.98],[-120.69155,39.69878,2048.54],[-120.69155,39.69882,2048.99],[-120.69158,39.69887,2050.3],[-120.69161,39.69891,2051.5],[-120.69162,39.69896,2052.31],[-120.69161,39.69901,2052.63],[-120.6916,39.69905,2052.84],[-120.69157,39.69911,2052.8],[-120.69155,39.69915,2052.88],[-120.69152,39.6992,2053],[-120.6915,39.69927,2053.65],[-120.69148,39.69932,2053.93],[-120.69147,39.69937,2054.49],[-120.69147,39.69943,2055.61],[-120.69148,39.69946,2056.46],[-120.69151,39.69947,2057.42],[-120.69155,39.69945,2057.94],[-120.69158,39.69943,2058.22],[-120.69164,39.6994,2058.97],[-120.6917,39.69936,2059.65],[-120.69176,39.69933,2060.54],[-120.69181,39.69931,2061.36],[-120.69185,39.69929,2061.97],[-120.69187,39.69926,2062.12],[-120.69188,39.69921,2061.72],[-120.69187,39.69914,2060.43],[-120.6919,39.69911,2061.07],[-120.69194,39.69911,2062.38],[-120.69197,39.69914,2063.64],[-120.692,39.69916,2064.84],[-120.69203,39.69919,2066.13],[-120.69205,39.69924,2067.29],[-120.69205,39.69928,2067.72],[-120.69205,39.69932,2068.14],[-120.69202,39.69937,2067.85],[-120.692,39.69941,2067.9],[-120.69197,39.69944,2067.71],[-120.69194,39.69947,2067.5],[-120.69191,39.69952,2067.7],[-120.69189,39.69955,2067.76],[-120.69185,39.6996,2067.66],[-120.6918,39.69964,2067.32],[-120.69177,39.69967,2067.22],[-120.69172,39.6997,2066.62],[-120.69167,39.69973,2065.98],[-120.69167,39.69976,2066.52],[-120.69171,39.69976,2067.49],[-120.69176,39.69974,2068.33],[-120.69182,39.69972,2069.38],[-120.6919,39.69971,2071.4],[-120.69196,39.69969,2072.74],[-120.69203,39.69969,2074.82],[-120.69205,39.69969,2075.41],[-120.6921,39.69968,2076.62],[-120.69217,39.69968,2078.67],[-120.69222,39.69967,2080.02],[-120.69226,39.69966,2081.18],[-120.69232,39.69964,2082.97],[-120.69236,39.69961,2083.85],[-120.69239,39.69957,2084.17],[-120.6924,39.69953,2083.75],[-120.69244,39.6995,2084.7],[-120.69248,39.69947,2085.68],[-120.69252,39.69943,2086.49],[-120.69254,39.69938,2086.69],[-120.69258,39.69936,2088.69],[-120.6926,39.69938,2089.56],[-120.69262,39.69943,2091.05],[-120.69263,39.69947,2092.18],[-120.69262,39.69951,2092.4],[-120.69259,39.69957,2092.08],[-120.69257,39.69962,2092.09],[-120.69258,39.69967,2093.66],[-120.69259,39.69971,2095.66],[-120.69257,39.69975,2096.46],[-120.69255,39.69981,2098.13],[-120.69251,39.69984,2097.74],[-120.69245,39.69988,2096.74],[-120.6924,39.69991,2095.68],[-120.69236,39.69997,2095.59],[-120.69235,39.70002,2096.43],[-120.6923,39.70008,2095.65],[-120.69227,39.70015,2095.98],[-120.69227,39.70022,2097.6],[-120.69228,39.7003,2099.73],[-120.69228,39.70035,2100.77],[-120.69226,39.7004,2101.01],[-120.69224,39.70045,2101.34],[-120.69224,39.70051,2103.15],[-120.69226,39.70059,2106.17],[-120.69228,39.70064,2108.14],[-120.69231,39.70068,2109.94],[-120.69235,39.70071,2111.57],[-120.69236,39.70076,2112.86],[-120.69234,39.7008,2113.34],[-120.69229,39.70084,2113.36],[-120.69221,39.70089,2113.28],[-120.69214,39.70093,2112.84],[-120.69206,39.70097,2112.15],[-120.69199,39.701,2111.46],[-120.69191,39.70101,2110.03],[-120.69188,39.70105,2110.62],[-120.69182,39.70107,2109.93],[-120.69173,39.70111,2109.18],[-120.69159,39.70118,2108.63],[-120.69149,39.70125,2109.16],[-120.69141,39.70132,2109.67],[-120.69135,39.70139,2110.72],[-120.69131,39.70144,2111.58],[-120.69125,39.70147,2111.34],[-120.69118,39.70148,2110.2],[-120.69115,39.70151,2110.7],[-120.69111,39.70155,2111.32],[-120.69109,39.70158,2111.98],[-120.6911,39.7016,2112.83],[-120.69113,39.70161,2113.69],[-120.6912,39.70159,2114.36],[-120.69128,39.70157,2115.36],[-120.69135,39.70155,2116.16],[-120.69143,39.70153,2117.18],[-120.6915,39.7015,2117.67],[-120.69156,39.70149,2118.81],[-120.69158,39.70152,2120.33],[-120.69154,39.70155,2120.29],[-120.69147,39.70159,2119.95],[-120.6914,39.70161,2119.15],[-120.69136,39.70165,2119.64],[-120.69129,39.70171,2120.18],[-120.69121,39.70174,2119.56],[-120.69115,39.70178,2119.74],[-120.69109,39.70183,2120.36],[-120.69102,39.7019,2121.35],[-120.69093,39.70197,2121.84],[-120.69087,39.70201,2121.87],[-120.69081,39.70204,2121.58],[-120.69076,39.70209,2122.43],[-120.69071,39.70214,2123.41],[-120.69073,39.70212,2123],[-120.69067,39.70222,2125.89],[-120.69065,39.70224,2126.39],[-120.69062,39.70226,2126.78],[-120.69058,39.7023,2127.91],[-120.69051,39.70233,2128.2],[-120.69046,39.70234,2128.12],[-120.6904,39.70235,2128.16],[-120.69035,39.70236,2128.2],[-120.69033,39.70237,2128.37],[-120.69031,39.7024,2129.1],[-120.69029,39.70244,2130.02],[-120.69029,39.70247,2130.84],[-120.69026,39.70263,2133.46],[-120.69032,39.70266,2135.14],[-120.69036,39.70272,2136.89],[-120.69038,39.70276,2137.99],[-120.6904,39.70279,2139.01],[-120.69043,39.70283,2140.52],[-120.69046,39.70286,2141.56],[-120.69046,39.70286,2141.56],[-120.69058,39.70283,2143.77],[-120.69062,39.70281,2144.04],[-120.69065,39.70279,2144.1],[-120.69069,39.70277,2144.28],[-120.69071,39.70275,2144.13],[-120.69074,39.70274,2144.35],[-120.69077,39.70272,2144.3],[-120.6908,39.7027,2144.24],[-120.69082,39.70269,2144.26],[-120.69086,39.70267,2144.27],[-120.69089,39.70265,2144.13],[-120.69093,39.70263,2144.12],[-120.69096,39.7026,2143.69],[-120.691,39.70258,2143.65],[-120.69104,39.70256,2143.58],[-120.69107,39.70238,2138.22],[-120.6911,39.70236,2138.11],[-120.69112,39.70235,2138.15],[-120.69115,39.70232,2137.78],[-120.69118,39.70231,2138.08],[-120.69121,39.70229,2138.08],[-120.69125,39.70226,2137.92],[-120.69128,39.70224,2137.87],[-120.69132,39.70222,2138.03],[-120.69136,39.7022,2138.18],[-120.6914,39.70217,2137.99],[-120.69143,39.70215,2137.92],[-120.69146,39.70213,2137.86],[-120.69149,39.70211,2137.78],[-120.69152,39.7021,2138.16],[-120.69155,39.70208,2138.42],[-120.69158,39.70206,2138.69],[-120.69161,39.70204,2138.98],[-120.69164,39.70202,2139.26],[-120.69169,39.70199,2139.83],[-120.69176,39.70196,2141.03],[-120.6918,39.70194,2141.62],[-120.69185,39.70192,2142.52],[-120.69188,39.7019,2142.8],[-120.69193,39.70188,2143.71],[-120.69201,39.70191,2147.35],[-120.692,39.70185,2144.88],[-120.69224,39.70183,2151.2],[-120.69244,39.70176,2152.03],[-120.69263,39.7017,2152.07],[-120.69281,39.70165,2153.1],[-120.69321,39.70152,2158.88],[-120.69337,39.70145,2158.92],[-120.69354,39.70131,2160.1],[-120.69363,39.70127,2159.32],[-120.69377,39.70132,2156.2],[-120.69384,39.7013,2154.59],[-120.69388,39.70113,2156.89],[-120.69394,39.70091,2161.14],[-120.69392,39.70073,2165.11],[-120.69396,39.70057,2165.36],[-120.69403,39.70039,2164.39],[-120.69415,39.70029,2163.78],[-120.69436,39.70012,2165.74],[-120.6944,39.70002,2166.32],[-120.69442,39.69981,2167.01],[-120.69453,39.69956,2171.75],[-120.69473,39.69938,2177.06],[-120.69487,39.69917,2178.45],[-120.695,39.69895,2179.62],[-120.69514,39.69887,2182.15],[-120.69519,39.69875,2182.68],[-120.6953,39.6986,2184.58],[-120.69544,39.69853,2186.29],[-120.69554,39.69846,2187.81],[-120.69567,39.69834,2189.38],[-120.69581,39.69829,2188.84],[-120.69595,39.69819,2188.58],[-120.69604,39.69799,2189],[-120.69612,39.69791,2188.57],[-120.69627,39.69778,2187.78],[-120.69629,39.69771,2188.72],[-120.69635,39.69751,2191.63],[-120.69643,39.69741,2192.13],[-120.69647,39.69737,2192.21],[-120.69657,39.69724,2192.39],[-120.69665,39.69703,2192.89],[-120.69679,39.69692,2192.07],[-120.69694,39.69684,2191.33],[-120.69701,39.69671,2192.01],[-120.69711,39.69653,2193.01],[-120.69722,39.69636,2192.69],[-120.69739,39.69625,2191.53],[-120.69737,39.69615,2191.61],[-120.69733,39.69596,2191.56],[-120.69731,39.69581,2190.7],[-120.69724,39.69563,2189.29],[-120.69714,39.6956,2188.62],[-120.69706,39.69552,2187.49],[-120.69695,39.69541,2185.08],[-120.69686,39.69528,2182.1],[-120.69682,39.69522,2180.53],[-120.69682,39.69519,2180.22],[-120.69675,39.69513,2177.99],[-120.69667,39.69509,2175.66],[-120.69656,39.69507,2171.32],[-120.69648,39.69494,2168.64],[-120.69646,39.69493,2167.99],[-120.69639,39.69498,2165.2],[-120.69634,39.69507,2162.51],[-120.69627,39.69507,2159.87],[-120.69621,39.69498,2159.08],[-120.69623,39.69495,2160.17],[-120.69608,39.69483,2158.15],[-120.69599,39.69471,2158.52],[-120.69593,39.69469,2156.88],[-120.69593,39.69472,2156.2],[-120.69588,39.69475,2153.63],[-120.69578,39.69468,2151.14],[-120.69568,39.69457,2147.84],[-120.69565,39.69455,2146.58],[-120.69559,39.69441,2143.95],[-120.69553,39.69432,2142.86],[-120.69544,39.69424,2142.01],[-120.69511,39.69413,2137.87],[-120.69495,39.69412,2134.8],[-120.69482,39.69415,2130.65],[-120.69474,39.6941,2131.73],[-120.69469,39.69409,2131.27],[-120.69459,39.6941,2128.77],[-120.69443,39.69405,2128.4],[-120.69433,39.69406,2125.94],[-120.69418,39.69407,2123.51],[-120.69382,39.69403,2124.36],[-120.69356,39.69406,2123.05],[-120.69344,39.69412,2118.81],[-120.69333,39.69414,2117.05],[-120.69331,39.69416,2115.99],[-120.69319,39.69417,2114.86],[-120.69294,39.69414,2116.18],[-120.69275,39.69408,2117.87],[-120.69257,39.69395,2119.66],[-120.69242,39.69388,2117.49],[-120.69222,39.69372,2115.5],[-120.69211,39.69371,2112.86],[-120.69204,39.69368,2111.68],[-120.69194,39.69352,2111.88],[-120.69184,39.69346,2109.51],[-120.69174,39.69336,2106.74],[-120.69161,39.69315,2104.91],[-120.69146,39.69303,2103.27],[-120.69128,39.693,2103.22],[-120.69112,39.69302,2101.61],[-120.69087,39.69312,2097.16],[-120.69064,39.69314,2098.19],[-120.69051,39.69312,2101.05],[-120.69049,39.6931,2102.65],[-120.69049,39.69302,2107.65],[-120.69046,39.69284,2117.58],[-120.69064,39.69267,2125.98],[-120.69063,39.69256,2130.93],[-120.69057,39.69251,2131.96],[-120.69022,39.69235,2134.62],[-120.69012,39.69223,2137.6],[-120.68997,39.69222,2138.73],[-120.68948,39.69203,2139.8],[-120.6894,39.69195,2139.47],[-120.68931,39.6919,2139.03],[-120.68915,39.69178,2138.13],[-120.68901,39.69171,2137.11],[-120.68894,39.6917,2136.67],[-120.68877,39.69173,2136.43],[-120.68848,39.69168,2132.28],[-120.68844,39.69164,2131.28],[-120.68841,39.69158,2130.19],[-120.68831,39.69144,2127.56],[-120.68827,39.69129,2124.94],[-120.68812,39.6911,2120.76],[-120.68792,39.69107,2118],[-120.68771,39.69115,2117.02],[-120.68767,39.69115,2116.34],[-120.68749,39.69099,2111.21],[-120.68737,39.69076,2110.46],[-120.68728,39.69077,2111.51],[-120.6872,39.69075,2112.76],[-120.68716,39.69064,2115.4],[-120.68713,39.69059,2117.31],[-120.68709,39.69057,2118.71],[-120.687,39.69054,2121.41],[-120.68663,39.69077,2120.13],[-120.68646,39.69079,2119.94],[-120.68613,39.691,2114.6],[-120.68585,39.69099,2114.56],[-120.68568,39.69102,2113.45],[-120.6855,39.69098,2116.06],[-120.68531,39.69097,2117.95],[-120.68511,39.69105,2117.62],[-120.68508,39.69107,2117.4],[-120.68496,39.69115,2116.54],[-120.68458,39.69129,2116.22],[-120.6844,39.69133,2116.24],[-120.68416,39.69143,2114.57],[-120.68398,39.69152,2113.22],[-120.68376,39.69166,2109.97],[-120.68363,39.69171,2108.72],[-120.68344,39.69174,2105.29],[-120.68341,39.69176,2104.57],[-120.68329,39.69169,2102.98],[-120.68323,39.69161,2101.8],[-120.68319,39.69156,2100.84],[-120.6831,39.69155,2098.21],[-120.68296,39.69156,2094],[-120.68284,39.69163,2089.76],[-120.68263,39.69173,2082.35],[-120.68257,39.69178,2080.29],[-120.68253,39.69188,2079.08],[-120.68236,39.6922,2076.96],[-120.68225,39.69241,2075.09],[-120.6822,39.69252,2073.91],[-120.6821,39.69256,2071.87],[-120.68197,39.69256,2070.2],[-120.68171,39.69254,2067.05],[-120.68151,39.69255,2064.46],[-120.68132,39.69257,2062.32],[-120.68117,39.69259,2060.64],[-120.6811,39.69256,2059.71],[-120.68106,39.6925,2058.65],[-120.68099,39.69239,2055.55],[-120.68091,39.69234,2053.39],[-120.68072,39.69227,2050.16],[-120.68047,39.69226,2048.41],[-120.68025,39.69226,2048.1],[-120.68007,39.69224,2047.16],[-120.67993,39.69221,2046.04],[-120.6798,39.69223,2045.73],[-120.67971,39.69227,2045.48],[-120.67955,39.69232,2044.43],[-120.67944,39.69238,2043.97],[-120.67933,39.69242,2043.11],[-120.6793,39.69253,2044.24],[-120.6792,39.69268,2043.4],[-120.67918,39.69274,2043.34],[-120.67921,39.69281,2043.8],[-120.67931,39.69287,2044.76],[-120.67937,39.69295,2045.12],[-120.67942,39.69309,2045.33],[-120.67948,39.69318,2046.23],[-120.67952,39.69328,2046.82],[-120.67949,39.69333,2046.97],[-120.67935,39.6934,2046.78],[-120.67925,39.69351,2047.35],[-120.6791,39.69381,2047.31],[-120.67907,39.69387,2046.15],[-120.67896,39.69394,2042.15],[-120.67881,39.69397,2039.36],[-120.67858,39.69404,2035.68],[-120.6784,39.69408,2033.68],[-120.67821,39.69413,2032.04],[-120.67815,39.69416,2031.45],[-120.67814,39.69422,2030.67],[-120.67805,39.69432,2029.9],[-120.67787,39.69444,2029.81],[-120.67773,39.69457,2030.31],[-120.67736,39.69478,2029.72],[-120.67709,39.69498,2026.8],[-120.67692,39.69514,2024.92],[-120.67672,39.69529,2025.34],[-120.67667,39.6954,2024.65],[-120.67664,39.69552,2023.4],[-120.67648,39.69579,2022.92],[-120.67639,39.69595,2020.71],[-120.67621,39.69613,2018.76],[-120.67607,39.69629,2017.88],[-120.67598,39.69644,2016.14],[-120.67583,39.69662,2014.22],[-120.67556,39.6968,2011],[-120.67544,39.69692,2009.95],[-120.67517,39.69704,2009.47],[-120.67498,39.69711,2007.78],[-120.67489,39.69722,2004.79],[-120.67474,39.69732,2000.2],[-120.6746,39.69745,1996.44],[-120.67459,39.69763,1994.02],[-120.67451,39.69767,1992.98],[-120.67439,39.69767,1991.9],[-120.67428,39.69769,1990.62],[-120.67427,39.69767,1990.71],[-120.67421,39.69765,1990.25],[-120.67412,39.69758,1989.89],[-120.67393,39.69753,1988.21],[-120.67373,39.6975,1986.12],[-120.67343,39.69749,1983.33],[-120.67326,39.69749,1981.73],[-120.67315,39.69742,1981.05],[-120.673,39.69729,1979.92],[-120.67292,39.69724,1979.78],[-120.6728,39.69724,1978.35],[-120.67266,39.69731,1975.77],[-120.67257,39.69735,1975.25],[-120.67238,39.69737,1974.89],[-120.67215,39.69737,1974.73],[-120.67201,39.69742,1974.27],[-120.67183,39.69756,1972.9],[-120.67173,39.6977,1972.15],[-120.67169,39.69786,1971.76],[-120.67166,39.69807,1972.3],[-120.67158,39.6982,1972.27],[-120.67153,39.69827,1971.83],[-120.67134,39.69839,1969.27],[-120.67117,39.6985,1967.17],[-120.671,39.6986,1964.4],[-120.67073,39.69869,1960.58],[-120.67043,39.6987,1955.61],[-120.67019,39.69877,1952.83],[-120.67006,39.69873,1951.61],[-120.66999,39.69864,1950.71],[-120.66988,39.69858,1950.62],[-120.66975,39.69862,1949.58],[-120.66961,39.6986,1949.3],[-120.66949,39.6986,1948.4],[-120.66938,39.69865,1945.93],[-120.66929,39.69865,1944.59],[-120.66915,39.69858,1943.74],[-120.6689,39.69853,1940.19],[-120.66871,39.69855,1938.56],[-120.66848,39.69853,1937.71],[-120.66832,39.69855,1936.95],[-120.66813,39.6986,1935.99],[-120.66791,39.69865,1934.73],[-120.66778,39.69868,1933.99],[-120.66754,39.6987,1932.63],[-120.66734,39.69868,1931.4],[-120.66727,39.69866,1930.97],[-120.66706,39.69861,1929.87],[-120.66699,39.69852,1930.02],[-120.66691,39.69847,1929.98],[-120.6669,39.69837,1930.47],[-120.66687,39.69824,1931.08],[-120.66672,39.69814,1931.21],[-120.66664,39.69792,1932.42],[-120.66671,39.69765,1934.75],[-120.66677,39.69748,1936.09],[-120.66695,39.69726,1937.31],[-120.66699,39.69715,1937.97],[-120.667,39.69705,1938.61],[-120.66685,39.697,1939.8],[-120.66677,39.69691,1941.67],[-120.66673,39.69676,1944.43],[-120.66677,39.69664,1946.61],[-120.66673,39.69652,1949.64],[-120.66681,39.6964,1951.89],[-120.66679,39.69627,1955.58],[-120.66671,39.6962,1958.35],[-120.66659,39.6962,1959.64],[-120.66638,39.6962,1960.73],[-120.66624,39.69613,1961.61],[-120.6662,39.69606,1963.16],[-120.66614,39.69599,1964.58],[-120.66615,39.69594,1965.63],[-120.66622,39.69595,1965.99],[-120.66634,39.696,1965.64],[-120.66637,39.69597,1966.62],[-120.66635,39.6959,1967.5],[-120.66629,39.69587,1967.42],[-120.66624,39.69579,1967.94],[-120.66624,39.69572,1968.74],[-120.66627,39.69563,1969.89],[-120.66617,39.69544,1969.68],[-120.66614,39.69537,1970],[-120.66618,39.69525,1972.68],[-120.66621,39.6951,1976.31],[-120.66616,39.69498,1977.65],[-120.66578,39.69477,1972.01],[-120.66546,39.69449,1975.08],[-120.66532,39.69432,1977.33],[-120.66527,39.69427,1977.37],[-120.66529,39.69419,1978.64],[-120.66533,39.69376,1978.18],[-120.66538,39.69357,1976.55],[-120.66545,39.69353,1977.38],[-120.6655,39.69336,1976.29],[-120.66555,39.69326,1976.49],[-120.6656,39.69294,1976.18],[-120.66565,39.69291,1976.71],[-120.66579,39.69287,1978.13],[-120.66595,39.69284,1979.34],[-120.66601,39.69279,1979.42],[-120.66608,39.69273,1979.33],[-120.66611,39.69269,1979.12],[-120.66615,39.69263,1978.79],[-120.66619,39.69258,1978.56],[-120.66628,39.69247,1978.36],[-120.66644,39.69238,1979.05],[-120.66634,39.69207,1977.57],[-120.66621,39.692,1977.02],[-120.66619,39.69195,1977.16],[-120.66618,39.69189,1977.41],[-120.666,39.69182,1977.25],[-120.66595,39.69177,1977.41],[-120.6659,39.69172,1977.65],[-120.66507,39.6918,1975.27],[-120.66495,39.69186,1976.49],[-120.66486,39.6919,1977.28],[-120.66476,39.69196,1977.77],[-120.66468,39.69202,1978.01],[-120.66462,39.69206,1978.36],[-120.66454,39.69211,1978.8],[-120.66447,39.69215,1979.19],[-120.66442,39.69218,1979.41],[-120.66436,39.69221,1979.53],[-120.66429,39.69225,1979.24],[-120.66423,39.69228,1979.18],[-120.66416,39.69232,1979.05],[-120.66405,39.69235,1978.92],[-120.66397,39.69234,1977.75],[-120.66369,39.69242,1970.84],[-120.66352,39.69232,1970.03],[-120.66344,39.69224,1970.16],[-120.66331,39.69214,1970.36],[-120.66319,39.69202,1971.49],[-120.66314,39.69193,1972.68],[-120.66313,39.69183,1974.62],[-120.66301,39.69175,1974.3],[-120.66293,39.6917,1974.04],[-120.66281,39.69166,1973],[-120.6627,39.69165,1971.58],[-120.6623,39.69161,1970.61],[-120.66203,39.69166,1973.07],[-120.66184,39.69164,1976.77],[-120.66172,39.69172,1979.02],[-120.66164,39.69181,1980.59],[-120.66124,39.69184,1987.9],[-120.66106,39.69199,1989.18],[-120.6609,39.6921,1990.73],[-120.66072,39.69217,1992.66],[-120.66052,39.69224,1994.4],[-120.66041,39.69226,1995.4],[-120.66035,39.69221,1996.39],[-120.66027,39.69214,1997.62],[-120.66025,39.69204,1998.32],[-120.66032,39.69196,1998.65],[-120.66038,39.69189,1999.23],[-120.66039,39.69183,2000.04],[-120.66033,39.69179,2001.09],[-120.66026,39.69178,2001.74],[-120.66006,39.69183,2001.79],[-120.65994,39.69184,2002.13],[-120.65983,39.69188,2002.58],[-120.65961,39.69193,2004.09],[-120.65936,39.69191,2006.56],[-120.65915,39.69187,2008.68],[-120.65925,39.69178,2009.13],[-120.65965,39.69138,2011.79],[-120.65981,39.69123,2014.21],[-120.65994,39.69104,2016.04],[-120.65999,39.69089,2016.78],[-120.66006,39.69076,2016.48],[-120.66008,39.6906,2016.38],[-120.66008,39.69057,2016.38],[-120.66009,39.69036,2016.29],[-120.66014,39.69023,2015.83],[-120.66014,39.69005,2016.09],[-120.66016,39.68988,2016.27],[-120.66014,39.68978,2016.96],[-120.6601,39.68959,2018.5],[-120.66016,39.68946,2018.7],[-120.66029,39.6892,2019.51],[-120.66051,39.68905,2020.22],[-120.66101,39.68892,2018.1],[-120.66115,39.68873,2017.33],[-120.66144,39.68837,2015.4],[-120.66201,39.68796,2016.97],[-120.66218,39.68786,2018.52],[-120.66234,39.68788,2018.22],[-120.66243,39.68788,2018.33],[-120.66253,39.68788,2018.45],[-120.66263,39.68788,2018.58],[-120.66279,39.68786,2018.24],[-120.66294,39.68773,2019.02],[-120.66302,39.68769,2019.17],[-120.66314,39.68756,2020.28],[-120.6633,39.68746,2020.59],[-120.66345,39.68737,2020.72],[-120.66364,39.68729,2020.64],[-120.66393,39.68716,2021.86],[-120.66409,39.6872,2021.94],[-120.66419,39.68726,2022.06],[-120.66448,39.68761,2020.69],[-120.66459,39.68776,2020.1],[-120.66479,39.68806,2021.83],[-120.66496,39.68832,2023.8],[-120.66495,39.68837,2023.78],[-120.6649,39.6886,2023.85],[-120.66493,39.6887,2024.84],[-120.66502,39.68878,2026.28],[-120.66518,39.68872,2027.3],[-120.6655,39.6885,2032.42],[-120.66559,39.68839,2034.87],[-120.66573,39.6882,2039.98],[-120.66587,39.68795,2043.23],[-120.66589,39.68789,2043.78],[-120.66595,39.68778,2045.15],[-120.66601,39.68773,2045.73],[-120.66615,39.68767,2046.88],[-120.66627,39.6876,2047.98],[-120.66641,39.68745,2051.2],[-120.66652,39.68737,2051.87],[-120.66676,39.68728,2051.84],[-120.66693,39.68722,2049.49],[-120.66725,39.68711,2043.35],[-120.66751,39.68689,2041.73],[-120.66776,39.68684,2041.37],[-120.66796,39.6866,2043.2],[-120.66814,39.68657,2042.49],[-120.66842,39.68645,2041.05],[-120.66865,39.68635,2039.22],[-120.66871,39.68627,2038.66],[-120.66871,39.68617,2038.59],[-120.66875,39.68607,2037.98],[-120.66886,39.68603,2036.6],[-120.66891,39.68591,2036.24],[-120.66925,39.68573,2035.94],[-120.66972,39.68557,2035.71],[-120.6699,39.68555,2035.54],[-120.67006,39.6856,2035.22],[-120.67025,39.68558,2035.22],[-120.67041,39.68552,2035.66],[-120.67048,39.68545,2035.75],[-120.67051,39.68541,2035.74],[-120.67067,39.68539,2036.02],[-120.67082,39.68524,2035.91],[-120.67097,39.68522,2036.02],[-120.67107,39.68521,2036.17],[-120.67124,39.68518,2036.39],[-120.67139,39.68504,2036.04],[-120.67169,39.6849,2035.47],[-120.672,39.68477,2035.11],[-120.67206,39.68444,2035.52],[-120.67221,39.6843,2034.24],[-120.67236,39.68416,2033.48],[-120.67247,39.68405,2033.8],[-120.67259,39.68398,2034.32],[-120.67265,39.68398,2034.29],[-120.67277,39.68395,2034.75],[-120.67292,39.68401,2034.61],[-120.67306,39.68407,2034.56],[-120.67323,39.68421,2035.89],[-120.67334,39.68427,2036.91],[-120.67344,39.68428,2038.01],[-120.67357,39.68426,2039.26],[-120.67386,39.68412,2042.94],[-120.67409,39.68413,2046.89],[-120.67427,39.6841,2048.69],[-120.67453,39.68405,2052.89],[-120.6748,39.68396,2058.03],[-120.67486,39.6839,2058.53],[-120.67488,39.68382,2057.74],[-120.67489,39.68371,2058.93],[-120.67487,39.6837,2058.73],[-120.67484,39.68359,2059.76],[-120.67479,39.68353,2060.28],[-120.67472,39.68346,2061.78],[-120.67467,39.68341,2063.09],[-120.67468,39.68335,2065.04],[-120.67469,39.68325,2068.15],[-120.67477,39.68318,2070.53],[-120.67493,39.68311,2073.33],[-120.67496,39.68311,2073.52],[-120.67518,39.68315,2076.25],[-120.67536,39.68327,2078.16],[-120.6755,39.68338,2079.42],[-120.67555,39.68342,2079.95],[-120.67566,39.68356,2080.66],[-120.67583,39.68372,2084.58],[-120.67585,39.68378,2085.04],[-120.67578,39.68396,2085.41],[-120.67573,39.68421,2086.39],[-120.67576,39.68431,2087.03],[-120.67582,39.68437,2087.15],[-120.676,39.68433,2089.24],[-120.676,39.68433,2089.24],[-120.67604,39.68432,2089.66],[-120.67613,39.68431,2089.8],[-120.67614,39.68431,2089.78],[-120.67616,39.68432,2089.68],[-120.67618,39.68433,2089.58],[-120.67621,39.68434,2089.4],[-120.6763,39.68438,2088.22],[-120.67632,39.6844,2087.63],[-120.67635,39.68441,2087.26],[-120.67644,39.68442,2086.69],[-120.67645,39.68442,2086.67],[-120.67646,39.68441,2086.91],[-120.67647,39.68441,2086.89],[-120.67648,39.68441,2086.86],[-120.6766,39.68438,2087.25],[-120.67662,39.68437,2087.42],[-120.67664,39.68437,2087.34],[-120.67665,39.68436,2087.53],[-120.67668,39.68435,2087.63],[-120.6767,39.68433,2087.87],[-120.67673,39.68431,2087.8],[-120.67675,39.68429,2087.74],[-120.67675,39.68423,2087.95],[-120.67675,39.68419,2088.08],[-120.67682,39.68394,2088.97],[-120.67673,39.68373,2091.44],[-120.6767,39.6837,2091.77],[-120.67667,39.68367,2092.09],[-120.67666,39.68366,2092.19],[-120.6766,39.68356,2093.08],[-120.67661,39.68355,2093.12],[-120.67662,39.68353,2093.32],[-120.67663,39.68348,2093.98],[-120.67652,39.68322,2098.49],[-120.67651,39.68319,2099.29],[-120.67651,39.68317,2099.81],[-120.6765,39.68315,2100.33],[-120.67648,39.68308,2102.12],[-120.67652,39.68292,2107.42],[-120.67655,39.68288,2109.11],[-120.67656,39.68281,2111.88],[-120.67667,39.68264,2119.26],[-120.67686,39.68251,2123.39],[-120.6769,39.68243,2125.8],[-120.67717,39.68231,2129.59],[-120.67729,39.68217,2136.31],[-120.67745,39.68202,2141.4],[-120.67752,39.68195,2143.99],[-120.67753,39.68191,2144.66],[-120.67752,39.68189,2144.96],[-120.67747,39.68184,2145.67],[-120.67748,39.68177,2146.86],[-120.67749,39.68168,2148.23],[-120.6776,39.68157,2149.29],[-120.67778,39.68154,2149.94],[-120.67796,39.68131,2153.15],[-120.67804,39.68114,2155.52],[-120.67807,39.68101,2156.18],[-120.67804,39.6809,2156.17],[-120.67804,39.68069,2155.92],[-120.67801,39.68062,2155.66],[-120.67789,39.68061,2154.81],[-120.6778,39.68059,2154.22],[-120.67775,39.68052,2153.93],[-120.67777,39.68048,2154.23],[-120.67783,39.68045,2154.7],[-120.67792,39.68036,2155.39],[-120.67807,39.68013,2156.55],[-120.67809,39.68002,2156.32],[-120.67802,39.67972,2155.29],[-120.67795,39.67965,2155.38],[-120.67797,39.67954,2155.67],[-120.678,39.67946,2156.34],[-120.67817,39.67927,2158.44],[-120.67842,39.6792,2162.52],[-120.67844,39.67911,2163.91],[-120.67845,39.67899,2165.78],[-120.67846,39.6789,2167.31],[-120.67856,39.6787,2174.43],[-120.67856,39.67843,2179.67],[-120.67862,39.67836,2182.74],[-120.67865,39.67826,2185.07],[-120.67876,39.67822,2187.06],[-120.67879,39.67816,2187.76],[-120.6788,39.678,2188.62],[-120.6789,39.67773,2194.69],[-120.67896,39.67758,2198.39],[-120.67898,39.67739,2202.27],[-120.67897,39.67725,2205.4],[-120.67908,39.67705,2209.25],[-120.67917,39.67692,2211.61],[-120.67924,39.67681,2212.43],[-120.6793,39.67672,2213.35],[-120.67942,39.67665,2215.22],[-120.67971,39.67652,2220.69],[-120.67972,39.67643,2220.52],[-120.68012,39.67641,2228.42],[-120.68017,39.67638,2229.01],[-120.68021,39.67636,2229.42],[-120.68024,39.67634,2229.65],[-120.68027,39.6763,2229.66],[-120.6803,39.67626,2229.7],[-120.68033,39.6762,2229.54],[-120.68035,39.67615,2229.36],[-120.68038,39.67609,2229.21],[-120.6804,39.67605,2229.12],[-120.68043,39.67599,2229.03],[-120.68046,39.67593,2228.97],[-120.68049,39.67586,2228.85],[-120.68054,39.67577,2228.9],[-120.68057,39.67572,2228.91],[-120.6806,39.67568,2229.05],[-120.68064,39.67564,2229.41],[-120.68068,39.67561,2229.91],[-120.68071,39.67558,2230.28],[-120.68074,39.67555,2230.67],[-120.68078,39.67552,2231.28],[-120.6808,39.6755,2231.57],[-120.68083,39.67546,2231.98],[-120.68086,39.67543,2232.46],[-120.68089,39.6754,2232.66],[-120.68093,39.67537,2232.9],[-120.68096,39.67533,2232.97],[-120.68099,39.6753,2233.08],[-120.68101,39.67527,2233.12],[-120.68102,39.67524,2233.07],[-120.68104,39.67521,2233.16],[-120.68107,39.67519,2233.44],[-120.6811,39.67517,2233.75],[-120.68114,39.67514,2234.19],[-120.68118,39.67512,2234.7],[-120.68122,39.67508,2234.96],[-120.68124,39.67504,2234.65],[-120.68125,39.67501,2234.47],[-120.68126,39.67499,2234.35],[-120.68155,39.67504,2233.24],[-120.68155,39.67505,2233.18],[-120.68154,39.67507,2233.12],[-120.68156,39.67512,2232.76],[-120.68157,39.67515,2232.54],[-120.68161,39.67521,2231.75],[-120.68165,39.67525,2230.96],[-120.68169,39.67528,2230.15],[-120.68175,39.67537,2228.67],[-120.68181,39.67543,2227.51],[-120.68189,39.67548,2226.01],[-120.68194,39.67553,2225.06],[-120.68199,39.67556,2224.11],[-120.68205,39.67562,2222.94],[-120.68206,39.67566,2222.78],[-120.68207,39.67574,2222.67],[-120.68206,39.67581,2222.89],[-120.68202,39.67585,2223.57],[-120.68197,39.6759,2224.26],[-120.68195,39.67593,2224.42],[-120.68192,39.67596,2224.74],[-120.68189,39.676,2225],[-120.68188,39.67603,2224.99],[-120.68189,39.67614,2224.27],[-120.68193,39.67619,2223.16],[-120.68195,39.67624,2222.34],[-120.68202,39.67629,2220.67],[-120.68199,39.67635,2220.54],[-120.68205,39.6764,2218.98],[-120.68216,39.67643,2216.94],[-120.68233,39.67651,2213.8],[-120.68236,39.6766,2213.11],[-120.6823,39.67686,2217.45],[-120.68235,39.67696,2218.25],[-120.68249,39.67704,2216.65],[-120.68277,39.67705,2211.43],[-120.68279,39.67712,2211.69],[-120.68278,39.67723,2212.95],[-120.68283,39.67734,2213.06],[-120.68324,39.67766,2210.94],[-120.68349,39.67775,2207.86],[-120.68369,39.6778,2205.42],[-120.68381,39.67787,2204.95],[-120.6839,39.67798,2204.51],[-120.68395,39.67813,2207.03],[-120.68427,39.67837,2206.94],[-120.68435,39.67855,2208.42],[-120.68441,39.67863,2208.15],[-120.68455,39.67875,2205.59],[-120.68466,39.67887,2203.5],[-120.68466,39.67913,2206.53],[-120.68476,39.67925,2206.42],[-120.68476,39.67935,2208.48],[-120.68489,39.67949,2209.28],[-120.68502,39.67962,2209.59],[-120.68533,39.67984,2206.63],[-120.68544,39.67995,2205.13],[-120.6857,39.68036,2207.63],[-120.68589,39.68057,2212.42],[-120.68607,39.68072,2215.51],[-120.68627,39.68099,2220.3],[-120.68642,39.6811,2220.63],[-120.68648,39.68114,2220.6],[-120.68672,39.68137,2224.69],[-120.68676,39.68155,2230.76],[-120.68681,39.68168,2234.48],[-120.68697,39.68183,2236.06],[-120.68714,39.68193,2236.24],[-120.6876,39.68208,2237.07],[-120.68806,39.68218,2239.39],[-120.6886,39.6823,2242.26],[-120.68894,39.68245,2243.46],[-120.68931,39.68268,2243.2],[-120.68944,39.6828,2243.78],[-120.68959,39.68298,2246.53],[-120.68973,39.68313,2248.49],[-120.68981,39.68332,2251.82],[-120.68986,39.6836,2254.7],[-120.68994,39.6838,2255.43],[-120.69004,39.68392,2256.12],[-120.69018,39.68399,2255.37],[-120.69021,39.68401,2255.24],[-120.69041,39.6841,2253.19],[-120.69055,39.68424,2252.42],[-120.69066,39.68446,2253.05],[-120.69091,39.68473,2248],[-120.69099,39.68486,2247.16],[-120.69103,39.68511,2251.33],[-120.69114,39.68544,2254.53],[-120.69126,39.68564,2253.87],[-120.69138,39.686,2257.12],[-120.69141,39.6862,2259.92],[-120.69147,39.68633,2260.49],[-120.69146,39.68699,2270.38],[-120.69169,39.68739,2271.42],[-120.69185,39.68751,2270.79],[-120.692,39.68755,2270.01],[-120.69211,39.68754,2268.31],[-120.69228,39.6876,2266.88],[-120.69239,39.68771,2267.04],[-120.69276,39.68798,2264.63],[-120.69292,39.68813,2264.53],[-120.6931,39.68838,2268.79],[-120.6933,39.68849,2270.77],[-120.69393,39.68875,2273.87],[-120.694,39.68883,2274],[-120.69405,39.68903,2275.41],[-120.69416,39.68934,2274.1],[-120.69416,39.68962,2274.66],[-120.69412,39.6898,2275.77],[-120.69415,39.69019,2276.03],[-120.69403,39.69039,2276.72],[-120.69397,39.6906,2276.86],[-120.69403,39.6909,2276.16],[-120.69416,39.69107,2274.25],[-120.69446,39.69131,2270.13],[-120.69512,39.6915,2262.9],[-120.69529,39.6916,2259.36],[-120.69541,39.69171,2256.91],[-120.69585,39.69195,2251.18],[-120.69621,39.69209,2248.08],[-120.69649,39.69225,2244.71],[-120.69665,39.69239,2239.52],[-120.69682,39.69245,2237.33],[-120.69705,39.69251,2235.79],[-120.69723,39.69258,2234.76],[-120.69747,39.69283,2229.9],[-120.69764,39.69307,2224.06],[-120.69772,39.69361,2210.2],[-120.69769,39.69386,2205.58],[-120.69767,39.69396,2203.54],[-120.69765,39.69404,2201.91],[-120.69764,39.6942,2199.07],[-120.69769,39.69459,2194.16],[-120.6977,39.69478,2192.68],[-120.69746,39.69493,2189.74],[-120.69731,39.69525,2187.87],[-120.69726,39.69546,2188.16],[-120.69724,39.69563,2189.29],[-120.69731,39.69581,2190.7],[-120.69733,39.69596,2191.56],[-120.69737,39.69615,2191.61],[-120.69739,39.69625,2191.53],[-120.69722,39.69636,2192.69],[-120.69711,39.69653,2193.01],[-120.69701,39.69671,2192.01],[-120.69694,39.69684,2191.33],[-120.69679,39.69692,2192.07],[-120.69665,39.69703,2192.89],[-120.69657,39.69724,2192.39],[-120.69647,39.69737,2192.21],[-120.69635,39.69751,2191.63],[-120.69629,39.69771,2188.72],[-120.69627,39.69778,2187.78],[-120.69612,39.69791,2188.57],[-120.69604,39.69799,2189],[-120.69595,39.69819,2188.58],[-120.69581,39.69829,2188.84],[-120.69569,39.69834,2189.24],[-120.69567,39.69834,2189.38],[-120.69554,39.69846,2187.81],[-120.69544,39.69853,2186.29],[-120.6953,39.6986,2184.58],[-120.69519,39.69875,2182.68],[-120.69514,39.69887,2182.15],[-120.695,39.69895,2179.62],[-120.69487,39.69917,2178.45],[-120.69473,39.69938,2177.06],[-120.69453,39.69956,2171.75],[-120.69442,39.69981,2167.01],[-120.6944,39.70002,2166.32],[-120.69436,39.70012,2165.74],[-120.69415,39.70029,2163.78],[-120.69403,39.70039,2164.39],[-120.69396,39.70057,2165.36],[-120.69392,39.70073,2165.11],[-120.69394,39.70091,2161.14],[-120.69388,39.70113,2156.89],[-120.69384,39.7013,2154.59],[-120.69377,39.70132,2156.2],[-120.69363,39.70127,2159.32],[-120.69354,39.70131,2160.1],[-120.69337,39.70145,2158.92],[-120.69321,39.70152,2158.88],[-120.69281,39.70165,2153.1],[-120.69263,39.7017,2152.07],[-120.69244,39.70176,2152.03],[-120.69224,39.70183,2151.2],[-120.692,39.70185,2144.88],[-120.69169,39.70199,2139.83],[-120.69149,39.70211,2137.78],[-120.69126,39.70225,2137.79],[-120.69097,39.70243,2138.24],[-120.69092,39.70247,2138.87],[-120.69093,39.70251,2140.43],[-120.69099,39.70259,2143.8],[-120.69057,39.70284,2143.68],[-120.69052,39.70286,2142.91],[-120.69046,39.70286,2141.56],[-120.69038,39.70277,2138.14],[-120.69034,39.70268,2135.86],[-120.69028,39.70264,2134],[-120.69016,39.70256,2130.85],[-120.69006,39.70251,2127.26],[-120.69003,39.70241,2125.25],[-120.69004,39.70233,2124.54],[-120.69001,39.70231,2123.78],[-120.68997,39.70231,2123.08],[-120.68993,39.70234,2122.53],[-120.6899,39.70237,2122.05],[-120.68986,39.70241,2121.24],[-120.68973,39.7025,2117.44],[-120.68972,39.70258,2116.77],[-120.68975,39.70265,2117.59],[-120.68977,39.70276,2118.02],[-120.68976,39.70283,2117.55],[-120.68954,39.70308,2110.68],[-120.68948,39.7032,2110.8],[-120.68936,39.70331,2109.07],[-120.68921,39.70342,2107.92],[-120.68907,39.70346,2104.88],[-120.68895,39.70354,2103.3],[-120.68881,39.70358,2099.09],[-120.68873,39.7036,2096.42],[-120.68864,39.70366,2094.54],[-120.68851,39.70369,2089.44],[-120.68842,39.70374,2086.74],[-120.68838,39.70378,2086.07],[-120.68829,39.70395,2087.89],[-120.68823,39.70401,2087.81],[-120.68808,39.70401,2081.4],[-120.68789,39.70412,2082.7],[-120.68777,39.70418,2084.06],[-120.68767,39.70418,2081.43],[-120.68738,39.7043,2080.19],[-120.68725,39.70429,2076.27],[-120.68705,39.70433,2073.93],[-120.68683,39.70434,2067.34],[-120.68618,39.70442,2056.63],[-120.68567,39.70444,2044.64],[-120.68541,39.70451,2042.62],[-120.6853,39.70449,2038.73],[-120.68519,39.70452,2038.24],[-120.68509,39.70455,2038.01],[-120.68498,39.70452,2033.51],[-120.68484,39.70459,2035.09],[-120.68465,39.70458,2030.16],[-120.68446,39.7046,2027.78],[-120.68429,39.70463,2026.34],[-120.68405,39.70476,2025.67],[-120.68403,39.70474,2023.99],[-120.68405,39.70471,2023.2],[-120.68402,39.70469,2021.23],[-120.68397,39.70473,2021.46],[-120.68393,39.70476,2021.29],[-120.68383,39.70481,2019.12],[-120.68367,39.70487,2013.99],[-120.68347,39.70488,2007.53],[-120.68325,39.70498,2004.27],[-120.683,39.70502,2003.65],[-120.6829,39.70503,2003.12],[-120.68276,39.70514,2005.09],[-120.6826,39.70509,2002.36],[-120.68251,39.70509,2001.68],[-120.68245,39.70515,2002.14],[-120.68241,39.7052,2002.42],[-120.68235,39.70521,2001.92],[-120.68235,39.70525,2003.09],[-120.68214,39.70549,2005.59],[-120.68187,39.70572,2004.08],[-120.68179,39.70581,2004.58],[-120.68174,39.70592,2005.67],[-120.68168,39.70596,2005.03],[-120.68158,39.70599,2003.13],[-120.68144,39.70617,2005.6],[-120.68134,39.70623,2005.43],[-120.68106,39.70633,2005.24],[-120.681,39.70638,2006.35],[-120.68098,39.7064,2006.79],[-120.68085,39.70644,2006.62],[-120.68079,39.70647,2006.73],[-120.68074,39.70653,2007.57],[-120.68069,39.70651,2006.41],[-120.68067,39.70648,2005.5],[-120.68064,39.70647,2004.93],[-120.68056,39.7065,2004.49],[-120.68026,39.70664,2003.72],[-120.68003,39.70666,2002.59],[-120.67997,39.70666,2002.36],[-120.67995,39.70669,2002.61],[-120.67986,39.70688,2004.12],[-120.67977,39.70696,2004.3],[-120.67961,39.70711,2004.15],[-120.67948,39.70724,2003.48],[-120.67941,39.70725,2002.87],[-120.67936,39.70731,2002.52],[-120.67916,39.70748,1999.62],[-120.67908,39.70761,1998.55],[-120.67906,39.70778,1998.71],[-120.67895,39.70795,1998.9],[-120.67887,39.70818,1998.96],[-120.67873,39.70827,1996.33],[-120.67868,39.70841,1995.57],[-120.67878,39.70855,1998.09],[-120.67873,39.70868,1997.8],[-120.67863,39.70885,1996.63],[-120.67853,39.70888,1993.48],[-120.67836,39.70894,1989.37],[-120.67825,39.70908,1989.59],[-120.67812,39.70928,1990.67],[-120.67785,39.70946,1989.89],[-120.67772,39.70954,1988.91],[-120.67758,39.70966,1987.86],[-120.67749,39.70968,1986.1],[-120.67743,39.70973,1985.16],[-120.67738,39.70982,1984.6],[-120.67733,39.70996,1984.26],[-120.67725,39.71003,1982.89],[-120.67715,39.71006,1980.57],[-120.6771,39.71002,1979.34],[-120.67707,39.7098,1978.08],[-120.67705,39.70978,1977.65],[-120.677,39.70978,1976.77],[-120.67695,39.70988,1976.25],[-120.67691,39.71008,1975.59],[-120.67689,39.71024,1975.05],[-120.67683,39.71029,1974.07],[-120.67675,39.7103,1972.31],[-120.67662,39.71045,1970.05],[-120.67654,39.71057,1968.87],[-120.67644,39.71076,1967.17],[-120.67639,39.71091,1967.28],[-120.67637,39.71096,1967.49],[-120.67623,39.71101,1966.23],[-120.67608,39.711,1964.39],[-120.6759,39.71106,1964.22],[-120.6757,39.71105,1963.36],[-120.67556,39.711,1963.2],[-120.6754,39.7109,1963.66],[-120.67523,39.71088,1966.24],[-120.67503,39.7109,1969.49],[-120.67479,39.71088,1970.13],[-120.67462,39.71082,1969.45],[-120.67441,39.71083,1964.75],[-120.67425,39.71087,1962.07],[-120.6742,39.71092,1961.06],[-120.67419,39.711,1960.13],[-120.67421,39.71107,1959.95],[-120.67409,39.71123,1956.47],[-120.67404,39.71128,1954.73],[-120.67399,39.71127,1953.77],[-120.67393,39.71122,1953.69],[-120.67383,39.71124,1952.13],[-120.67379,39.71123,1951.73],[-120.67369,39.7112,1950.75],[-120.67355,39.71118,1948.01],[-120.67337,39.71125,1943.31],[-120.67317,39.71134,1940.07],[-120.67303,39.71134,1937.61],[-120.67299,39.71128,1936.4],[-120.67291,39.71114,1935.73],[-120.67293,39.71106,1936.35],[-120.67286,39.71099,1935.41],[-120.67276,39.71094,1933.8],[-120.6727,39.71072,1933.18],[-120.67278,39.71048,1933.65],[-120.67298,39.71029,1935.18],[-120.67302,39.71022,1935.07],[-120.67302,39.71015,1933.78],[-120.67297,39.71011,1932.02],[-120.67291,39.71003,1929.55],[-120.67281,39.70994,1926.31],[-120.67266,39.7098,1921.5],[-120.67243,39.7097,1916.27],[-120.67209,39.70951,1905.21],[-120.67199,39.70949,1902.68],[-120.67196,39.70938,1900.14],[-120.67186,39.70924,1896.69],[-120.67177,39.70918,1894.49],[-120.67166,39.7092,1892.6],[-120.6716,39.70908,1893.19],[-120.6716,39.70908,1893.19],[-120.67145,39.70906,1892.49],[-120.67129,39.70908,1890.93],[-120.6712,39.70911,1889.79],[-120.67113,39.70913,1889.05],[-120.67104,39.7091,1889.05],[-120.67093,39.70903,1889.36],[-120.67083,39.70892,1889.53],[-120.67082,39.70885,1889.63],[-120.67081,39.7088,1889.53],[-120.6708,39.70874,1889.44],[-120.67079,39.70867,1889.36],[-120.67075,39.70862,1888.96],[-120.6707,39.7086,1888.44],[-120.67066,39.70857,1888.18],[-120.67065,39.70852,1888.51],[-120.67064,39.70844,1889.16],[-120.67063,39.70837,1889.8],[-120.67058,39.7083,1890.96],[-120.67055,39.70825,1892.24],[-120.67051,39.70819,1894.1],[-120.67046,39.70812,1896.15],[-120.67041,39.70804,1897.97],[-120.67036,39.70797,1899.33],[-120.6703,39.70791,1900.34],[-120.67025,39.70785,1901.07],[-120.6702,39.70777,1902.27],[-120.67015,39.70769,1903.67],[-120.67009,39.70762,1904.84],[-120.67002,39.70754,1906.11],[-120.66998,39.70747,1907.07],[-120.66996,39.7074,1907.83],[-120.66993,39.70734,1908.52],[-120.66988,39.70733,1908.86],[-120.66984,39.70728,1909.73],[-120.66982,39.70723,1910.17],[-120.66979,39.70717,1910.64],[-120.66975,39.70712,1911.06],[-120.66973,39.70707,1911.2],[-120.6697,39.707,1911.53],[-120.66968,39.70695,1911.79],[-120.66964,39.70691,1912.1],[-120.66962,39.70685,1912.34],[-120.6696,39.7068,1912.54],[-120.66956,39.70674,1913.03],[-120.66951,39.7067,1913.93],[-120.6695,39.70665,1914.46],[-120.6695,39.70659,1914.85],[-120.66949,39.70653,1915.46],[-120.66946,39.70648,1916.65],[-120.66941,39.70644,1918.12],[-120.66936,39.70638,1919.72],[-120.66934,39.70631,1920.77],[-120.66933,39.70623,1921.89],[-120.66935,39.70618,1922.36],[-120.66936,39.70612,1923.2],[-120.66939,39.70605,1924.04],[-120.66941,39.70597,1925.19],[-120.66942,39.70588,1926.48],[-120.66943,39.70583,1927.21],[-120.66943,39.70577,1928.14],[-120.66943,39.70571,1928.97],[-120.66941,39.70566,1929.46],[-120.66936,39.70563,1929.61],[-120.66929,39.70562,1929.45],[-120.66922,39.7056,1929.35],[-120.66914,39.70557,1929.59],[-120.66908,39.70554,1929.89],[-120.66899,39.70551,1930.15],[-120.66897,39.7055,1930.21],[-120.66893,39.70548,1930.28],[-120.66887,39.70543,1930.36],[-120.66882,39.7054,1930.61],[-120.66874,39.70538,1931.25],[-120.66868,39.70535,1931.65],[-120.66863,39.70531,1931.89],[-120.66857,39.70528,1932.17],[-120.66852,39.70526,1932.38],[-120.66845,39.70524,1932.84],[-120.66837,39.70523,1933.47],[-120.6683,39.70523,1934.07],[-120.66822,39.70524,1934.84],[-120.66815,39.70526,1935.59],[-120.66809,39.70529,1936.2],[-120.66803,39.70532,1936.8],[-120.66797,39.70533,1937.24],[-120.66792,39.70533,1937.53],[-120.66788,39.70531,1937.59],[-120.66783,39.70529,1937.7],[-120.66779,39.70526,1937.63],[-120.66775,39.70522,1937.48],[-120.66772,39.70519,1937.41],[-120.6677,39.70514,1937.2],[-120.66769,39.7051,1937.01],[-120.66767,39.70506,1936.88],[-120.66766,39.70502,1936.71],[-120.66765,39.70498,1936.54],[-120.66765,39.70493,1936.25],[-120.66765,39.70489,1936.03],[-120.66765,39.70483,1935.7],[-120.66766,39.70478,1935.34],[-120.66766,39.70473,1935.06],[-120.66768,39.70469,1934.69],[-120.66772,39.70464,1934.05],[-120.66776,39.7046,1933.5],[-120.66778,39.70456,1933.11],[-120.66779,39.70452,1932.8],[-120.66781,39.70448,1932.44],[-120.66782,39.70441,1931.96],[-120.66781,39.70434,1931.52],[-120.66777,39.70428,1931.19],[-120.66771,39.70423,1930.89],[-120.66765,39.70419,1930.57],[-120.66761,39.70415,1930.18],[-120.66754,39.70412,1929.94],[-120.66747,39.70408,1929.6],[-120.66739,39.70404,1929.35],[-120.66727,39.70399,1929.03],[-120.66715,39.70395,1928.75],[-120.66708,39.70391,1928.3],[-120.667,39.70386,1927.77],[-120.66692,39.7038,1927.27],[-120.66684,39.70375,1926.85],[-120.66673,39.70371,1926.51],[-120.66666,39.7037,1926.43],[-120.66657,39.70369,1926.36],[-120.66651,39.70367,1926.28],[-120.66644,39.70363,1926.16],[-120.66637,39.70359,1926.19],[-120.6663,39.70355,1926.19],[-120.66625,39.70351,1926.13],[-120.66618,39.70348,1926.15],[-120.6661,39.70346,1926.24],[-120.66605,39.70343,1926.33],[-120.66599,39.70339,1926.42],[-120.66591,39.70337,1926.7],[-120.66583,39.70336,1927.04],[-120.66574,39.70337,1927.51],[-120.66567,39.70335,1927.73],[-120.66558,39.70334,1928.09],[-120.66549,39.70335,1928.48],[-120.66543,39.70334,1928.71],[-120.66535,39.70335,1928.6],[-120.66528,39.70334,1928.39],[-120.66521,39.70333,1928.19],[-120.66512,39.70332,1927.93],[-120.66507,39.70328,1927.72],[-120.66501,39.70327,1927.41],[-120.66495,39.70327,1927.11],[-120.66488,39.70328,1926.78],[-120.66483,39.70327,1926.51],[-120.66478,39.70326,1926.23],[-120.66473,39.70323,1925.89],[-120.66468,39.70321,1925.59],[-120.66466,39.70317,1925.37],[-120.66463,39.70314,1925.13],[-120.66458,39.70314,1924.88],[-120.66452,39.70313,1924.55],[-120.66443,39.70311,1924.02],[-120.66432,39.70308,1923.29],[-120.66423,39.70304,1922.62],[-120.66413,39.70302,1921.99],[-120.66403,39.703,1921.4],[-120.66394,39.70298,1920.96],[-120.66384,39.70296,1920.48],[-120.66381,39.70295,1920.34],[-120.66377,39.70293,1920.14],[-120.6637,39.70293,1919.84],[-120.66364,39.70292,1919.65],[-120.66358,39.7029,1919.45],[-120.66352,39.70289,1919.26],[-120.66345,39.7029,1919.05],[-120.66337,39.7029,1918.8],[-120.66329,39.7029,1918.59],[-120.66323,39.7029,1918.43],[-120.66314,39.70289,1918.19],[-120.66307,39.70287,1918.01],[-120.66301,39.70284,1917.87],[-120.66294,39.70281,1917.75],[-120.66287,39.70278,1917.68],[-120.66281,39.70276,1917.61],[-120.66273,39.70275,1917.48],[-120.66262,39.70275,1917.28],[-120.66254,39.70275,1917.16],[-120.66249,39.70275,1917.09],[-120.66248,39.70275,1917.08],[-120.66243,39.70276,1916.96],[-120.66241,39.70279,1916.79],[-120.66237,39.70283,1916.55],[-120.66235,39.70285,1916.45],[-120.66229,39.70286,1916.43],[-120.66223,39.70287,1916.47],[-120.66219,39.70286,1916.55],[-120.66214,39.70287,1916.58],[-120.66209,39.70288,1916.61],[-120.66205,39.70286,1916.73],[-120.66202,39.70284,1916.83],[-120.66203,39.7028,1916.96],[-120.66202,39.70274,1917.2],[-120.662,39.70268,1917.44],[-120.66197,39.7026,1917.79],[-120.66194,39.70254,1918.11],[-120.66188,39.7025,1918.46],[-120.66182,39.70247,1918.78],[-120.66176,39.70243,1919.12],[-120.66166,39.70239,1919.59],[-120.66159,39.70237,1919.94],[-120.66156,39.70232,1920.21],[-120.66155,39.70227,1920.37],[-120.66163,39.70198,1920.58],[-120.66164,39.70168,1920.67],[-120.66164,39.70135,1920.47],[-120.66172,39.70108,1920.58],[-120.66204,39.70096,1920.28],[-120.66204,39.70096,1920.28],[-120.66222,39.70071,1920.54],[-120.66246,39.70043,1921.09],[-120.66274,39.70031,1921.82],[-120.66308,39.70028,1922.63],[-120.66328,39.70011,1923.27],[-120.66319,39.70006,1923.23],[-120.6633,39.70003,1923.44],[-120.66334,39.7,1923.54],[-120.66337,39.69996,1923.63],[-120.66341,39.69992,1923.68],[-120.66344,39.69988,1923.76],[-120.66348,39.69984,1923.83],[-120.66351,39.69979,1923.94],[-120.66354,39.69976,1924.01],[-120.66357,39.69971,1924.12],[-120.6636,39.69966,1924.24],[-120.66363,39.69963,1924.33],[-120.66365,39.6996,1924.43],[-120.66368,39.69956,1924.56],[-120.66371,39.69953,1924.64],[-120.66374,39.6995,1924.68],[-120.66377,39.69948,1924.69],[-120.6638,39.69945,1924.72],[-120.66382,39.69943,1924.75],[-120.66385,39.6994,1924.78],[-120.66388,39.69938,1924.79],[-120.66391,39.69936,1924.8],[-120.66394,39.69932,1924.87],[-120.66397,39.69928,1924.96],[-120.66399,39.69925,1925.02],[-120.66402,39.6992,1925.14],[-120.66405,39.69915,1925.27],[-120.66408,39.69911,1925.37],[-120.66411,39.69907,1925.47],[-120.66413,39.69904,1925.55],[-120.66416,39.699,1925.65],[-120.66419,39.69894,1925.83],[-120.66422,39.6989,1925.94],[-120.66425,39.69885,1926.08],[-120.66428,39.69882,1926.15],[-120.66439,39.6988,1926.06],[-120.66449,39.69878,1925.99],[-120.66454,39.69876,1925.99],[-120.66459,39.69874,1925.97],[-120.66462,39.69871,1926.02],[-120.66467,39.69869,1926],[-120.6647,39.69867,1926],[-120.66473,39.69865,1926.01],[-120.66476,39.69863,1926.04],[-120.66479,39.69861,1926.06],[-120.66481,39.69858,1926.12],[-120.66486,39.69856,1926.12],[-120.66491,39.69854,1926.12],[-120.66496,39.69852,1926.1],[-120.66501,39.6985,1926.09],[-120.66507,39.69848,1926.06],[-120.66511,39.69845,1926.16],[-120.66518,39.69843,1926.29],[-120.66539,39.69845,1926.52],[-120.66546,39.69848,1926.59],[-120.66556,39.69849,1926.78],[-120.66565,39.6985,1926.93],[-120.66571,39.6985,1927.05],[-120.66578,39.69851,1927.17],[-120.66601,39.69859,1927.35],[-120.66605,39.69861,1927.36],[-120.66609,39.69865,1927.32],[-120.66613,39.69867,1927.34],[-120.66617,39.69871,1927.3],[-120.6662,39.69873,1927.3],[-120.66622,39.69876,1927.24],[-120.66624,39.69878,1927.21],[-120.66626,39.69881,1927.15],[-120.66628,39.69884,1927.09],[-120.6663,39.69886,1927.06],[-120.66631,39.69888,1927.04],[-120.66632,39.69891,1927.05],[-120.66633,39.69894,1927.05],[-120.6664,39.699,1927.16],[-120.66645,39.69901,1927.26],[-120.66683,39.69891,1928.16],[-120.66694,39.6989,1928.7],[-120.66706,39.69861,1929.87]]}}
