{"type":"Feature","properties":{"name":"\nYuba Expeditions: Lake Davis Loop\n","sourceLabel":"Trailforks / Yuba Expeditions","sourceUrl":"https://www.trailforks.com/route/yuba-expeditions-lake-davis-loop/","retrievedAt":"2026-09-28","gpxSha256":"1dba9db52f3ea3ca9fdab2162c9072b0f9fa1deed3f839569a68ae8e3524e978","dataUsePolicy":"https://www.trailforks.com/about/data/","licenseNote":"Downloaded with user-approved data-use agreement. Public attribution required; commercial use requires Trailforks consent."},"geometry":{"type":"LineString","coordinates":[[-120.4768,39.8928,1781.5],[-120.47673,39.89276,1782.2],[-120.4768,39.8928,1781.5],[-120.47677,39.89296,1780.9],[-120.47663,39.89327,1780.0],[-120.47664,39.89331,1780.0],[-120.47676,39.89359,1779.7],[-120.47698,39.89383,1780.6],[-120.47718,39.89401,1780.5],[-120.47732,39.89424,1779.8],[-120.47738,39.89443,1780.3],[-120.47739,39.89474,1780.5],[-120.47745,39.89502,1779.7],[-120.47756,39.89509,1779.3],[-120.47754,39.89524,1779.2],[-120.47729,39.89557,1781.3],[-120.47724,39.89593,1783.8],[-120.47735,39.89618,1783.7],[-120.47749,39.8967,1783.1],[-120.47759,39.89744,1783.2],[-120.47777,39.89764,1781.7],[-120.47782,39.89783,1781.3],[-120.47793,39.89791,1780.9],[-120.47805,39.89815,1781.3],[-120.47823,39.89826,1779.8],[-120.4785,39.89894,1779.7],[-120.47864,39.89998,1778.7],[-120.47877,39.90044,1779.3],[-120.47895,39.9007,1778.4],[-120.47896,39.90097,1779.7],[-120.47936,39.90171,1780.1],[-120.47958,39.90232,1782.8],[-120.47975,39.90247,1780.8],[-120.48018,39.90323,1781.1],[-120.4803,39.9034,1780.2],[-120.48038,39.90361,1780.5],[-120.48038,39.90391,1783.6],[-120.4806,39.90413,1782.6],[-120.48078,39.90443,1780.6],[-120.48117,39.90471,1782.0],[-120.48131,39.90515,1782.1],[-120.48142,39.90561,1782.6],[-120.48158,39.9059,1783.8],[-120.48185,39.90655,1785.3],[-120.48198,39.90697,1784.9],[-120.48193,39.90746,1786.2],[-120.48176,39.9082,1783.9],[-120.48186,39.90865,1785.2],[-120.48204,39.90894,1786.8],[-120.48232,39.90932,1789.3],[-120.48271,39.90961,1789.1],[-120.48396,39.91024,1783.5],[-120.48443,39.91053,1780.9],[-120.48484,39.91091,1780.3],[-120.4849,39.91118,1781.2],[-120.48496,39.91156,1779.8],[-120.48507,39.91173,1780.0],[-120.48585,39.91248,1780.3],[-120.48628,39.91296,1780.1],[-120.48665,39.91368,1778.7],[-120.48745,39.91465,1780.0],[-120.4877,39.91489,1779.9],[-120.48783,39.91498,1779.3],[-120.48787,39.91514,1779.7],[-120.48805,39.91543,1780.3],[-120.48833,39.91561,1780.4],[-120.48901,39.91612,1779.5],[-120.48957,39.91664,1778.5],[-120.48979,39.91681,1778.2],[-120.48997,39.91709,1778.6],[-120.4901,39.9174,1777.8],[-120.49019,39.91781,1778.8],[-120.49027,39.91798,1779.4],[-120.49027,39.91813,1779.7],[-120.49034,39.91825,1779.8],[-120.4905,39.91861,1780.8],[-120.49055,39.91896,1785.9],[-120.4907,39.91928,1786.5],[-120.49071,39.91953,1788.1],[-120.49082,39.9196,1788.2],[-120.49106,39.91953,1784.0],[-120.49141,39.91982,1782.9],[-120.49162,39.92004,1782.8],[-120.49188,39.92011,1783.4],[-120.49195,39.92029,1783.3],[-120.49217,39.92038,1781.7],[-120.49221,39.92053,1781.5],[-120.49234,39.92058,1779.8],[-120.49257,39.92053,1778.5],[-120.49304,39.92022,1774.4],[-120.49315,39.9202,1772.7],[-120.49321,39.92026,1772.7],[-120.49314,39.9204,1774.1],[-120.49312,39.92049,1774.0],[-120.49319,39.92055,1773.0],[-120.49338,39.9206,1772.2],[-120.49361,39.92055,1770.2],[-120.49381,39.92062,1769.3],[-120.49399,39.92054,1769.3],[-120.49415,39.92054,1769.9],[-120.4943,39.92064,1771.7],[-120.49438,39.92082,1771.8],[-120.49441,39.92105,1771.9],[-120.49462,39.92132,1771.6],[-120.49501,39.9217,1767.6],[-120.49512,39.92187,1767.8],[-120.49525,39.92198,1767.5],[-120.49605,39.92226,1772.0],[-120.49623,39.92237,1772.0],[-120.49644,39.9227,1772.8],[-120.49684,39.9232,1771.9],[-120.49722,39.9236,1771.9],[-120.49741,39.92375,1771.0],[-120.4974,39.92387,1772.0],[-120.49751,39.92396,1772.0],[-120.49764,39.92411,1772.5],[-120.49783,39.92422,1772.3],[-120.49802,39.9243,1771.8],[-120.49814,39.92439,1771.6],[-120.49825,39.92483,1773.4],[-120.49836,39.92506,1774.0],[-120.49847,39.92521,1774.6],[-120.49856,39.92544,1774.6],[-120.4986,39.92564,1775.4],[-120.49869,39.92581,1775.5],[-120.49887,39.92598,1774.8],[-120.4991,39.9261,1773.6],[-120.49938,39.92619,1772.8],[-120.49995,39.92627,1771.3],[-120.50007,39.92627,1771.0],[-120.5003,39.92647,1769.8],[-120.50042,39.92665,1769.2],[-120.5005,39.92693,1768.7],[-120.50058,39.92705,1768.7],[-120.50132,39.92725,1769.2],[-120.50162,39.9274,1770.0],[-120.50186,39.92749,1770.7],[-120.50196,39.92749,1770.9],[-120.50234,39.92734,1771.1],[-120.50248,39.92736,1771.2],[-120.50268,39.92746,1771.2],[-120.5031,39.9277,1770.7],[-120.5034,39.92778,1769.9],[-120.5036,39.92794,1769.3],[-120.50376,39.92795,1769.0],[-120.50397,39.92794,1768.8],[-120.50425,39.92803,1768.9],[-120.50444,39.92803,1769.0],[-120.50464,39.92799,1769.5],[-120.50481,39.92801,1769.8],[-120.50502,39.92817,1770.1],[-120.50516,39.92839,1770.0],[-120.50552,39.92848,1769.7],[-120.50566,39.92844,1769.9],[-120.50582,39.92837,1769.5],[-120.50597,39.92837,1769.6],[-120.50612,39.9284,1769.7],[-120.50622,39.92846,1769.9],[-120.5063,39.92857,1770.1],[-120.50631,39.92874,1770.7],[-120.50647,39.92882,1770.1],[-120.50666,39.92886,1769.6],[-120.50685,39.92881,1768.7],[-120.50708,39.92882,1767.1],[-120.50718,39.92886,1766.6],[-120.50716,39.92897,1766.2],[-120.50711,39.92904,1766.5],[-120.50709,39.92924,1765.6],[-120.50712,39.9294,1764.6],[-120.50707,39.92957,1763.6],[-120.50694,39.92967,1764.2],[-120.50693,39.92977,1763.6],[-120.50693,39.92985,1763.3],[-120.507,39.93002,1762.8],[-120.50717,39.93013,1762.2],[-120.50741,39.93014,1762.8],[-120.50755,39.93012,1763.3],[-120.50782,39.92996,1762.9],[-120.50792,39.92986,1762.6],[-120.50848,39.9296,1762.3],[-120.5086,39.92949,1761.9],[-120.50884,39.92938,1762.4],[-120.50938,39.92927,1763.2],[-120.50954,39.92929,1763.3],[-120.5097,39.92936,1765.5],[-120.5098,39.92935,1763.2],[-120.50997,39.92936,1764.3],[-120.51022,39.92947,1763.7],[-120.51028,39.92962,1763.6],[-120.51023,39.92978,1765.0],[-120.51012,39.92989,1765.6],[-120.51001,39.93005,1764.8],[-120.50981,39.93018,1768.5],[-120.5098,39.93036,1765.4],[-120.50984,39.93043,1762.8],[-120.50981,39.9306,1763.4],[-120.50972,39.93072,1764.3],[-120.50968,39.93085,1763.5],[-120.50956,39.93099,1763.0],[-120.50945,39.93105,1763.3],[-120.50944,39.93108,1763.8],[-120.50948,39.93116,1762.9],[-120.50956,39.93121,1762.3],[-120.50961,39.93133,1762.0],[-120.50961,39.93141,1761.8],[-120.50981,39.93159,1762.1],[-120.50997,39.93186,1765.8],[-120.51034,39.93209,1762.6],[-120.51041,39.93228,1766.6],[-120.51037,39.93244,1768.3],[-120.51032,39.93251,1768.7],[-120.51038,39.93253,1769.0],[-120.51055,39.93247,1769.1],[-120.51061,39.93247,1769.4],[-120.51063,39.93251,1769.6],[-120.51061,39.93258,1769.6],[-120.51054,39.93266,1769.1],[-120.5106,39.93271,1769.6],[-120.51078,39.93269,1770.0],[-120.51129,39.93286,1768.1],[-120.51136,39.93323,1767.1],[-120.51122,39.93351,1767.0],[-120.51125,39.93401,1764.3],[-120.51136,39.93448,1769.0],[-120.51137,39.93466,1769.5],[-120.51154,39.93482,1768.9],[-120.51159,39.93502,1768.8],[-120.51152,39.93522,1770.2],[-120.51133,39.93533,1771.2],[-120.51127,39.9356,1772.9],[-120.51134,39.93583,1774.0],[-120.51123,39.93611,1776.2],[-120.5108,39.93645,1779.7],[-120.51134,39.93652,1779.5],[-120.51152,39.93659,1779.8],[-120.5117,39.93669,1779.6],[-120.51206,39.93701,1778.2],[-120.51256,39.93757,1777.9],[-120.51282,39.93795,1781.3],[-120.51304,39.93817,1785.6],[-120.51435,39.9388,1788.6],[-120.51452,39.93885,1787.6],[-120.51565,39.93903,1786.9],[-120.51582,39.93903,1787.1],[-120.51604,39.939,1788.9],[-120.51622,39.93895,1788.7],[-120.51774,39.93842,1788.6],[-120.51828,39.93833,1790.4],[-120.5185,39.93833,1791.1],[-120.51864,39.93837,1791.7],[-120.51886,39.93848,1791.8],[-120.51913,39.93866,1790.9],[-120.51966,39.93909,1787.6],[-120.51985,39.93931,1787.3],[-120.52075,39.94052,1783.7],[-120.52097,39.94073,1782.3],[-120.52121,39.94086,1781.0],[-120.52173,39.94101,1779.8],[-120.52289,39.94128,1777.9],[-120.52344,39.94135,1778.0],[-120.52419,39.94135,1780.5],[-120.52553,39.9412,1783.1],[-120.52598,39.94117,1783.0],[-120.52817,39.94139,1776.4],[-120.52889,39.94137,1776.0],[-120.52956,39.94129,1775.7],[-120.53014,39.94116,1772.5],[-120.53082,39.94095,1770.3],[-120.53283,39.94023,1769.7],[-120.53344,39.94009,1765.4],[-120.53623,39.93971,1767.4],[-120.53708,39.93963,1768.4],[-120.54009,39.93923,1770.4],[-120.54309,39.93882,1773.0],[-120.54363,39.93872,1773.6],[-120.54434,39.93851,1771.9],[-120.54751,39.93745,1766.9],[-120.54931,39.93681,1766.7],[-120.54993,39.93656,1767.3],[-120.55571,39.93369,1766.5],[-120.55625,39.93345,1766.3],[-120.55657,39.93333,1766.5],[-120.557,39.93323,1767.2],[-120.55768,39.93315,1767.8],[-120.55853,39.93311,1768.4],[-120.55974,39.93301,1770.8],[-120.56099,39.93283,1770.7],[-120.56215,39.9326,1773.2],[-120.56283,39.93251,1774.1],[-120.56323,39.93251,1775.1],[-120.56391,39.93239,1775.5],[-120.56408,39.93234,1775.9],[-120.56426,39.93226,1775.9],[-120.56472,39.93197,1775.7],[-120.56524,39.93171,1776.5],[-120.56585,39.93143,1777.0],[-120.56699,39.93101,1775.0],[-120.56802,39.93081,1775.4],[-120.56847,39.9307,1775.1],[-120.56915,39.93059,1775.4],[-120.5696,39.93054,1776.2],[-120.57004,39.93057,1776.8],[-120.57124,39.9307,1777.6],[-120.57193,39.93066,1777.2],[-120.57223,39.93066,1777.2],[-120.57398,39.93078,1778.2],[-120.57482,39.93068,1776.0],[-120.57513,39.93059,1774.8],[-120.57761,39.92962,1769.8],[-120.57899,39.92895,1773.5],[-120.5793,39.92886,1775.6],[-120.57946,39.92884,1775.9],[-120.57945,39.92862,1776.1],[-120.57989,39.92743,1768.5],[-120.57976,39.92634,1768.9],[-120.57987,39.92519,1769.8],[-120.5818,39.92367,1769.9],[-120.58231,39.92313,1769.9],[-120.583,39.92147,1771.7],[-120.58517,39.91964,1774.5],[-120.58339,39.91859,1774.3],[-120.5826,39.91755,1774.8],[-120.58288,39.91681,1776.3],[-120.58204,39.91395,1783.5],[-120.58185,39.91214,1791.0],[-120.5794,39.91069,1786.4],[-120.57601,39.90981,1781.7],[-120.57069,39.91218,1777.1],[-120.56957,39.91231,1776.3],[-120.56775,39.91162,1772.3],[-120.56569,39.9117,1776.9],[-120.56524,39.91134,1778.3],[-120.56342,39.90927,1778.7],[-120.56218,39.90762,1778.7],[-120.56046,39.90599,1780.5],[-120.55804,39.90433,1780.1],[-120.55265,39.90321,1777.2],[-120.5493,39.90385,1781.6],[-120.54801,39.90321,1781.8],[-120.54486,39.90293,1782.0],[-120.54334,39.9024,1778.8],[-120.54197,39.90238,1779.7],[-120.53813,39.90144,1780.1],[-120.53671,39.90128,1777.3],[-120.53345,39.90326,1776.7],[-120.5316,39.90332,1780.1],[-120.53027,39.9028,1782.3],[-120.52924,39.9029,1780.6],[-120.52774,39.9028,1777.6],[-120.5265,39.90217,1782.6],[-120.52508,39.90052,1778.5],[-120.52238,39.89849,1776.8],[-120.51924,39.89656,1777.6],[-120.51777,39.8955,1770.8],[-120.51658,39.89443,1770.7],[-120.51632,39.89315,1772.3],[-120.51485,39.89268,1773.1],[-120.51401,39.89251,1773.4],[-120.51314,39.89266,1773.5],[-120.51231,39.893,1774.2],[-120.51152,39.89296,1776.2],[-120.51049,39.89244,1777.2],[-120.51005,39.8918,1779.8],[-120.50945,39.88996,1782.4],[-120.51074,39.88769,1784.3],[-120.51116,39.88648,1778.2],[-120.51134,39.88594,1777.6],[-120.51147,39.88512,1778.3],[-120.5113,39.88459,1778.8],[-120.5077,39.88181,1778.7],[-120.50517,39.87744,1780.7],[-120.50298,39.87675,1785.0],[-120.50257,39.87637,1786.7],[-120.50231,39.87599,1789.8],[-120.50202,39.87493,1791.7],[-120.50247,39.87454,1791.9],[-120.50344,39.87355,1792.2],[-120.50418,39.87292,1792.2],[-120.50412,39.87228,1787.4],[-120.50397,39.87184,1792.1],[-120.50353,39.8714,1789.3],[-120.50301,39.87117,1790.7],[-120.50241,39.87111,1794.1],[-120.50161,39.87128,1796.7],[-120.50067,39.87128,1795.5],[-120.50028,39.87122,1794.4],[-120.49863,39.87207,1787.7],[-120.49879,39.87216,1786.9],[-120.49882,39.87225,1786.0],[-120.4988,39.87242,1784.6],[-120.4987,39.87254,1784.0],[-120.4986,39.8727,1782.7],[-120.49811,39.87305,1780.5],[-120.49809,39.87318,1780.4],[-120.49813,39.8735,1780.9],[-120.49814,39.87379,1781.1],[-120.49818,39.87402,1780.5],[-120.49814,39.87435,1776.7],[-120.49806,39.87449,1775.1],[-120.49762,39.87498,1775.3],[-120.49734,39.87511,1775.3],[-120.49707,39.87518,1775.0],[-120.49683,39.87548,1775.1],[-120.4965,39.8758,1774.9],[-120.49589,39.87601,1775.3],[-120.49558,39.8759,1775.0],[-120.49548,39.87583,1774.7],[-120.49528,39.87557,1774.4],[-120.49509,39.8755,1774.6],[-120.49488,39.87549,1774.5],[-120.49469,39.87557,1774.3],[-120.49451,39.87554,1774.3],[-120.4944,39.87549,1774.3],[-120.49319,39.87587,1773.6],[-120.49293,39.87621,1772.1],[-120.49241,39.87637,1772.1],[-120.49184,39.87648,1772.6],[-120.49128,39.87677,1771.3],[-120.49059,39.877,1772.3],[-120.48969,39.87691,1771.2],[-120.48915,39.8766,1769.7],[-120.48858,39.87607,1772.4],[-120.48821,39.87563,1773.6],[-120.48801,39.87559,1773.4],[-120.48778,39.87565,1772.6],[-120.48759,39.87583,1772.1],[-120.48697,39.87637,1770.1],[-120.48692,39.8766,1769.5],[-120.48672,39.87683,1769.3],[-120.48638,39.87695,1768.7],[-120.48606,39.87701,1768.0],[-120.48587,39.87695,1767.6],[-120.48563,39.87683,1768.5],[-120.48559,39.87663,1769.3],[-120.4853,39.87671,1769.3],[-120.48518,39.87666,1770.0],[-120.48482,39.87637,1769.0],[-120.48443,39.87641,1768.9],[-120.48385,39.87625,1769.3],[-120.48336,39.87615,1770.3],[-120.48308,39.87613,1770.6],[-120.48291,39.87633,1770.0],[-120.48272,39.87646,1770.2],[-120.48277,39.87666,1769.8],[-120.48277,39.87683,1769.4],[-120.48275,39.87698,1769.1],[-120.48264,39.87707,1769.1],[-120.48244,39.87728,1768.8],[-120.48215,39.87773,1767.9],[-120.48185,39.87802,1767.4],[-120.48123,39.8783,1766.9],[-120.48028,39.8784,1766.6],[-120.48003,39.87831,1767.2],[-120.47983,39.87818,1767.7],[-120.47969,39.8783,1767.3],[-120.47964,39.87869,1765.4],[-120.47962,39.87915,1763.8],[-120.47958,39.87942,1763.0],[-120.47941,39.87963,1762.8],[-120.47918,39.88007,1762.8],[-120.47893,39.8805,1762.9],[-120.47884,39.8808,1762.3],[-120.47871,39.88107,1761.8],[-120.47838,39.8814,1761.4],[-120.47775,39.88179,1761.2],[-120.47748,39.88186,1761.8],[-120.47725,39.88177,1762.3],[-120.47723,39.8816,1762.5],[-120.47703,39.88154,1763.0],[-120.47685,39.88157,1763.9],[-120.47683,39.88183,1763.7],[-120.47699,39.88228,1763.3],[-120.47716,39.88285,1761.0],[-120.47715,39.88333,1760.6],[-120.47687,39.88362,1761.2],[-120.47625,39.88398,1761.2],[-120.47571,39.88418,1765.2],[-120.47575,39.88423,1763.4],[-120.47576,39.88429,1762.6],[-120.47562,39.88436,1763.4],[-120.47521,39.88439,1766.4],[-120.47502,39.88433,1768.5],[-120.47494,39.88444,1769.0],[-120.47492,39.88454,1767.6],[-120.47457,39.88451,1770.6],[-120.47446,39.88439,1771.9],[-120.47431,39.88432,1773.3],[-120.47415,39.88415,1774.6],[-120.47392,39.88421,1775.5],[-120.47372,39.88416,1776.7],[-120.47354,39.88422,1777.6],[-120.47319,39.88448,1779.1],[-120.47285,39.88456,1781.4],[-120.47269,39.88477,1781.2],[-120.47245,39.88492,1782.3],[-120.47229,39.88507,1784.2],[-120.47209,39.88541,1786.5],[-120.47205,39.88554,1786.8],[-120.47188,39.88561,1789.0],[-120.47162,39.88566,1791.0],[-120.47154,39.88583,1791.8],[-120.47135,39.88598,1793.0],[-120.47116,39.88591,1793.9],[-120.47101,39.88593,1794.8],[-120.47085,39.88613,1795.3],[-120.47062,39.88619,1796.3],[-120.47043,39.88635,1797.3],[-120.47034,39.88665,1798.1],[-120.47021,39.8868,1799.3],[-120.4703,39.88697,1799.1],[-120.47054,39.8873,1798.3],[-120.47105,39.88778,1796.3],[-120.47158,39.88823,1794.6],[-120.47222,39.88881,1792.5],[-120.47297,39.88941,1786.3],[-120.47332,39.88985,1785.1],[-120.4739,39.89051,1782.9],[-120.47449,39.89107,1784.4],[-120.47497,39.89148,1786.4],[-120.47525,39.89162,1787.0],[-120.47596,39.89237,1784.8],[-120.47635,39.89262,1783.2],[-120.4766,39.89269,1782.3]]}}
