{"type":"Feature","properties":{"name":"Lakes Basin Blue","sourceLabel":"Trailforks route plan 785884 — Lakes Basin Blue","sourceUrl":"https://www.trailforks.com/routeplan/view/785884/","gpxSha256":"0d5f107c1056e9c6ed7a0dd871eec18efe0525f72bf1b4c4181e9c45f11d6414","importedAt":"2026-09-29T16:57:34.462235+00:00","elevationSource":"AWS Terrain Tiles (USGS 3DEP and SRTM), bilinear sampling at zoom 12; Trailforks GPX zero placeholders removed","sourceStats":{"distanceMiles":16.21,"pointCount":1394,"climbingFt":2864,"descendingFt":2863,"movingMinutes":163,"movingTimeEstimated":true},"repair":{"type":"remove-junction-detour","date":"2026-09-29","originalGeometrySha256":"fa287d2d880dea1e57cd899e9bf521065d183747abe01e103213b5cd33a88dad","originalFromIndex":1124,"originalToIndex":1165,"requestedMiles":[12.51,12.91],"originalSpliceMiles":[12.4907,12.9589],"removedPointCount":40,"insertedPointCount":15,"removedDistanceM":634.0401195831073,"osmWayIds":[310893493,310893494],"geometrySource":"OpenStreetMap contributors","geometrySourceUrl":"https://www.openstreetmap.org/copyright","method":"Follow mapped approach to junction and short southbound connector to the continuing trail. Sample existing terrain, blend endpoint elevations, and retain all points outside the splice exactly. Source climbing and estimated moving time remain the original Trailforks plan totals."}},"geometry":{"type":"LineString","coordinates":[[-120.61788,39.76599,1331.82],[-120.6181,39.7658,1332.35],[-120.61813,39.76574,1332.28],[-120.61812,39.76571,1332.23],[-120.61769,39.76527,1331.16],[-120.61724,39.76485,1330.47],[-120.61666,39.7644,1334.59],[-120.61627,39.76415,1338.26],[-120.61577,39.76397,1340.21],[-120.61552,39.76385,1340.34],[-120.61522,39.76372,1340.53],[-120.6151,39.76365,1340.59],[-120.6149,39.76346,1340.93],[-120.61471,39.7632,1341.85],[-120.61461,39.7631,1341.71],[-120.61452,39.76295,1341.78],[-120.61455,39.76289,1341.98],[-120.61467,39.76276,1343.17],[-120.61475,39.76245,1345],[-120.61475,39.76196,1347.42],[-120.61478,39.76186,1348.05],[-120.61486,39.76137,1349.78],[-120.61487,39.76074,1351.89],[-120.61492,39.76047,1353.17],[-120.61498,39.76025,1354.15],[-120.61502,39.75964,1356.81],[-120.61507,39.75959,1357],[-120.61509,39.75952,1357.3],[-120.61513,39.75947,1357.5],[-120.61514,39.75937,1357.94],[-120.6151,39.75918,1358.9],[-120.6151,39.75909,1359.34],[-120.61515,39.75868,1361.72],[-120.61514,39.75834,1363.8],[-120.61517,39.75787,1366.47],[-120.61514,39.75764,1367.79],[-120.61517,39.75748,1368.74],[-120.61514,39.75722,1370.2],[-120.61516,39.75703,1371.53],[-120.61513,39.7569,1372.51],[-120.61513,39.7568,1373.39],[-120.61521,39.75652,1375.99],[-120.61527,39.75643,1376.9],[-120.6153,39.75605,1379.29],[-120.61533,39.75591,1379.96],[-120.6154,39.7558,1380.43],[-120.61539,39.75544,1381.77],[-120.61541,39.7551,1383.19],[-120.6155,39.75481,1384.55],[-120.61553,39.75454,1385.77],[-120.61552,39.75428,1386.97],[-120.61553,39.75396,1388.62],[-120.61552,39.75377,1389.65],[-120.61553,39.7537,1390.07],[-120.61559,39.7536,1390.73],[-120.6156,39.75355,1391.04],[-120.61561,39.75331,1392.72],[-120.61566,39.75304,1394.92],[-120.61566,39.75294,1395.7],[-120.61562,39.75277,1396.92],[-120.61563,39.7526,1398.09],[-120.61561,39.75236,1399.57],[-120.61563,39.75224,1400.34],[-120.61563,39.75211,1401.18],[-120.61563,39.75205,1401.57],[-120.61569,39.75195,1402.33],[-120.61573,39.75191,1402.76],[-120.61578,39.75166,1405.42],[-120.61578,39.75153,1406.97],[-120.61583,39.75126,1409.97],[-120.61586,39.75121,1410.54],[-120.61594,39.75115,1411.4],[-120.61604,39.75114,1411.9],[-120.61616,39.75117,1412.33],[-120.61628,39.75124,1412.6],[-120.61636,39.75132,1413.06],[-120.61648,39.7514,1414.25],[-120.61665,39.75157,1416.22],[-120.61685,39.75171,1421.43],[-120.61691,39.75178,1422.2],[-120.61709,39.75193,1424.73],[-120.61733,39.75219,1424.34],[-120.61756,39.75236,1424.18],[-120.61767,39.75238,1425.45],[-120.61782,39.75238,1427.4],[-120.61794,39.75231,1430.31],[-120.61803,39.75229,1431.91],[-120.61823,39.75225,1433.94],[-120.6184,39.75223,1435.39],[-120.61857,39.75216,1438.81],[-120.61883,39.75212,1441.67],[-120.61892,39.75209,1442.89],[-120.61903,39.75203,1444.68],[-120.61921,39.75187,1448.86],[-120.61948,39.75173,1453.78],[-120.61958,39.75165,1456.73],[-120.61976,39.75163,1456.84],[-120.61989,39.75149,1458.33],[-120.61993,39.7514,1459.25],[-120.61993,39.75136,1459.59],[-120.61989,39.75125,1461.41],[-120.61989,39.75122,1461.7],[-120.61983,39.75111,1464.28],[-120.61978,39.75098,1466.86],[-120.61962,39.75072,1471.37],[-120.61949,39.75046,1473],[-120.61937,39.75029,1474.58],[-120.61929,39.75024,1475.51],[-120.61925,39.75017,1475.6],[-120.61893,39.75001,1478.08],[-120.61868,39.74986,1479.02],[-120.61859,39.74979,1479.91],[-120.61852,39.74968,1480.49],[-120.61838,39.74933,1482.12],[-120.61839,39.74929,1482.44],[-120.6185,39.74916,1483.81],[-120.61853,39.74903,1484.94],[-120.61841,39.74872,1486.74],[-120.6184,39.74859,1487.88],[-120.61842,39.74852,1488.87],[-120.61846,39.74847,1489.94],[-120.6186,39.74842,1493.08],[-120.61879,39.74843,1496.07],[-120.61888,39.74845,1496.73],[-120.61916,39.74857,1497.24],[-120.61931,39.7486,1498],[-120.61943,39.74858,1499.39],[-120.61972,39.74846,1502.23],[-120.61997,39.74848,1502.96],[-120.62006,39.74845,1503.49],[-120.62017,39.74847,1503.62],[-120.62021,39.74846,1503.76],[-120.62034,39.74832,1504.88],[-120.62046,39.74823,1505.55],[-120.62061,39.74805,1506.43],[-120.62082,39.74788,1507.51],[-120.62111,39.74768,1509.2],[-120.62148,39.7474,1511.57],[-120.62162,39.74733,1512.77],[-120.6218,39.74714,1514.6],[-120.62217,39.7469,1517.3],[-120.6223,39.74678,1519.12],[-120.62235,39.74669,1520.06],[-120.62236,39.74659,1520.73],[-120.62239,39.74649,1521.58],[-120.62246,39.74641,1522.64],[-120.62262,39.74616,1525.42],[-120.62263,39.7461,1525.8],[-120.62258,39.74587,1525.55],[-120.62262,39.74562,1527.65],[-120.62269,39.74554,1529.14],[-120.62277,39.7453,1531.06],[-120.6229,39.74515,1532.46],[-120.62299,39.74507,1533.33],[-120.62324,39.74492,1535.09],[-120.62372,39.74472,1540.32],[-120.62382,39.74462,1541.62],[-120.62433,39.7443,1546.77],[-120.62436,39.74425,1546.96],[-120.62437,39.74415,1546.97],[-120.6244,39.7441,1547.26],[-120.62449,39.74399,1548.35],[-120.62462,39.74389,1550.38],[-120.62478,39.74365,1553.24],[-120.62493,39.74346,1555.43],[-120.625,39.74332,1556.26],[-120.6251,39.74317,1557.9],[-120.62519,39.74289,1559.85],[-120.62524,39.74286,1560.5],[-120.62536,39.74255,1563.64],[-120.62555,39.7422,1565.96],[-120.62562,39.74211,1566.76],[-120.62572,39.74193,1567.8],[-120.62579,39.74185,1568.61],[-120.62583,39.74162,1572.59],[-120.62573,39.74157,1576.66],[-120.62561,39.74156,1579.82],[-120.62547,39.74161,1580.7],[-120.62523,39.74165,1583.84],[-120.62495,39.74172,1583.67],[-120.62481,39.74172,1583.99],[-120.62472,39.74168,1584.64],[-120.62464,39.74161,1585.56],[-120.62461,39.74153,1586.53],[-120.62455,39.74132,1588.48],[-120.62453,39.74115,1589.13],[-120.62448,39.74102,1588.6],[-120.62444,39.74077,1587.41],[-120.62445,39.74066,1586.95],[-120.6245,39.74058,1587.27],[-120.62485,39.7403,1592.41],[-120.62503,39.74023,1596.23],[-120.62514,39.74022,1598.34],[-120.62537,39.74031,1601.15],[-120.62566,39.74053,1600.96],[-120.62578,39.74065,1599.26],[-120.62578,39.74069,1598.33],[-120.6258,39.74072,1597.73],[-120.62583,39.74073,1597.62],[-120.62586,39.74068,1599.03],[-120.62603,39.74057,1603.12],[-120.6264,39.74043,1608.88],[-120.62652,39.74032,1612.64],[-120.62673,39.74021,1615.86],[-120.62682,39.74019,1616.57],[-120.62692,39.74021,1616.36],[-120.62709,39.74018,1616.87],[-120.62741,39.74003,1619.69],[-120.62777,39.73993,1620.38],[-120.62795,39.7398,1621.99],[-120.62805,39.73976,1622.2],[-120.62814,39.73966,1623.71],[-120.62827,39.7396,1623.35],[-120.62829,39.73948,1625.2],[-120.62839,39.73933,1627.17],[-120.62866,39.7391,1628.41],[-120.62873,39.73901,1629.53],[-120.62879,39.73883,1632.12],[-120.6288,39.73864,1634.97],[-120.62883,39.73855,1636.42],[-120.62891,39.73848,1637.42],[-120.62907,39.73838,1639.52],[-120.62908,39.73835,1640.16],[-120.6291,39.73836,1640.03],[-120.62908,39.73832,1640.75],[-120.62922,39.73831,1641.32],[-120.62935,39.73836,1640.87],[-120.62952,39.73847,1640.61],[-120.62967,39.73852,1641.51],[-120.62972,39.73854,1641.74],[-120.62984,39.73853,1642.27],[-120.63004,39.73846,1643.79],[-120.63029,39.73832,1646.37],[-120.63053,39.73817,1649.22],[-120.63065,39.73806,1651.16],[-120.63082,39.73797,1652.21],[-120.63087,39.73785,1653.91],[-120.63091,39.73782,1654.17],[-120.63111,39.73775,1654.14],[-120.63142,39.7378,1655.91],[-120.63166,39.73787,1658.97],[-120.63188,39.73792,1661.72],[-120.63197,39.73794,1662.88],[-120.63222,39.73807,1665.97],[-120.63228,39.73809,1667.18],[-120.63245,39.7381,1671.1],[-120.63281,39.73835,1678.66],[-120.63295,39.73853,1677.81],[-120.63299,39.73862,1676.41],[-120.63321,39.73868,1676.17],[-120.63325,39.73868,1676.01],[-120.63334,39.73863,1677.13],[-120.63364,39.73837,1685.08],[-120.63386,39.73826,1686.72],[-120.63407,39.73812,1686.06],[-120.63425,39.73803,1684.07],[-120.63436,39.73791,1684.88],[-120.63446,39.73783,1684.22],[-120.63452,39.73774,1685.41],[-120.63469,39.73764,1684.69],[-120.63485,39.73745,1687.18],[-120.63491,39.73729,1689.6],[-120.63494,39.73715,1691.91],[-120.63501,39.73705,1691.66],[-120.63506,39.73685,1692.88],[-120.63502,39.73651,1696.96],[-120.63495,39.73635,1699.16],[-120.63492,39.73626,1700.39],[-120.63486,39.73618,1701.6],[-120.63469,39.73602,1704.01],[-120.63462,39.73598,1704.78],[-120.6345,39.73594,1705.76],[-120.63441,39.73587,1706.65],[-120.63433,39.73573,1707.95],[-120.63436,39.73548,1710.23],[-120.63433,39.73541,1710.87],[-120.63417,39.73519,1712.16],[-120.63417,39.73509,1712.75],[-120.6342,39.73499,1713.58],[-120.63427,39.73479,1715.58],[-120.63434,39.73465,1717.48],[-120.6344,39.73455,1718.91],[-120.63455,39.73437,1721.72],[-120.6347,39.73425,1725.2],[-120.63473,39.7342,1726.09],[-120.63478,39.7341,1727.57],[-120.63479,39.73401,1728.23],[-120.63477,39.73387,1729.08],[-120.6347,39.73379,1729.14],[-120.6346,39.73375,1728.81],[-120.63434,39.73368,1728.38],[-120.63425,39.73362,1728.68],[-120.63421,39.73358,1728.93],[-120.6342,39.73353,1729.48],[-120.63421,39.73344,1730.39],[-120.63429,39.73332,1731.41],[-120.63473,39.73301,1737.59],[-120.63526,39.7327,1741.83],[-120.63603,39.73231,1751.39],[-120.63635,39.7321,1752.43],[-120.63677,39.7319,1757.53],[-120.63751,39.73148,1764.68],[-120.63775,39.73133,1766.4],[-120.63813,39.73102,1771.16],[-120.63844,39.73073,1774.46],[-120.63931,39.73,1784.58],[-120.63957,39.72981,1786.49],[-120.64028,39.72933,1792.57],[-120.64101,39.72892,1800.04],[-120.64124,39.72877,1801.51],[-120.64149,39.72845,1803.71],[-120.64157,39.72827,1805.78],[-120.64167,39.72791,1808.44],[-120.64171,39.72773,1809.22],[-120.64171,39.72759,1809.21],[-120.64175,39.72751,1809.93],[-120.64185,39.7274,1811.43],[-120.64221,39.72714,1815.73],[-120.64237,39.72699,1817.56],[-120.64248,39.72682,1818.73],[-120.64266,39.7265,1820.38],[-120.64285,39.72623,1821.06],[-120.64299,39.72609,1821.1],[-120.64314,39.72603,1821.5],[-120.64342,39.72601,1822.93],[-120.64406,39.72608,1827.53],[-120.64426,39.72616,1828.29],[-120.64468,39.72649,1826.86],[-120.64477,39.72654,1826.53],[-120.64497,39.72662,1826.46],[-120.64517,39.72669,1826.63],[-120.64547,39.72668,1828.73],[-120.64558,39.72665,1829.57],[-120.6457,39.72658,1830.67],[-120.64591,39.72642,1832.07],[-120.64614,39.72619,1835.04],[-120.64617,39.72611,1835.56],[-120.6462,39.7259,1836.51],[-120.64627,39.7257,1838.7],[-120.64647,39.72535,1844.39],[-120.64659,39.7252,1846.4],[-120.64687,39.72495,1849.96],[-120.64732,39.72465,1856.65],[-120.64747,39.72444,1857.19],[-120.64759,39.72435,1858.25],[-120.64783,39.72409,1859.26],[-120.64846,39.72359,1870.11],[-120.64851,39.72339,1871.12],[-120.64857,39.72329,1872.53],[-120.64857,39.72311,1872.31],[-120.6487,39.7226,1875.4],[-120.64882,39.72237,1878.89],[-120.64884,39.72223,1879.71],[-120.64887,39.72218,1880.52],[-120.64898,39.722,1883],[-120.64903,39.72187,1883.72],[-120.64905,39.7217,1883.01],[-120.64914,39.72148,1884.63],[-120.64919,39.72141,1886.32],[-120.64926,39.72123,1890.02],[-120.64933,39.72102,1894.37],[-120.64935,39.72088,1895.33],[-120.64938,39.72069,1896.47],[-120.64937,39.72057,1896.38],[-120.64939,39.72045,1897.12],[-120.64945,39.72032,1899.69],[-120.64948,39.72019,1901.14],[-120.64966,39.71989,1908.64],[-120.64968,39.71981,1908.51],[-120.64968,39.71976,1908.13],[-120.64973,39.71962,1908.68],[-120.64973,39.71957,1908.43],[-120.64986,39.7192,1913.19],[-120.65001,39.71889,1917.6],[-120.65009,39.71877,1918.77],[-120.6502,39.71854,1919.53],[-120.65025,39.71845,1920.41],[-120.65063,39.71762,1921.97],[-120.6507,39.71754,1923.83],[-120.65098,39.71729,1930.2],[-120.65121,39.71711,1933.1],[-120.65135,39.71702,1934.57],[-120.65149,39.71684,1936.16],[-120.6515,39.71666,1936.17],[-120.65153,39.71655,1936.63],[-120.65151,39.71649,1936.69],[-120.65133,39.71618,1935.84],[-120.65124,39.71596,1937.81],[-120.65116,39.71586,1938.63],[-120.65109,39.71571,1940.48],[-120.65089,39.71544,1942.14],[-120.65084,39.7153,1943.57],[-120.65083,39.71518,1945.12],[-120.65075,39.71498,1945.78],[-120.65075,39.71493,1946.11],[-120.65079,39.71479,1947.89],[-120.65078,39.71467,1948.31],[-120.65074,39.71461,1947.62],[-120.65073,39.71453,1947.68],[-120.65075,39.71433,1948.91],[-120.65075,39.71416,1949.56],[-120.65078,39.71405,1950.4],[-120.65087,39.71394,1952.62],[-120.65093,39.7139,1954.11],[-120.65096,39.7139,1954.8],[-120.651,39.71392,1955.59],[-120.65104,39.714,1956.13],[-120.65114,39.71404,1957.89],[-120.65116,39.71407,1958.21],[-120.65121,39.71425,1958.82],[-120.65129,39.71435,1960.08],[-120.6515,39.71445,1963.2],[-120.65155,39.71445,1963.96],[-120.65169,39.7145,1965.7],[-120.65179,39.71448,1966.25],[-120.65184,39.71446,1966.61],[-120.65207,39.71428,1968.32],[-120.65219,39.71416,1968.24],[-120.65241,39.71382,1971.1],[-120.65265,39.71362,1970.2],[-120.65294,39.71352,1969.53],[-120.65314,39.71338,1971.02],[-120.65333,39.71332,1970.53],[-120.65338,39.71328,1970.96],[-120.65353,39.71322,1969.17],[-120.65381,39.713,1967.66],[-120.65398,39.71293,1965.47],[-120.65435,39.71281,1965.49],[-120.65456,39.71271,1967.67],[-120.65487,39.71253,1970.23],[-120.65518,39.71241,1969.35],[-120.6554,39.71226,1968.16],[-120.65538,39.71226,1968.36],[-120.65538,39.71225,1968.38],[-120.6555,39.71206,1967.63],[-120.65571,39.7115,1970.52],[-120.65581,39.71132,1970.23],[-120.65588,39.71124,1970.22],[-120.65606,39.71109,1969.51],[-120.65625,39.71081,1964.74],[-120.65672,39.71039,1958.99],[-120.65685,39.71021,1957.9],[-120.65703,39.70999,1956.9],[-120.65725,39.70966,1953.25],[-120.65738,39.70938,1948.87],[-120.65753,39.70872,1943.74],[-120.65759,39.70857,1943.55],[-120.65774,39.7083,1944.02],[-120.65804,39.70791,1937.92],[-120.65809,39.70782,1936.45],[-120.65818,39.70746,1933.41],[-120.65815,39.70723,1934.15],[-120.65815,39.70709,1934.51],[-120.65821,39.70697,1934.08],[-120.65851,39.70664,1929.19],[-120.6586,39.70648,1927.52],[-120.65862,39.70637,1927],[-120.65865,39.70631,1926.58],[-120.65892,39.70597,1924.9],[-120.65897,39.70586,1924.93],[-120.65898,39.70579,1925.1],[-120.65902,39.70574,1925.05],[-120.65904,39.70568,1925.19],[-120.6592,39.70544,1925.08],[-120.65926,39.70522,1925.35],[-120.65932,39.70518,1925.28],[-120.6596,39.7051,1925.07],[-120.65985,39.70498,1927.66],[-120.65992,39.70489,1928.55],[-120.65993,39.70484,1928.71],[-120.65991,39.70479,1928.81],[-120.65972,39.70457,1929.43],[-120.65968,39.70448,1930.11],[-120.65967,39.70443,1930.53],[-120.6597,39.70432,1930.97],[-120.65986,39.70402,1930.66],[-120.65997,39.70378,1929.72],[-120.66003,39.70356,1929.03],[-120.66001,39.70342,1929.04],[-120.65997,39.7033,1929.29],[-120.65984,39.70306,1930.89],[-120.6598,39.70294,1931.76],[-120.65979,39.70288,1932.07],[-120.6598,39.70275,1932.35],[-120.65983,39.70275,1931.77],[-120.65992,39.70243,1931.5],[-120.66,39.70229,1931.06],[-120.66005,39.70214,1931.38],[-120.66012,39.702,1930.98],[-120.66019,39.70187,1930.4],[-120.66034,39.70169,1928.99],[-120.66054,39.70134,1928.26],[-120.66061,39.70104,1928.78],[-120.6607,39.70087,1928.75],[-120.66076,39.70052,1930],[-120.66077,39.70015,1931.42],[-120.6608,39.70006,1931],[-120.66081,39.69997,1930.94],[-120.66084,39.69994,1930.41],[-120.66096,39.69987,1928.32],[-120.661,39.69987,1927.96],[-120.66103,39.6999,1927.61],[-120.66109,39.70003,1926.86],[-120.66111,39.70015,1926.53],[-120.66117,39.70028,1925.72],[-120.66115,39.70045,1925.59],[-120.6611,39.70057,1925.6],[-120.66108,39.70069,1925.33],[-120.66103,39.70123,1924.02],[-120.66106,39.70139,1923.68],[-120.66115,39.70158,1923.07],[-120.66122,39.70188,1922.49],[-120.66145,39.70224,1920.87],[-120.66156,39.7023,1920.26],[-120.66175,39.70235,1919.39],[-120.66185,39.70236,1919.01],[-120.66198,39.70244,1918.29],[-120.66208,39.70259,1917.73],[-120.66211,39.70274,1917.11],[-120.66214,39.70277,1916.96],[-120.66227,39.70278,1916.78],[-120.66235,39.70275,1916.89],[-120.66235,39.70272,1917.03],[-120.66244,39.7027,1917.24],[-120.66252,39.70271,1917.3],[-120.66277,39.70269,1917.77],[-120.66323,39.70284,1918.44],[-120.66355,39.70281,1919.35],[-120.66402,39.70292,1921.18],[-120.66441,39.70305,1923.67],[-120.66454,39.70306,1924.39],[-120.66478,39.70322,1926.12],[-120.66484,39.70323,1926.46],[-120.66493,39.7032,1926.85],[-120.66516,39.70327,1927.95],[-120.66524,39.70326,1928.14],[-120.66572,39.70329,1927.44],[-120.66599,39.70329,1926.14],[-120.66629,39.70342,1925.63],[-120.66648,39.70353,1925.72],[-120.6667,39.7036,1925.92],[-120.66677,39.70359,1925.83],[-120.6669,39.7036,1926],[-120.66704,39.70373,1926.99],[-120.66717,39.70381,1927.64],[-120.66728,39.70384,1927.81],[-120.66748,39.70393,1928.38],[-120.66776,39.7041,1929.92],[-120.6679,39.70427,1930.52],[-120.66792,39.70431,1930.63],[-120.66792,39.70436,1930.93],[-120.66789,39.70448,1931.84],[-120.66789,39.70453,1932.12],[-120.66776,39.70463,1933.71],[-120.66774,39.70468,1934.19],[-120.66777,39.70487,1935.04],[-120.66774,39.70509,1936.65],[-120.66776,39.70515,1936.94],[-120.66785,39.7052,1936.82],[-120.66799,39.70523,1936.26],[-120.66805,39.70519,1935.55],[-120.66815,39.70516,1934.65],[-120.66843,39.70516,1932.37],[-120.66858,39.70519,1931.67],[-120.66888,39.70536,1930.45],[-120.66936,39.70551,1930.8],[-120.6694,39.70554,1930.7],[-120.66943,39.70558,1930.41],[-120.66947,39.70573,1928.82],[-120.66947,39.70591,1925.78],[-120.66944,39.70606,1923.33],[-120.66948,39.70614,1921.25],[-120.66941,39.70635,1919.06],[-120.66952,39.70645,1915.75],[-120.66954,39.70649,1914.9],[-120.66952,39.70658,1914.48],[-120.66954,39.70665,1913.67],[-120.66956,39.70668,1913.41],[-120.66961,39.7068,1912.5],[-120.66967,39.70685,1912.12],[-120.6697,39.70695,1911.68],[-120.66977,39.70702,1911.07],[-120.66985,39.70717,1910.02],[-120.66996,39.70727,1908.84],[-120.67003,39.70738,1907.59],[-120.67011,39.70745,1906.35],[-120.67023,39.70762,1903.52],[-120.67033,39.7078,1901.61],[-120.67057,39.70809,1895.65],[-120.67059,39.70813,1894.85],[-120.67062,39.70829,1891.47],[-120.67073,39.70838,1890.51],[-120.67075,39.70848,1889.97],[-120.67086,39.70858,1890.67],[-120.67086,39.70868,1890.35],[-120.67091,39.7088,1890.97],[-120.67077,39.70889,1888.86],[-120.67071,39.70887,1888],[-120.67069,39.70886,1887.72],[-120.67071,39.70887,1888],[-120.67072,39.70891,1888.05],[-120.67065,39.70892,1886.95],[-120.67059,39.7089,1886.2],[-120.67061,39.70888,1886.52],[-120.67059,39.7089,1886.2],[-120.6706,39.70891,1886.3],[-120.67057,39.70893,1885.75],[-120.67059,39.70898,1885.71],[-120.6706,39.70895,1886.04],[-120.67058,39.70894,1885.82],[-120.67065,39.70897,1886.57],[-120.67066,39.70903,1886.22],[-120.67073,39.7091,1886.4],[-120.67077,39.70933,1883.72],[-120.67085,39.70955,1880.88],[-120.67078,39.70964,1879.75],[-120.67063,39.70971,1878.96],[-120.67053,39.7098,1877.77],[-120.67041,39.70979,1877.32],[-120.67035,39.70981,1876.81],[-120.6702,39.70991,1874.74],[-120.67012,39.70992,1873.63],[-120.67007,39.71,1872.45],[-120.66995,39.7101,1870.91],[-120.6699,39.71028,1870.34],[-120.66995,39.71042,1870.29],[-120.66985,39.71064,1868.56],[-120.66977,39.71076,1866.39],[-120.6697,39.71081,1864.5],[-120.66972,39.71108,1858.67],[-120.66966,39.71119,1856.83],[-120.66956,39.71132,1855.39],[-120.6695,39.71154,1853.18],[-120.66949,39.71169,1852.08],[-120.66945,39.71177,1851.37],[-120.66946,39.71184,1851.02],[-120.66939,39.71218,1849.57],[-120.66934,39.7123,1848.84],[-120.66927,39.7124,1847.76],[-120.66925,39.71248,1847.14],[-120.66921,39.7125,1846.67],[-120.66911,39.71248,1845.96],[-120.66897,39.71252,1844.66],[-120.66883,39.71252,1843.47],[-120.66881,39.71254,1843.11],[-120.66881,39.71259,1842.86],[-120.66869,39.71262,1840.92],[-120.66865,39.71264,1840.21],[-120.66853,39.71284,1837.39],[-120.66851,39.71297,1835.55],[-120.66852,39.71303,1834.82],[-120.66852,39.71318,1832.51],[-120.66841,39.71325,1830.02],[-120.66837,39.71333,1828.15],[-120.66839,39.71339,1827.3],[-120.66855,39.71344,1828.64],[-120.6686,39.71351,1828.78],[-120.66861,39.71366,1827.85],[-120.66853,39.71391,1825.47],[-120.66853,39.71403,1824.89],[-120.6685,39.71409,1824.26],[-120.66852,39.71423,1823.45],[-120.66845,39.71453,1818.06],[-120.66844,39.71479,1811.87],[-120.66848,39.71501,1807.94],[-120.66845,39.71516,1806.68],[-120.6684,39.71522,1805.73],[-120.66829,39.71528,1804.55],[-120.66817,39.71532,1803.31],[-120.66803,39.71535,1802.41],[-120.66795,39.7154,1801.84],[-120.66783,39.71554,1800.67],[-120.66775,39.7156,1799.93],[-120.66756,39.71566,1797.94],[-120.66754,39.71575,1797.88],[-120.66744,39.7158,1796.93],[-120.66734,39.7159,1796.2],[-120.66727,39.71604,1795.84],[-120.66713,39.71618,1794.15],[-120.6668,39.71642,1791.37],[-120.66678,39.7165,1791.24],[-120.66681,39.71656,1791.44],[-120.6668,39.71661,1791.61],[-120.66649,39.71693,1790.98],[-120.66647,39.71697,1790.91],[-120.66648,39.71704,1791.16],[-120.66645,39.7171,1790.98],[-120.66636,39.71713,1790.49],[-120.66608,39.71737,1789.41],[-120.66596,39.71752,1788.97],[-120.66595,39.71757,1789.02],[-120.66589,39.71759,1788.7],[-120.66587,39.71762,1788.65],[-120.66582,39.71774,1788.86],[-120.66559,39.71806,1788.81],[-120.66555,39.71821,1789.67],[-120.66549,39.71828,1789.71],[-120.66536,39.71836,1788.8],[-120.66527,39.71848,1788.88],[-120.66502,39.7187,1788.09],[-120.66489,39.71885,1787.87],[-120.66489,39.71893,1788.67],[-120.66487,39.71896,1788.67],[-120.66479,39.71903,1788.16],[-120.66464,39.71921,1787.43],[-120.66451,39.71926,1785.67],[-120.66444,39.71933,1784.71],[-120.66442,39.71939,1784.46],[-120.66444,39.71942,1784.87],[-120.66444,39.71947,1784.96],[-120.66429,39.71957,1782.88],[-120.66431,39.71989,1785.48],[-120.66425,39.72003,1785.92],[-120.66426,39.72015,1788.08],[-120.66421,39.72027,1788.78],[-120.6642,39.72031,1788.86],[-120.66428,39.72044,1791.28],[-120.66429,39.72051,1791.82],[-120.66429,39.72063,1791.37],[-120.66432,39.72077,1790.9],[-120.66438,39.72092,1790.83],[-120.66461,39.72115,1794.26],[-120.66466,39.72124,1795.79],[-120.6648,39.7214,1800.52],[-120.66484,39.72156,1802.98],[-120.66483,39.72162,1802.98],[-120.66487,39.72173,1804.16],[-120.66485,39.72178,1803.77],[-120.66484,39.72192,1803.27],[-120.6649,39.72209,1803.25],[-120.6649,39.72218,1801.94],[-120.66485,39.72244,1797.37],[-120.66485,39.72278,1790.29],[-120.66486,39.72282,1789.44],[-120.66497,39.72282,1789.51],[-120.66498,39.72284,1789.16],[-120.66495,39.72293,1787.55],[-120.66485,39.72308,1784.31],[-120.66476,39.72316,1781.62],[-120.66498,39.72333,1783.34],[-120.66505,39.72343,1783.88],[-120.66507,39.72359,1783.6],[-120.66504,39.72363,1782.99],[-120.66507,39.72369,1783.21],[-120.66496,39.72398,1779.23],[-120.66499,39.72406,1779.02],[-120.665,39.72416,1778.4],[-120.66499,39.72423,1777.79],[-120.665,39.72432,1777.65],[-120.66503,39.72438,1777.89],[-120.66503,39.72453,1777.58],[-120.66499,39.72465,1776.96],[-120.66489,39.72481,1775.64],[-120.66469,39.72506,1772.57],[-120.66465,39.72512,1772.26],[-120.66464,39.72518,1772.35],[-120.66472,39.72524,1773.73],[-120.66471,39.72536,1774.98],[-120.66468,39.7254,1775.11],[-120.66446,39.72557,1774.01],[-120.66439,39.72565,1774.11],[-120.66427,39.72573,1774.59],[-120.66405,39.72578,1774.04],[-120.66398,39.7258,1774.31],[-120.66389,39.72586,1774.99],[-120.66382,39.72608,1777.35],[-120.66387,39.72617,1777.93],[-120.66395,39.72619,1778.41],[-120.66408,39.72621,1779.44],[-120.66439,39.72621,1783.36],[-120.66456,39.72624,1788.72],[-120.6646,39.72627,1790.4],[-120.66464,39.7264,1793.81],[-120.66463,39.72651,1795.34],[-120.66467,39.72692,1800.22],[-120.66472,39.72709,1802.01],[-120.66472,39.72723,1801.86],[-120.66476,39.72739,1803.13],[-120.66474,39.72742,1802.33],[-120.66476,39.72753,1803.16],[-120.66482,39.72765,1805.78],[-120.66484,39.72778,1807.07],[-120.6649,39.72793,1810.33],[-120.66492,39.72814,1811.49],[-120.66497,39.72838,1813.24],[-120.66498,39.72857,1812.84],[-120.66505,39.72889,1815.64],[-120.66506,39.72926,1819.88],[-120.66509,39.72938,1823.37],[-120.6651,39.72967,1828.79],[-120.66507,39.72975,1828.76],[-120.66509,39.72981,1830.8],[-120.66506,39.73005,1833.96],[-120.66496,39.73028,1834.23],[-120.66498,39.73039,1837.38],[-120.66491,39.73057,1838.15],[-120.66492,39.73064,1840.24],[-120.6649,39.73084,1844.13],[-120.66489,39.7311,1849.76],[-120.66487,39.73117,1850.16],[-120.66485,39.73131,1851.84],[-120.66486,39.73158,1854.78],[-120.66485,39.73167,1854.42],[-120.66486,39.7317,1854.63],[-120.66482,39.7318,1852.77],[-120.66485,39.73186,1853.5],[-120.66487,39.73204,1851.07],[-120.66499,39.73215,1852.13],[-120.66507,39.73232,1849.66],[-120.66512,39.73239,1848.56],[-120.6653,39.73257,1846.53],[-120.66544,39.73267,1845.32],[-120.6655,39.73273,1843.64],[-120.66552,39.73283,1841.78],[-120.66559,39.73296,1839.26],[-120.66562,39.73315,1835.92],[-120.66566,39.73316,1835.79],[-120.66569,39.73314,1836.12],[-120.66573,39.73302,1837.84],[-120.66576,39.73299,1838.17],[-120.66579,39.73285,1839.68],[-120.66579,39.7327,1841.3],[-120.66581,39.73262,1842.42],[-120.66589,39.73252,1843.28],[-120.66618,39.73225,1843.4],[-120.66636,39.73203,1844.78],[-120.66642,39.73201,1844.3],[-120.66654,39.73202,1845.43],[-120.66656,39.73196,1845.74],[-120.66659,39.73195,1846.14],[-120.66664,39.73195,1846.82],[-120.66671,39.73197,1847.85],[-120.66671,39.732,1847.99],[-120.66675,39.73209,1849.11],[-120.66675,39.73214,1849.41],[-120.66671,39.73218,1848.43],[-120.66664,39.73241,1845.92],[-120.66668,39.73261,1844.23],[-120.6666,39.73285,1841.34],[-120.66661,39.73293,1840.81],[-120.66659,39.73301,1840.06],[-120.66651,39.73312,1838.65],[-120.66649,39.73319,1838.01],[-120.66632,39.73349,1834.89],[-120.66629,39.73361,1834.04],[-120.66627,39.734,1831.38],[-120.66633,39.73411,1830.65],[-120.66634,39.73418,1830.01],[-120.66644,39.73437,1828.21],[-120.66653,39.73467,1820.42],[-120.66661,39.73489,1814.16],[-120.66661,39.73496,1811.69],[-120.66668,39.7351,1808.95],[-120.66671,39.73523,1806.25],[-120.66675,39.73538,1803.51],[-120.66699,39.73588,1794.28],[-120.66701,39.73595,1792.47],[-120.66699,39.73601,1790.67],[-120.66695,39.73608,1788.56],[-120.66717,39.73606,1790.21],[-120.66729,39.73608,1790.36],[-120.66737,39.73612,1789.5],[-120.66739,39.73615,1788.59],[-120.66733,39.73629,1783.54],[-120.66723,39.73644,1778.25],[-120.66724,39.73655,1774.67],[-120.66728,39.73667,1770.95],[-120.66729,39.73686,1765.79],[-120.66738,39.73696,1763.06],[-120.66742,39.73706,1760.63],[-120.66748,39.73718,1757.75],[-120.66753,39.73745,1752.72],[-120.66756,39.73752,1751.84],[-120.66755,39.73761,1750.28],[-120.6674,39.73787,1744.9],[-120.66744,39.73791,1744.66],[-120.66745,39.73801,1743.16],[-120.66731,39.7381,1740.51],[-120.66699,39.73823,1736.17],[-120.66691,39.73828,1734.59],[-120.66686,39.73833,1733.22],[-120.66668,39.73861,1726.86],[-120.6664,39.7389,1719.58],[-120.66636,39.73896,1717.86],[-120.66634,39.7391,1713.97],[-120.66636,39.73942,1706.02],[-120.66635,39.73948,1704.7],[-120.66626,39.73955,1702.73],[-120.66593,39.73975,1696.4],[-120.66588,39.7398,1694.83],[-120.66573,39.74,1691.22],[-120.66563,39.7402,1688.66],[-120.66549,39.74027,1686.15],[-120.66529,39.74029,1684.07],[-120.6652,39.74031,1683.07],[-120.66514,39.74036,1681.96],[-120.66503,39.74042,1680.93],[-120.66492,39.74051,1679.96],[-120.66472,39.74076,1676.91],[-120.66462,39.74085,1676.84],[-120.66453,39.7409,1676.84],[-120.66442,39.74102,1675.67],[-120.66413,39.74125,1674.72],[-120.66409,39.74129,1674.29],[-120.66412,39.74136,1672.56],[-120.6641,39.74141,1671.72],[-120.66385,39.74162,1669.89],[-120.66379,39.74165,1669.94],[-120.66374,39.74174,1668.2],[-120.66362,39.74191,1664.84],[-120.66354,39.74199,1663.72],[-120.66349,39.74214,1660.07],[-120.66352,39.74224,1657.98],[-120.66338,39.7424,1654.37],[-120.66329,39.74247,1652.91],[-120.66308,39.74252,1651.69],[-120.66287,39.74266,1646.32],[-120.66264,39.74288,1638.06],[-120.66263,39.74297,1635.28],[-120.66258,39.74309,1633.99],[-120.66248,39.74316,1631.59],[-120.66236,39.74332,1627.76],[-120.66197,39.74358,1619.73],[-120.66191,39.7436,1619.59],[-120.66187,39.7436,1619.53],[-120.66195,39.7436,1619.66],[-120.66195,39.74362,1619.6],[-120.66187,39.74369,1618.94],[-120.66183,39.74369,1618.71],[-120.66176,39.74373,1617.84],[-120.66145,39.74398,1613.91],[-120.66118,39.74433,1608.61],[-120.66114,39.74446,1607.43],[-120.66107,39.74453,1606.16],[-120.66095,39.7446,1604.45],[-120.6609,39.74469,1603.6],[-120.6608,39.74479,1601.79],[-120.66077,39.74483,1601.14],[-120.66077,39.74488,1600.99],[-120.66083,39.74494,1601.69],[-120.66061,39.74511,1597.71],[-120.66057,39.74512,1597.15],[-120.66054,39.7451,1596.83],[-120.66045,39.74513,1595.5],[-120.6603,39.7451,1593.72],[-120.66023,39.74503,1594.09],[-120.66021,39.74498,1594.81],[-120.66018,39.74496,1595.08],[-120.66006,39.74495,1595.15],[-120.65987,39.74488,1596.28],[-120.65974,39.74486,1596.38],[-120.65974,39.74483,1596.83],[-120.65975,39.74483,1596.86],[-120.65971,39.7449,1595.75],[-120.65964,39.74491,1595.54],[-120.6596,39.74491,1595.51],[-120.65951,39.74488,1595.96],[-120.65948,39.7449,1595.82],[-120.65942,39.74489,1596.03],[-120.65939,39.74487,1596.25],[-120.65936,39.74482,1596.65],[-120.65924,39.74481,1596.78],[-120.65916,39.74475,1598.34],[-120.65907,39.74474,1599.55],[-120.65904,39.74469,1600.41],[-120.659,39.74468,1601],[-120.65885,39.74478,1601.99],[-120.65873,39.74477,1603.87],[-120.65869,39.74474,1604.72],[-120.65867,39.74476,1604.85],[-120.65846,39.7449,1607.14],[-120.6582,39.74496,1610.59],[-120.658,39.74505,1612.18],[-120.65786,39.74505,1613.84],[-120.6578,39.74502,1614.97],[-120.65773,39.74503,1615.63],[-120.65763,39.74508,1615.94],[-120.65762,39.74511,1615.51],[-120.65744,39.74517,1616.41],[-120.65729,39.74525,1616.64],[-120.65725,39.74524,1617.21],[-120.65722,39.74526,1617.21],[-120.65709,39.74523,1618.88],[-120.65704,39.74527,1618.69],[-120.65694,39.74523,1620.18],[-120.65684,39.74524,1620.89],[-120.65672,39.74518,1623.08],[-120.65665,39.74508,1625.4],[-120.65661,39.74493,1628.28],[-120.65658,39.74491,1628.9],[-120.65663,39.74478,1630.58],[-120.65673,39.74468,1631.32],[-120.65677,39.74462,1631.95],[-120.65677,39.74453,1633.46],[-120.65681,39.74443,1634.6],[-120.65681,39.74436,1635.69],[-120.65683,39.74436,1635.45],[-120.65673,39.74443,1635.49],[-120.65645,39.74452,1637.09],[-120.65636,39.74458,1637.2],[-120.65624,39.7446,1638.43],[-120.65621,39.74459,1639.02],[-120.65608,39.74463,1640.11],[-120.65589,39.74465,1642.55],[-120.65577,39.74465,1644.25],[-120.65571,39.74463,1645.49],[-120.65565,39.74464,1645.98],[-120.65559,39.74461,1647.58],[-120.65554,39.74455,1650.04],[-120.65549,39.74452,1651.43],[-120.65545,39.74452,1651.96],[-120.6554,39.74455,1651.68],[-120.65524,39.74454,1653.21],[-120.65519,39.74457,1652.53],[-120.65502,39.74441,1658.48],[-120.6549,39.74436,1660.54],[-120.65475,39.74444,1657.77],[-120.65469,39.74451,1654.93],[-120.65461,39.74452,1654.4],[-120.65452,39.74451,1654.65],[-120.65446,39.74456,1652.6],[-120.65432,39.74458,1653.59],[-120.65424,39.74464,1653.27],[-120.65418,39.74465,1654.07],[-120.65413,39.74469,1654.09],[-120.65393,39.74473,1657.46],[-120.65382,39.7448,1658.43],[-120.6535,39.74487,1662.94],[-120.65348,39.74488,1663.03],[-120.65345,39.74488,1663.58],[-120.65342,39.74486,1664.7],[-120.6534,39.74486,1665.08],[-120.6533,39.74489,1666.04],[-120.65317,39.74499,1665.17],[-120.65302,39.74498,1668.19],[-120.65275,39.74505,1671.15],[-120.65266,39.74509,1671.89],[-120.65256,39.74509,1674.81],[-120.65248,39.74511,1676.29],[-120.65238,39.74517,1676.51],[-120.65213,39.74526,1680.4],[-120.65185,39.74546,1681.24],[-120.65166,39.74553,1685.12],[-120.65163,39.74556,1685.1],[-120.65154,39.74559,1687.44],[-120.65146,39.74566,1687.8],[-120.65132,39.74571,1691.28],[-120.65084,39.74598,1698.14],[-120.65039,39.74634,1698.61],[-120.65019,39.74644,1699.7],[-120.65007,39.74657,1699.06],[-120.64994,39.74666,1700.57],[-120.64964,39.74684,1699.54],[-120.64952,39.74693,1698.52],[-120.64949,39.74693,1698.15],[-120.64947,39.7469,1697.81],[-120.64941,39.7466,1694.76],[-120.64937,39.74655,1693.5],[-120.64934,39.74656,1692.99],[-120.64906,39.74677,1688.68],[-120.64874,39.74707,1683.8],[-120.64872,39.74706,1683.27],[-120.64869,39.747,1682.14],[-120.6487,39.7466,1679.8],[-120.64866,39.74625,1676.89],[-120.64866,39.74607,1674.92],[-120.64887,39.74533,1669.72],[-120.64882,39.74503,1666.16],[-120.64887,39.74487,1665.58],[-120.64884,39.74479,1663.74],[-120.64865,39.7447,1657.46],[-120.64861,39.74466,1655.8],[-120.64858,39.74461,1654.27],[-120.64857,39.74451,1652.58],[-120.64853,39.74442,1650.8],[-120.64851,39.74439,1650.11],[-120.64848,39.74441,1649.8],[-120.64842,39.74451,1649.71],[-120.64831,39.7446,1648.59],[-120.64826,39.74465,1648.18],[-120.64823,39.74472,1648.57],[-120.64814,39.74478,1647.99],[-120.64797,39.745,1646.62],[-120.6475,39.74517,1640.98],[-120.64736,39.74521,1639.72],[-120.64719,39.74529,1637.97],[-120.64709,39.74543,1636.24],[-120.64705,39.74545,1635.68],[-120.64698,39.74556,1634.14],[-120.64698,39.74558,1634],[-120.64706,39.74573,1634.1],[-120.64708,39.74601,1633.35],[-120.64706,39.74608,1632.88],[-120.64691,39.74626,1630.53],[-120.64676,39.74651,1628.89],[-120.64666,39.74662,1627.75],[-120.64661,39.74676,1627.88],[-120.64636,39.74703,1624.84],[-120.64618,39.74734,1621.06],[-120.64605,39.74748,1616.82],[-120.64598,39.74751,1614.76],[-120.64592,39.74759,1612.87],[-120.64583,39.74762,1610.33],[-120.64576,39.74762,1608.44],[-120.6457,39.74777,1607.08],[-120.64566,39.7479,1606.76],[-120.64564,39.74808,1606.71],[-120.64553,39.74829,1603.57],[-120.6455,39.74846,1601.06],[-120.64543,39.74866,1597.6],[-120.64542,39.74892,1595.76],[-120.64539,39.74896,1594.78],[-120.64528,39.74901,1591.41],[-120.64521,39.74911,1589.3],[-120.64514,39.74916,1587.14],[-120.64503,39.74937,1584.4],[-120.64501,39.74945,1584.83],[-120.64494,39.74952,1583.63],[-120.64481,39.74961,1581.38],[-120.64447,39.74977,1574.83],[-120.6442,39.74994,1571.52],[-120.64389,39.75011,1568.64],[-120.64382,39.75018,1568.43],[-120.64358,39.75067,1569.77],[-120.64341,39.75091,1569.53],[-120.64331008552801,39.75088253555222,1567.95],[-120.643288542764,39.75092876777611,1568],[-120.643267,39.750975,1568.02],[-120.643225,39.751028,1567.75],[-120.643183,39.751081,1567.43],[-120.643129,39.751123,1566.83],[-120.643056,39.751158000000004,1565.87],[-120.642983,39.751193,1564.91],[-120.6429727,39.75111365,1564.29],[-120.6429624,39.7510343,1563.75],[-120.6429741,39.750960925,1563.58],[-120.64298579999999,39.75088755,1563.41],[-120.64299749999999,39.750814175,1563.06],[-120.6430092,39.7507408,1562.65],[-120.64293459999999,39.7507504,1561.56],[-120.64286,39.75076,1560.29],[-120.64288,39.75087,1561.64],[-120.64287,39.75106,1562.34],[-120.64275,39.75142,1562.42],[-120.6428,39.75158,1564.25],[-120.6428,39.75167,1564.76],[-120.64283,39.75171,1565.32],[-120.64284,39.75202,1566.29],[-120.64293,39.75248,1568.5],[-120.64291,39.75252,1568.34],[-120.64272,39.75284,1566.14],[-120.64263,39.7531,1564.3],[-120.64266,39.75323,1565.1],[-120.64265,39.75329,1564.98],[-120.64254,39.75348,1563.33],[-120.64223,39.75394,1562.57],[-120.64214,39.75399,1561.99],[-120.64206,39.75393,1559.73],[-120.64198,39.75403,1560],[-120.64146,39.75453,1554.48],[-120.64122,39.75482,1551.9],[-120.64117,39.75494,1550.91],[-120.64108,39.75506,1549.26],[-120.6406,39.75555,1544.21],[-120.64046,39.75566,1542.91],[-120.63983,39.75598,1539.17],[-120.63972,39.75606,1538.73],[-120.63947,39.75635,1538.03],[-120.63926,39.75647,1537.57],[-120.63911,39.75658,1536.55],[-120.63901,39.7566,1536.19],[-120.63888,39.75665,1535.21],[-120.6387,39.75669,1533.8],[-120.63866,39.75672,1533.21],[-120.63848,39.75678,1531.68],[-120.63841,39.75682,1530.92],[-120.63823,39.75682,1530.2],[-120.63792,39.75684,1529.17],[-120.63758,39.75682,1529.11],[-120.63745,39.75677,1529.79],[-120.63729,39.75664,1531.65],[-120.63712,39.75658,1531.95],[-120.63704,39.75656,1531.82],[-120.63663,39.7566,1528.99],[-120.63652,39.75653,1528.5],[-120.63655,39.75653,1528.73],[-120.63666,39.7566,1529.18],[-120.63701,39.75681,1529.01],[-120.63701,39.75683,1528.8],[-120.63697,39.75685,1528.56],[-120.63677,39.75689,1527.82],[-120.63665,39.75695,1527.23],[-120.63641,39.75702,1526.19],[-120.63594,39.7571,1523.72],[-120.63576,39.75719,1522.06],[-120.63567,39.75721,1521.48],[-120.63546,39.75722,1520.4],[-120.6354,39.75724,1520.02],[-120.63536,39.75726,1519.72],[-120.63533,39.75732,1519.26],[-120.63524,39.75734,1518.68],[-120.635,39.75738,1517.24],[-120.63455,39.75736,1513.23],[-120.63452,39.75738,1513],[-120.63451,39.75741,1512.92],[-120.63452,39.75744,1513.3],[-120.6345,39.75754,1512.65],[-120.63417,39.75759,1505.02],[-120.6341,39.75764,1503.08],[-120.63409,39.75771,1503],[-120.63416,39.75797,1502.41],[-120.63414,39.75804,1501.57],[-120.63363,39.75814,1495.94],[-120.63362,39.75819,1495.58],[-120.63367,39.75824,1495.78],[-120.6338,39.75851,1496.08],[-120.63388,39.75861,1496.12],[-120.63407,39.75876,1496.42],[-120.6342,39.75896,1495.99],[-120.63427,39.759,1496.12],[-120.63427,39.75903,1495.95],[-120.63422,39.75915,1494.99],[-120.63413,39.75925,1493.84],[-120.63404,39.7594,1492.36],[-120.63385,39.75956,1490.16],[-120.6337,39.75976,1487.44],[-120.63359,39.75983,1485.77],[-120.6335,39.75986,1484.56],[-120.63342,39.75986,1483.3],[-120.63325,39.75983,1480.78],[-120.63326,39.75987,1480.55],[-120.63317,39.75989,1478.77],[-120.6332,39.75995,1478.52],[-120.63316,39.75996,1477.64],[-120.63276,39.75992,1467.13],[-120.63235,39.75981,1460.18],[-120.63222,39.7598,1458.66],[-120.63213,39.75977,1457.83],[-120.63208,39.75978,1456.99],[-120.63188,39.75988,1452.5],[-120.63183,39.75988,1451.7],[-120.63171,39.75979,1450.77],[-120.63168,39.75972,1450.96],[-120.63163,39.75956,1451.68],[-120.63154,39.7595,1450.31],[-120.63151,39.75942,1450.59],[-120.63147,39.75938,1450.26],[-120.63109,39.75939,1443.85],[-120.63109,39.75953,1441.03],[-120.63088,39.75962,1438.11],[-120.63083,39.75966,1436.56],[-120.6308,39.75973,1433.96],[-120.63064,39.75989,1427.5],[-120.63057,39.75999,1423.88],[-120.63043,39.76025,1414.92],[-120.63042,39.76049,1410.59],[-120.63039,39.76056,1409.32],[-120.63035,39.76059,1408.66],[-120.63013,39.76068,1404.86],[-120.62985,39.76078,1405.13],[-120.6298,39.76082,1405.05],[-120.6298,39.761,1402.1],[-120.62985,39.76112,1399.73],[-120.62982,39.76112,1400.09],[-120.62982,39.76115,1399.65],[-120.63,39.76132,1394.09],[-120.63,39.76135,1393.48],[-120.63003,39.76143,1391.25],[-120.63021,39.76148,1391.11],[-120.63035,39.76157,1389.56],[-120.63052,39.76163,1388.01],[-120.63062,39.76174,1385.83],[-120.63069,39.76186,1385.09],[-120.63063,39.76196,1383.27],[-120.63065,39.76222,1382.71],[-120.63055,39.76236,1380.12],[-120.63022,39.76267,1375.35],[-120.63022,39.7628,1375.19],[-120.63019,39.76283,1374.72],[-120.63017,39.76287,1374.39],[-120.63019,39.76291,1374.79],[-120.63016,39.76304,1374.24],[-120.63016,39.76321,1374.89],[-120.63006,39.76351,1372.47],[-120.63004,39.76362,1371.42],[-120.6301,39.76387,1369.4],[-120.63017,39.76399,1367.63],[-120.63029,39.76412,1365.76],[-120.63047,39.76421,1365.35],[-120.63061,39.76432,1363.89],[-120.63071,39.76443,1364.11],[-120.63076,39.76452,1364.78],[-120.63073,39.76457,1364.96],[-120.63067,39.76461,1364.93],[-120.63029,39.76474,1363.88],[-120.63008,39.7649,1363.56],[-120.6298,39.76502,1361.2],[-120.62963,39.76512,1360.04],[-120.6292,39.76548,1357.23],[-120.62841,39.76581,1353.44],[-120.6283,39.76584,1352.82],[-120.62792,39.76585,1350.52],[-120.62784,39.76587,1350.03],[-120.62745,39.76607,1347.33],[-120.62733,39.76615,1346.49],[-120.62731,39.76619,1346.27],[-120.62728,39.76631,1345.84],[-120.6273,39.76645,1345.56],[-120.62729,39.7665,1345.36],[-120.62726,39.76653,1345.14],[-120.62721,39.76656,1344.84],[-120.62704,39.76659,1344.06],[-120.62699,39.76657,1343.9],[-120.62679,39.76626,1344.03],[-120.62676,39.76627,1343.89],[-120.62686,39.76637,1343.95],[-120.62703,39.76659,1344.02],[-120.62713,39.76677,1343.9],[-120.62725,39.76713,1343.03],[-120.62726,39.76721,1342.77],[-120.62723,39.76737,1342],[-120.62716,39.76752,1341.17],[-120.62694,39.76787,1339.16],[-120.62664,39.76827,1336.77],[-120.62629,39.76894,1336.02],[-120.6262,39.76915,1335.68],[-120.62608,39.76958,1334.33],[-120.62607,39.76965,1334.13],[-120.62612,39.77027,1333.18],[-120.62615,39.77041,1333.07],[-120.62614,39.77076,1332.49],[-120.6263,39.77111,1331.98],[-120.62632,39.77157,1331.06],[-120.62642,39.77201,1330.03],[-120.62647,39.77215,1329.77],[-120.62649,39.77229,1329.48],[-120.62648,39.77273,1328.77],[-120.62647,39.7728,1328.67],[-120.6263,39.77314,1328.06],[-120.62616,39.77336,1327.61],[-120.62612,39.77348,1327.41],[-120.62609,39.77352,1327.31],[-120.62605,39.77354,1327.2],[-120.62584,39.77357,1326.76],[-120.62574,39.77356,1326.63],[-120.62532,39.77347,1326.41],[-120.62492,39.77333,1326.54],[-120.62473,39.77327,1326.58],[-120.62463,39.77327,1326.52],[-120.62415,39.77303,1326.94],[-120.6203,39.77148,1327.17],[-120.62023,39.77145,1327.17],[-120.62017,39.7714,1327.19],[-120.62014,39.77136,1327.22],[-120.62012,39.7713,1327.28],[-120.61972,39.77122,1327.3],[-120.61963,39.77122,1327.29],[-120.61947,39.76757,1331.59],[-120.61938,39.76732,1331.99],[-120.61923,39.767,1332.44],[-120.61911,39.76677,1332.86],[-120.61898,39.76655,1333.14],[-120.61887,39.76641,1333.29],[-120.61869,39.7662,1333.25],[-120.61841,39.76593,1332.78],[-120.61834,39.76587,1332.63],[-120.61832,39.76585,1332.58],[-120.61776,39.76601,1331.29],[-120.61776,39.76601,1331.29]]}}
