{"type":"Feature","properties":{"name":"Mills Peak Shuttle","sourceLabel":"Trailforks route plan 785873 \u2014 Mills Peak Shuttle","sourceUrl":"https://www.trailforks.com/routeplan/view/785873/","gpxSha256":"6858caf428591dd5347030d4c1d31c9323d3bdf57e53d129c27d8c480dc71a5d","importedAt":"2026-09-29T16:33:50.406909+00:00","elevationSource":"AWS Terrain Tiles (USGS 3DEP and SRTM), bilinear sampling at zoom 12; Trailforks GPX zero placeholders removed","sourceStats":{"distanceMiles":12.44,"pointCount":1353,"climbingFt":1007,"descendingFt":3083,"movingMinutes":165,"movingTimeEstimated":true}},"geometry":{"type":"LineString","coordinates":[[-120.64052,39.68444,1983.09],[-120.64034,39.68446,1982.98],[-120.64032,39.68449,1982.66],[-120.64041,39.68445,1983.05],[-120.64051,39.68445,1982.99],[-120.64052,39.68444,1983.09],[-120.6405,39.68446,1982.88],[-120.64044,39.68443,1983.25],[-120.64034,39.68441,1983.54],[-120.64027,39.68436,1984.16],[-120.64017,39.68435,1984.39],[-120.63934,39.68379,1992.73],[-120.63925,39.68376,1992.42],[-120.6391,39.68366,1992.1],[-120.63879,39.68344,1990.46],[-120.63865,39.68339,1988.67],[-120.63854,39.68333,1988.27],[-120.63825,39.68324,1988.05],[-120.63773,39.68313,1991.12],[-120.6376,39.68307,1992.04],[-120.63741,39.68301,1992.96],[-120.6372,39.68301,1993.5],[-120.63703,39.68305,1994.4],[-120.63681,39.68314,1995.76],[-120.63664,39.68316,1997.68],[-120.63655,39.68318,1998.39],[-120.63642,39.68315,1999.58],[-120.63635,39.68311,2000.56],[-120.63621,39.683,2002.72],[-120.63612,39.68286,2003.37],[-120.636,39.68275,2004.25],[-120.63582,39.68268,2004.94],[-120.63525,39.68251,2006.84],[-120.63486,39.68238,2009.24],[-120.63471,39.68229,2011.79],[-120.63459,39.68218,2013.42],[-120.63451,39.68216,2013.42],[-120.6344,39.6821,2013.85],[-120.63419,39.68205,2014.24],[-120.63378,39.68208,2014.5],[-120.63356,39.68207,2015.39],[-120.63325,39.68209,2017.34],[-120.63267,39.68209,2021.21],[-120.63206,39.68225,2023.46],[-120.63193,39.68225,2023.97],[-120.63151,39.68221,2025.94],[-120.63136,39.68222,2026.81],[-120.63107,39.68222,2028.73],[-120.63103,39.68232,2028.92],[-120.63103,39.68234,2028.91],[-120.63102,39.68236,2028.96],[-120.631,39.68235,2029.09],[-120.63099,39.6824,2029.13],[-120.631,39.68243,2029.04],[-120.63103,39.68247,2028.82],[-120.63113,39.68253,2027.99],[-120.63115,39.68264,2027.32],[-120.63125,39.68286,2026.05],[-120.63133,39.68296,2025.34],[-120.63136,39.68298,2025.09],[-120.63139,39.68303,2024.91],[-120.63141,39.68304,2024.85],[-120.6314,39.68307,2025.17],[-120.63145,39.68305,2024.74],[-120.63143,39.68306,2024.88],[-120.63143,39.68312,2025.36],[-120.63137,39.68323,2026.74],[-120.63137,39.68336,2027.96],[-120.63134,39.68351,2029.74],[-120.63138,39.68363,2030.37],[-120.63138,39.68369,2030.84],[-120.63141,39.68378,2031.27],[-120.6314,39.68383,2031.75],[-120.63143,39.68393,2032.27],[-120.6315,39.68404,2032.54],[-120.63166,39.68411,2031.95],[-120.6317,39.6842,2032.74],[-120.63169,39.68429,2033.91],[-120.63164,39.68432,2034.56],[-120.63149,39.68435,2035.76],[-120.63141,39.68439,2036.67],[-120.63142,39.68437,2036.38],[-120.6313,39.68445,2038.13],[-120.63119,39.68445,2038.96],[-120.63105,39.68433,2038.89],[-120.6309,39.68429,2039.95],[-120.63072,39.68431,2041.79],[-120.63065,39.68428,2042.23],[-120.63052,39.68419,2042.77],[-120.63039,39.68404,2042.79],[-120.63035,39.68402,2042.98],[-120.6303,39.68396,2042.88],[-120.63009,39.68384,2043.45],[-120.62991,39.68379,2044.27],[-120.6297,39.6837,2044.83],[-120.62955,39.68369,2045.94],[-120.62927,39.68361,2047.49],[-120.62907,39.6836,2049.03],[-120.62894,39.68371,2050.89],[-120.62882,39.68372,2051.71],[-120.62863,39.68379,2053.51],[-120.62853,39.68381,2054.09],[-120.62842,39.68387,2055.32],[-120.62828,39.68402,2057.85],[-120.62817,39.68405,2058.38],[-120.62814,39.68411,2059.16],[-120.62803,39.68417,2059.93],[-120.62805,39.68424,2060.71],[-120.62804,39.68426,2060.95],[-120.62807,39.68429,2061.28],[-120.62807,39.68435,2061.92],[-120.62806,39.68441,2062.38],[-120.62808,39.68453,2063.3],[-120.62812,39.68461,2063.9],[-120.62812,39.6847,2064.5],[-120.62815,39.68475,2064.82],[-120.62817,39.68483,2065.33],[-120.62815,39.68488,2065.7],[-120.62819,39.68515,2067.98],[-120.62805,39.68523,2068.78],[-120.62804,39.68526,2069.05],[-120.62803,39.68542,2070.59],[-120.62792,39.68546,2070.96],[-120.62789,39.68557,2072.14],[-120.62783,39.68563,2072.62],[-120.62786,39.6858,2075.46],[-120.62776,39.6859,2076.76],[-120.62773,39.68601,2078.96],[-120.62774,39.68619,2082.95],[-120.62781,39.68628,2084.62],[-120.62781,39.68631,2085.1],[-120.62778,39.68634,2085.49],[-120.62763,39.68638,2085.68],[-120.6275,39.68637,2084.79],[-120.62738,39.6864,2084.58],[-120.62726,39.6864,2083.98],[-120.62718,39.68637,2083.25],[-120.62704,39.68637,2082.74],[-120.62688,39.68642,2083.09],[-120.62676,39.68643,2083.27],[-120.6267,39.68645,2083.53],[-120.62665,39.68653,2084.83],[-120.62661,39.68656,2085.37],[-120.62654,39.68658,2085.93],[-120.62644,39.68664,2087.23],[-120.62635,39.68667,2088.02],[-120.62612,39.68669,2088.97],[-120.626,39.68672,2089.76],[-120.62594,39.68678,2090.93],[-120.62588,39.68679,2091.1],[-120.62587,39.68682,2091.61],[-120.62583,39.68685,2092.1],[-120.62587,39.68687,2092.45],[-120.62589,39.68693,2093.47],[-120.62572,39.68698,2094.25],[-120.62539,39.68703,2094.07],[-120.62536,39.68706,2094.36],[-120.62531,39.68709,2094.58],[-120.62522,39.68711,2094.43],[-120.62487,39.68708,2091.86],[-120.62469,39.68718,2091.88],[-120.62459,39.68721,2091.55],[-120.62454,39.68725,2091.68],[-120.62453,39.68729,2092.09],[-120.62441,39.68734,2091.77],[-120.62435,39.68742,2092.22],[-120.62419,39.68754,2092.31],[-120.62418,39.68759,2092.79],[-120.62377,39.68803,2095.43],[-120.62377,39.68809,2095.77],[-120.6238,39.68812,2095.97],[-120.6238,39.68828,2096.82],[-120.62374,39.68836,2097.44],[-120.6237,39.68854,2099.11],[-120.62379,39.68865,2100.56],[-120.62375,39.68877,2102.39],[-120.62377,39.68887,2103.71],[-120.62383,39.68892,2104.15],[-120.62399,39.68897,2104.48],[-120.62404,39.68906,2105.3],[-120.62405,39.6891,2105.64],[-120.62399,39.68924,2106.71],[-120.62401,39.68931,2107.12],[-120.62409,39.68944,2107.58],[-120.62409,39.68954,2108.06],[-120.62403,39.68963,2108.69],[-120.62387,39.68973,2109.75],[-120.6236,39.6898,2111.26],[-120.62338,39.6899,2112.72],[-120.62294,39.69001,2115.25],[-120.62272,39.69004,2116.52],[-120.62258,39.69004,2117.26],[-120.62252,39.69006,2117.69],[-120.62225,39.69005,2118.95],[-120.62199,39.68999,2119.85],[-120.62194,39.69,2120.16],[-120.62167,39.68992,2121.02],[-120.62156,39.68991,2121.51],[-120.6214,39.68987,2122.03],[-120.6212,39.68985,2122.95],[-120.62095,39.68979,2123.48],[-120.62063,39.68981,2125.04],[-120.62057,39.68979,2125],[-120.62041,39.6898,2125.68],[-120.62017,39.68982,2126.33],[-120.61989,39.68982,2126.04],[-120.61971,39.68985,2125.8],[-120.61955,39.68993,2125.4],[-120.61948,39.69001,2125.4],[-120.61946,39.69007,2125.61],[-120.61947,39.69015,2126.26],[-120.61954,39.69034,2128.07],[-120.61955,39.69044,2128.66],[-120.61961,39.69059,2129.9],[-120.6196,39.69063,2129.8],[-120.61967,39.69076,2131.19],[-120.6197,39.69088,2131.78],[-120.61972,39.6909,2132.12],[-120.61984,39.69121,2133.82],[-120.6198,39.69146,2134.14],[-120.61973,39.69154,2133.87],[-120.61969,39.69168,2134.15],[-120.6196,39.69182,2134.31],[-120.61952,39.69186,2134.12],[-120.61939,39.692,2134.32],[-120.61907,39.69222,2135.96],[-120.61906,39.69228,2136.57],[-120.61912,39.69234,2137.23],[-120.61912,39.69237,2137.58],[-120.61926,39.6925,2138.95],[-120.61936,39.69264,2140.13],[-120.61937,39.69272,2140.79],[-120.61934,39.69281,2141.58],[-120.61925,39.69292,2142.48],[-120.61904,39.69313,2144.47],[-120.61889,39.69325,2145.79],[-120.61868,39.69337,2147.98],[-120.61853,39.6935,2150.57],[-120.61841,39.69374,2154.29],[-120.61834,39.69377,2155.27],[-120.61833,39.69381,2155.79],[-120.61819,39.69397,2158.85],[-120.61814,39.69409,2160.72],[-120.61811,39.69422,2162.68],[-120.61811,39.69427,2163.34],[-120.61809,39.69432,2164.2],[-120.61811,39.69444,2165.56],[-120.61813,39.69448,2165.88],[-120.61813,39.69455,2166.78],[-120.61824,39.69482,2169.14],[-120.61825,39.69488,2169.8],[-120.61823,39.6949,2170.23],[-120.61826,39.69497,2170.8],[-120.61828,39.69507,2171.83],[-120.61836,39.69521,2172.75],[-120.61836,39.69541,2174.73],[-120.61839,39.69545,2174.83],[-120.61839,39.69549,2175.16],[-120.61842,39.69571,2176.72],[-120.61849,39.69577,2176.65],[-120.61847,39.69584,2177.41],[-120.61854,39.69589,2177.23],[-120.61856,39.69593,2177.39],[-120.61865,39.6961,2178.08],[-120.61865,39.69615,2178.51],[-120.6187,39.6962,2178.47],[-120.61879,39.69635,2178.9],[-120.61886,39.69653,2179.76],[-120.61892,39.69663,2180.04],[-120.61899,39.69668,2179.77],[-120.61911,39.69686,2180.17],[-120.61917,39.6969,2179.99],[-120.61933,39.69715,2180.9],[-120.61946,39.69728,2180.93],[-120.61954,39.6974,2181.58],[-120.61956,39.69747,2182.18],[-120.61961,39.6975,2182.05],[-120.61965,39.69757,2182.5],[-120.6197,39.69766,2183.21],[-120.61974,39.69767,2182.95],[-120.61978,39.69773,2183.36],[-120.61989,39.69781,2183.39],[-120.61992,39.69785,2183.69],[-120.61995,39.69796,2184.98],[-120.62019,39.69814,2185.1],[-120.62026,39.69826,2185.93],[-120.62029,39.69827,2185.75],[-120.62038,39.69839,2186.31],[-120.62043,39.69849,2187],[-120.62053,39.69859,2187.05],[-120.62071,39.69886,2188.05],[-120.62077,39.69902,2188.84],[-120.62089,39.69923,2189.08],[-120.62102,39.69958,2189.91],[-120.62107,39.6998,2190.59],[-120.62113,39.70028,2191.86],[-120.62119,39.70049,2191.84],[-120.62121,39.70062,2192.08],[-120.62124,39.70104,2193.62],[-120.62128,39.70135,2195.39],[-120.62133,39.70142,2195.41],[-120.62138,39.70154,2195.98],[-120.62141,39.7016,2196.38],[-120.622,39.70235,2201.73],[-120.622,39.70244,2202.89],[-120.62195,39.70251,2204.11],[-120.62179,39.7026,2206.31],[-120.62171,39.70267,2207.78],[-120.62161,39.70272,2209.01],[-120.62137,39.70275,2210.62],[-120.62126,39.70277,2211.27],[-120.62113,39.70284,2212.12],[-120.62103,39.70292,2211.02],[-120.62105,39.70304,2210.45],[-120.6211,39.7031,2211.58],[-120.62113,39.70322,2213.28],[-120.62112,39.70333,2213.71],[-120.62108,39.70348,2213.92],[-120.6211,39.70354,2215.41],[-120.62114,39.70361,2217.13],[-120.62128,39.70362,2217.29],[-120.62132,39.70361,2217.31],[-120.62139,39.70352,2217.68],[-120.62153,39.70349,2219.04],[-120.62177,39.70359,2222.66],[-120.62195,39.70363,2223.82],[-120.62218,39.7037,2225.14],[-120.62236,39.70379,2226.27],[-120.62246,39.70381,2226.45],[-120.62267,39.70393,2226.96],[-120.62273,39.70395,2226.66],[-120.62297,39.70423,2226.76],[-120.6231,39.70434,2227.07],[-120.62326,39.70441,2228.22],[-120.62329,39.70452,2228.92],[-120.62311,39.70446,2227.81],[-120.62312,39.70448,2228.15],[-120.62317,39.70449,2228.58],[-120.62328,39.70457,2229.19],[-120.62329,39.70455,2229.05],[-120.62331,39.70455,2228.95],[-120.62327,39.70452,2228.96],[-120.62324,39.70444,2228.3],[-120.62321,39.70441,2227.8],[-120.62317,39.70441,2227.5],[-120.62309,39.70445,2227.54],[-120.62296,39.70457,2228.65],[-120.62289,39.70467,2229.93],[-120.62288,39.70476,2229.59],[-120.62296,39.70476,2229.63],[-120.62297,39.70478,2229.45],[-120.62287,39.70485,2229.18],[-120.62281,39.70483,2226.76],[-120.62283,39.70481,2228.32],[-120.62281,39.70482,2226.8],[-120.62281,39.7048,2226.88],[-120.62283,39.70479,2228.39],[-120.62281,39.7048,2226.88],[-120.62281,39.70484,2226.71],[-120.62283,39.70483,2228.24],[-120.62283,39.70485,2228.17],[-120.62294,39.70479,2229.39],[-120.62294,39.70477,2229.54],[-120.62285,39.70475,2229.62],[-120.62291,39.70461,2229.05],[-120.62311,39.70442,2227.23],[-120.62309,39.70444,2227.4],[-120.62313,39.70447,2228.07],[-120.62311,39.70445,2227.66],[-120.62312,39.70441,2227.19],[-120.62316,39.70439,2227.41],[-120.62323,39.70442,2228.04],[-120.62323,39.7044,2227.96],[-120.62322,39.70442,2227.96],[-120.62317,39.7044,2227.48],[-120.62316,39.70435,2227.36],[-120.62317,39.70428,2227.31],[-120.62313,39.70414,2227.02],[-120.62305,39.70399,2225.94],[-120.62306,39.70392,2225.44],[-120.62309,39.70386,2224.69],[-120.62299,39.70387,2225.1],[-120.623,39.70388,2225.25],[-120.62296,39.70389,2225.46],[-120.62285,39.70388,2225.61],[-120.62281,39.70379,2224.31],[-120.62269,39.70373,2223.82],[-120.62268,39.70367,2222.73],[-120.62277,39.70362,2221.53],[-120.62289,39.7036,2220.77],[-120.623,39.70364,2221.16],[-120.62317,39.70362,2220.28],[-120.62332,39.70356,2218.42],[-120.62333,39.7035,2216.93],[-120.62307,39.70331,2213.88],[-120.62278,39.70319,2212.54],[-120.62259,39.70313,2212.03],[-120.62249,39.70306,2210.91],[-120.62221,39.70298,2210.43],[-120.62217,39.70291,2209.15],[-120.62219,39.70287,2208.23],[-120.62231,39.7028,2206.38],[-120.62269,39.70285,2205.54],[-120.62287,39.70283,2204.32],[-120.62316,39.70273,2201.4],[-120.62324,39.70266,2199.84],[-120.62327,39.7026,2198.69],[-120.62325,39.70256,2198.13],[-120.6232,39.70252,2197.7],[-120.62302,39.70244,2197.41],[-120.62287,39.70233,2196.61],[-120.62276,39.7022,2195.27],[-120.62256,39.70207,2194.55],[-120.6224,39.70192,2193.04],[-120.62227,39.70188,2193.16],[-120.62222,39.70184,2192.83],[-120.6221,39.70157,2189.76],[-120.62212,39.70153,2189.05],[-120.62217,39.7015,2188.24],[-120.62224,39.70149,2187.5],[-120.62248,39.70155,2186.29],[-120.62262,39.70161,2186.25],[-120.62276,39.70163,2185.57],[-120.62283,39.70165,2185.42],[-120.62293,39.70172,2186.09],[-120.62309,39.70181,2186.73],[-120.62324,39.70182,2185.94],[-120.62337,39.7019,2186.4],[-120.6236,39.70198,2185.88],[-120.62382,39.70202,2184.13],[-120.62389,39.70205,2183.77],[-120.62412,39.70221,2182.36],[-120.62437,39.70244,2181.05],[-120.62439,39.70248,2181.21],[-120.62441,39.70259,2182.34],[-120.6246,39.70279,2180.72],[-120.62467,39.70289,2180.51],[-120.62478,39.70318,2181.32],[-120.62474,39.70317,2182.02],[-120.6248,39.70326,2181.73],[-120.62494,39.70337,2179.92],[-120.62504,39.70355,2179.76],[-120.62506,39.70368,2180.45],[-120.62506,39.70391,2182.18],[-120.62508,39.70397,2182.21],[-120.6251,39.70412,2182.89],[-120.62508,39.70416,2183.68],[-120.62508,39.70421,2184.08],[-120.62511,39.70424,2183.55],[-120.6251,39.70435,2184.65],[-120.62502,39.70437,2187.07],[-120.62496,39.70434,2188.45],[-120.62485,39.70443,2193.14],[-120.62485,39.70448,2193.47],[-120.62487,39.70452,2192.9],[-120.62482,39.70466,2196.03],[-120.62479,39.70492,2195.41],[-120.62481,39.705,2193.19],[-120.62489,39.70517,2188.22],[-120.62498,39.70523,2185.82],[-120.62506,39.70524,2184.45],[-120.62516,39.70519,2183.53],[-120.62529,39.7051,2181.63],[-120.62536,39.70501,2180.67],[-120.62541,39.70487,2179.81],[-120.62531,39.70394,2177.32],[-120.62534,39.70283,2167.67],[-120.62538,39.70275,2165.98],[-120.62548,39.70265,2163],[-120.62558,39.70279,2162.63],[-120.62583,39.70303,2160.93],[-120.62596,39.70319,2160.37],[-120.62615,39.70335,2159.57],[-120.62619,39.70342,2159.74],[-120.62621,39.70354,2160.64],[-120.62625,39.7036,2160.64],[-120.62638,39.70367,2159.27],[-120.62642,39.70372,2159],[-120.6264,39.7038,2159.89],[-120.62642,39.70387,2160.03],[-120.62647,39.70396,2159.78],[-120.62657,39.70404,2158.51],[-120.62688,39.70458,2152.64],[-120.62705,39.70505,2151.09],[-120.62719,39.70527,2150.88],[-120.62754,39.70567,2145.05],[-120.62762,39.70578,2143.3],[-120.62777,39.70604,2142.42],[-120.62788,39.70632,2145.1],[-120.628,39.70651,2145.87],[-120.62814,39.70683,2144.32],[-120.6283,39.70707,2140.51],[-120.62835,39.70734,2138.37],[-120.62835,39.70748,2137.94],[-120.6284,39.70762,2136.57],[-120.6284,39.70775,2135.9],[-120.62837,39.70795,2134.81],[-120.62819,39.70836,2132.87],[-120.62821,39.70844,2132.17],[-120.62819,39.70852,2131.89],[-120.62812,39.7087,2131.48],[-120.62813,39.70873,2131.25],[-120.62817,39.70875,2130.85],[-120.62833,39.70864,2130.09],[-120.62877,39.70848,2127.21],[-120.629,39.70833,2125.27],[-120.62909,39.70831,2124.05],[-120.62927,39.70812,2121.98],[-120.62941,39.70805,2119.96],[-120.62945,39.70791,2119.52],[-120.62957,39.70775,2117.56],[-120.62968,39.70768,2115.67],[-120.62982,39.70751,2113.51],[-120.62981,39.70743,2114.12],[-120.62988,39.70736,2113.48],[-120.62987,39.70734,2113.76],[-120.62989,39.70729,2113.95],[-120.62993,39.70727,2113.65],[-120.63014,39.70697,2114.5],[-120.63019,39.70685,2114.23],[-120.63032,39.7067,2112.09],[-120.63039,39.70655,2109.68],[-120.63038,39.70657,2110.04],[-120.63041,39.70658,2109.58],[-120.63046,39.70664,2109.06],[-120.63039,39.70659,2110.1],[-120.63039,39.70656,2109.79],[-120.63046,39.70662,2108.82],[-120.6305,39.70669,2108.75],[-120.63052,39.70674,2108.96],[-120.63054,39.70686,2109.58],[-120.63056,39.70685,2109.15],[-120.63051,39.70682,2109.96],[-120.63051,39.7068,2109.87],[-120.63056,39.70683,2109.04],[-120.63055,39.70685,2109.34],[-120.63059,39.70697,2109.33],[-120.63067,39.70705,2108.66],[-120.63072,39.70719,2106.83],[-120.63084,39.70724,2104.1],[-120.6309,39.70724,2102.85],[-120.63095,39.70721,2101.93],[-120.63096,39.70719,2101.8],[-120.631,39.70721,2100.86],[-120.63102,39.70726,2100.29],[-120.63103,39.70752,2097.23],[-120.63092,39.70775,2094.68],[-120.63092,39.7078,2093.76],[-120.63088,39.7079,2092.51],[-120.63088,39.70798,2091.35],[-120.63085,39.70803,2091.06],[-120.63083,39.70807,2090.83],[-120.63081,39.70862,2088.57],[-120.63078,39.7088,2087.67],[-120.63065,39.70903,2087.87],[-120.63067,39.70917,2086.05],[-120.63068,39.70921,2085.68],[-120.63072,39.70923,2084.83],[-120.63074,39.7094,2083.75],[-120.63071,39.70955,2083.17],[-120.63071,39.70966,2082.28],[-120.63068,39.70976,2081.24],[-120.63068,39.70984,2079.71],[-120.63066,39.70997,2077.64],[-120.63061,39.71014,2075.82],[-120.63062,39.71017,2075.12],[-120.63054,39.71029,2075.03],[-120.63051,39.71039,2074.27],[-120.63049,39.71061,2071.61],[-120.63036,39.71081,2070.62],[-120.63029,39.71108,2067.88],[-120.63031,39.71117,2066.55],[-120.63016,39.71136,2066.25],[-120.63005,39.71159,2064.4],[-120.62973,39.7119,2062.83],[-120.62961,39.71197,2063.01],[-120.62949,39.71213,2061.61],[-120.62941,39.71219,2061.4],[-120.6294,39.71225,2060.31],[-120.62931,39.7123,2060.26],[-120.62932,39.71242,2057.25],[-120.62925,39.71245,2057.2],[-120.62917,39.71252,2056.29],[-120.6291,39.71252,2057.09],[-120.62888,39.71257,2057.2],[-120.62881,39.71257,2057.41],[-120.62877,39.71256,2057.77],[-120.62872,39.71257,2057.69],[-120.62866,39.71256,2057.82],[-120.62857,39.71252,2057.88],[-120.62836,39.71248,2056.93],[-120.62826,39.7124,2057.28],[-120.62772,39.71203,2050.52],[-120.62758,39.71201,2046.75],[-120.62758,39.71203,2046.21],[-120.62755,39.71203,2045.32],[-120.6276,39.71205,2046.26],[-120.62763,39.71203,2047.68],[-120.62759,39.7121,2044.82],[-120.6276,39.71206,2046],[-120.6276,39.71209,2045.32],[-120.62762,39.71213,2045.17],[-120.6277,39.7122,2046.43],[-120.62777,39.71239,2044.91],[-120.62804,39.71271,2044.38],[-120.62814,39.71288,2042.16],[-120.6282,39.71302,2039.98],[-120.62825,39.71306,2039.97],[-120.62834,39.71323,2037.57],[-120.6284,39.7133,2036.62],[-120.62844,39.71338,2035.27],[-120.62851,39.7136,2031.22],[-120.62857,39.71388,2026.98],[-120.62857,39.71395,2025.69],[-120.62862,39.71402,2025.18],[-120.62871,39.71425,2021.47],[-120.6288,39.71441,2017.75],[-120.62893,39.71456,2014.5],[-120.62932,39.71474,2010.12],[-120.6296,39.71482,2007.7],[-120.62964,39.71486,2006.47],[-120.62965,39.71491,2004.96],[-120.62962,39.71494,2004.13],[-120.62952,39.71471,2010.89],[-120.62942,39.71473,2010.34],[-120.62936,39.71471,2010.88],[-120.62927,39.71472,2010.7],[-120.62907,39.71468,2011.99],[-120.62902,39.71471,2011.18],[-120.62892,39.71468,2011],[-120.62864,39.71472,2006.49],[-120.6284,39.7146,2005.28],[-120.62831,39.71452,2005.86],[-120.62817,39.71432,2008.27],[-120.62798,39.71402,2010.13],[-120.62782,39.71389,2008.47],[-120.62771,39.71386,2006.18],[-120.62769,39.71384,2006.13],[-120.62778,39.714,2005.06],[-120.62777,39.71407,2003.42],[-120.62779,39.71411,2003.17],[-120.62789,39.71427,2002.26],[-120.62792,39.71429,2002.54],[-120.62803,39.7145,1999.8],[-120.62808,39.71454,1999.83],[-120.62821,39.7147,1998.02],[-120.6282,39.71473,1996.89],[-120.62836,39.71482,1997.83],[-120.62838,39.71485,1997.39],[-120.62844,39.71486,1998.3],[-120.62851,39.71483,2000.57],[-120.62854,39.71487,2000],[-120.6286,39.71485,2001.79],[-120.62856,39.71483,2001.58],[-120.62861,39.71486,2001.7],[-120.6286,39.71488,2000.9],[-120.62864,39.71492,2000.5],[-120.62864,39.7149,2001.1],[-120.62866,39.71493,2000.59],[-120.62873,39.71494,2001.3],[-120.62877,39.71492,2002.38],[-120.62871,39.71491,2001.95],[-120.62871,39.71494,2001.05],[-120.62873,39.715,1999.41],[-120.62872,39.71501,1998.94],[-120.62874,39.71506,1997.5],[-120.62902,39.71535,1991.24],[-120.62917,39.71543,1989.1],[-120.62931,39.71547,1988.64],[-120.62951,39.71548,1987.87],[-120.62981,39.71553,1984.81],[-120.62998,39.71553,1983.91],[-120.63015,39.71551,1983.57],[-120.63019,39.71552,1983.07],[-120.6302,39.71556,1981.86],[-120.63018,39.71557,1981.69],[-120.63001,39.7157,1979.14],[-120.62983,39.71581,1977.79],[-120.62976,39.71588,1976.74],[-120.62976,39.7159,1976.29],[-120.62983,39.71592,1975.36],[-120.62994,39.71592,1974.62],[-120.62997,39.71594,1973.99],[-120.62998,39.71599,1972.89],[-120.62996,39.71603,1972.17],[-120.62988,39.71607,1971.61],[-120.62967,39.71609,1971.7],[-120.62959,39.71613,1970.07],[-120.62937,39.71611,1969.22],[-120.62931,39.71614,1967.29],[-120.62927,39.71613,1966.82],[-120.62921,39.71612,1965.99],[-120.62923,39.7161,1966.92],[-120.62935,39.71615,1967.76],[-120.62948,39.71615,1968.81],[-120.62957,39.71613,1969.94],[-120.62965,39.71616,1969.61],[-120.62973,39.71622,1968.25],[-120.62975,39.7162,1968.72],[-120.62998,39.71625,1966.53],[-120.6301,39.7162,1966.84],[-120.63073,39.71619,1958.55],[-120.63079,39.71615,1958.65],[-120.63098,39.71612,1955.52],[-120.63104,39.71608,1955.24],[-120.63111,39.716,1955.71],[-120.63115,39.71584,1959.3],[-120.63122,39.71574,1961.59],[-120.63159,39.7155,1968.75],[-120.63165,39.71552,1967.83],[-120.63245,39.71541,1959.82],[-120.63247,39.71542,1959.36],[-120.6325,39.71545,1958.51],[-120.6325,39.71548,1958.16],[-120.63255,39.71548,1957.34],[-120.63251,39.71564,1955.73],[-120.63245,39.71569,1955.89],[-120.63246,39.71574,1955.01],[-120.63234,39.7158,1955.26],[-120.63296,39.71519,1953.63],[-120.63292,39.71518,1954.37],[-120.63224,39.71567,1959.03],[-120.63224,39.71574,1957.87],[-120.63221,39.71574,1958.26],[-120.63228,39.71582,1955.42],[-120.63296,39.71576,1947.76],[-120.63304,39.71576,1946.83],[-120.63324,39.71573,1944.95],[-120.63332,39.7157,1944.43],[-120.63327,39.71573,1944.64],[-120.6336,39.71555,1942.29],[-120.63388,39.71534,1939.7],[-120.63402,39.71518,1938.92],[-120.63412,39.71509,1938.28],[-120.63417,39.71521,1935.42],[-120.63419,39.71533,1931.83],[-120.63417,39.71559,1926.13],[-120.63412,39.71588,1922.31],[-120.63406,39.71592,1923.91],[-120.63402,39.71599,1924.26],[-120.63403,39.71602,1923.36],[-120.63393,39.71613,1924.9],[-120.63386,39.71623,1925.68],[-120.63388,39.71626,1924.2],[-120.63386,39.71625,1925.27],[-120.63391,39.71626,1922.9],[-120.6338,39.71637,1924.34],[-120.6338,39.71641,1923.32],[-120.63367,39.71656,1922.71],[-120.6335,39.71691,1914.3],[-120.63345,39.71696,1912.91],[-120.63323,39.71705,1913.93],[-120.63319,39.71709,1913.3],[-120.63318,39.71716,1909.15],[-120.63313,39.71718,1909],[-120.63306,39.71732,1901.16],[-120.63283,39.71764,1889.68],[-120.63269,39.71777,1890.86],[-120.63264,39.71784,1891.47],[-120.63247,39.7182,1894],[-120.63238,39.71833,1894.02],[-120.63231,39.71846,1893.34],[-120.63225,39.71875,1889.64],[-120.6321,39.71896,1888.67],[-120.63204,39.71899,1888.79],[-120.63194,39.7191,1887.3],[-120.63162,39.71924,1884.65],[-120.63144,39.71934,1882.31],[-120.63088,39.71958,1876.77],[-120.63072,39.71959,1876.45],[-120.63081,39.71959,1876.52],[-120.63087,39.71956,1877.37],[-120.63103,39.71959,1876.4],[-120.63119,39.71964,1874.9],[-120.63133,39.71963,1874.95],[-120.63141,39.71961,1875.3],[-120.63136,39.71959,1875.86],[-120.63159,39.7196,1875.19],[-120.63168,39.71951,1877.2],[-120.63169,39.71953,1876.7],[-120.63172,39.71954,1876.41],[-120.63174,39.71951,1877.11],[-120.63179,39.71949,1877.61],[-120.63157,39.71939,1880.57],[-120.63161,39.71931,1882.72],[-120.63167,39.71913,1887.85],[-120.6319,39.71881,1894.92],[-120.63227,39.71841,1895.46],[-120.63238,39.71852,1890.44],[-120.63241,39.71849,1890.14],[-120.63253,39.71862,1886.11],[-120.63259,39.71864,1885.09],[-120.63274,39.71878,1882.91],[-120.63326,39.71881,1874.65],[-120.63327,39.71886,1874.27],[-120.63336,39.71895,1872.21],[-120.63344,39.71899,1870.3],[-120.63395,39.71918,1855.01],[-120.63394,39.71923,1854.76],[-120.63397,39.71928,1853.45],[-120.63384,39.71945,1857.06],[-120.63389,39.71952,1855.53],[-120.63393,39.7197,1855.25],[-120.6339,39.71973,1856.43],[-120.63389,39.71972,1856.7],[-120.63387,39.71972,1857.36],[-120.63382,39.71977,1859.19],[-120.63376,39.71985,1860.73],[-120.63368,39.71996,1862.55],[-120.63362,39.72013,1864.41],[-120.63358,39.72018,1865.18],[-120.63349,39.72023,1866.4],[-120.63326,39.72031,1864.8],[-120.63319,39.72045,1862.87],[-120.63287,39.72056,1857.49],[-120.63287,39.72059,1857.15],[-120.63301,39.72078,1857.35],[-120.633,39.72087,1856.57],[-120.63291,39.721,1853.73],[-120.63289,39.72115,1852.13],[-120.63285,39.72124,1850.43],[-120.63284,39.72133,1849.5],[-120.63287,39.7215,1849.71],[-120.63282,39.72168,1847.76],[-120.63278,39.72176,1846.41],[-120.63275,39.72192,1844.91],[-120.6327,39.72203,1842.78],[-120.63268,39.72202,1842.2],[-120.63267,39.72191,1842.45],[-120.63264,39.72188,1841.66],[-120.6326,39.72188,1840.41],[-120.63252,39.72192,1837.68],[-120.63245,39.722,1835.15],[-120.6324,39.72238,1832.91],[-120.63241,39.72254,1832.78],[-120.6324,39.72263,1832.42],[-120.63236,39.7228,1830.98],[-120.63232,39.72285,1829.92],[-120.63234,39.72319,1827.85],[-120.63228,39.72342,1823.89],[-120.63214,39.72368,1818.59],[-120.63206,39.72389,1814.54],[-120.63208,39.72402,1813.04],[-120.63205,39.72408,1811.81],[-120.632,39.72409,1811.32],[-120.63199,39.72412,1810.92],[-120.63191,39.7242,1810.03],[-120.6319,39.72424,1809.47],[-120.63181,39.72428,1808.98],[-120.63179,39.7243,1808.75],[-120.63176,39.72437,1807.65],[-120.63182,39.72441,1806.57],[-120.63182,39.72444,1806.02],[-120.63177,39.72448,1806.11],[-120.63173,39.72456,1803.02],[-120.6316,39.72465,1800.62],[-120.63131,39.7248,1798.85],[-120.63128,39.72484,1798.2],[-120.63127,39.72488,1797.73],[-120.63122,39.72496,1797.16],[-120.63101,39.72505,1795.74],[-120.63099,39.72511,1794.76],[-120.63094,39.72516,1793.55],[-120.63092,39.7252,1793.13],[-120.63095,39.72525,1793.28],[-120.63091,39.72531,1792.18],[-120.63085,39.72537,1791.02],[-120.63079,39.72541,1790.75],[-120.63078,39.72549,1790.1],[-120.63075,39.72555,1789.95],[-120.63054,39.72574,1785.24],[-120.63051,39.72583,1784.75],[-120.63044,39.72594,1783.5],[-120.63036,39.72628,1774.44],[-120.63026,39.7264,1772.18],[-120.63015,39.72659,1770.01],[-120.62994,39.72705,1769.29],[-120.62968,39.72738,1769.78],[-120.62966,39.72744,1768.7],[-120.62966,39.72759,1764.16],[-120.62962,39.72766,1763.69],[-120.62951,39.72776,1765.27],[-120.62944,39.72789,1763.9],[-120.62939,39.72795,1763.78],[-120.62932,39.72806,1762.26],[-120.62932,39.72809,1761.46],[-120.62928,39.72811,1761.56],[-120.62934,39.72815,1759.57],[-120.62942,39.72814,1757.87],[-120.6294,39.72817,1757.66],[-120.62941,39.72828,1754.45],[-120.6294,39.72832,1753.73],[-120.6293,39.7284,1754.03],[-120.62929,39.72843,1753.47],[-120.62931,39.72848,1751.77],[-120.62925,39.72856,1750.91],[-120.62925,39.72866,1748.36],[-120.62916,39.72873,1748.95],[-120.62911,39.72884,1746.53],[-120.629,39.72898,1745.61],[-120.62895,39.72906,1742.64],[-120.6289,39.72922,1736.6],[-120.62853,39.72952,1732.6],[-120.62844,39.72956,1732.89],[-120.6282,39.72972,1730.1],[-120.62812,39.72976,1729.88],[-120.62792,39.72983,1728.92],[-120.62785,39.72987,1727.61],[-120.62783,39.72992,1726.46],[-120.62774,39.73001,1724.94],[-120.62764,39.73017,1721.82],[-120.62742,39.7304,1716.83],[-120.62741,39.73046,1715.57],[-120.62751,39.73046,1714.61],[-120.6275,39.7305,1713.64],[-120.62728,39.73064,1712.5],[-120.62722,39.73065,1712.19],[-120.62717,39.73062,1712.77],[-120.62717,39.73058,1713.6],[-120.6272,39.7303,1717.14],[-120.62723,39.73025,1717.99],[-120.62728,39.73002,1720.06],[-120.62736,39.72981,1721.15],[-120.62737,39.72973,1721.1],[-120.62736,39.72966,1720.37],[-120.62731,39.72964,1718.98],[-120.62723,39.72964,1716.94],[-120.62708,39.72969,1713.63],[-120.62691,39.72983,1710.71],[-120.62684,39.72994,1709.94],[-120.62674,39.73003,1708.74],[-120.62673,39.73006,1708.44],[-120.62659,39.73015,1705.4],[-120.62654,39.73016,1704.5],[-120.62648,39.73028,1703.59],[-120.62641,39.73034,1702.56],[-120.62637,39.73042,1701.68],[-120.6256,39.73111,1694.53],[-120.62515,39.73144,1690.97],[-120.62497,39.73152,1689.34],[-120.62493,39.73151,1689.55],[-120.62488,39.73146,1690.15],[-120.62491,39.73137,1691.97],[-120.6249,39.73133,1692.33],[-120.62491,39.73125,1692.76],[-120.62486,39.73125,1692.24],[-120.62481,39.73122,1691.85],[-120.62472,39.73121,1690.95],[-120.62447,39.73128,1688.2],[-120.62429,39.73129,1687.15],[-120.62424,39.73133,1686.66],[-120.62418,39.73131,1686.6],[-120.62413,39.73134,1686.47],[-120.62411,39.73139,1685.69],[-120.62398,39.73139,1685.67],[-120.62391,39.73133,1686.36],[-120.62386,39.73132,1686.06],[-120.62384,39.7313,1685.64],[-120.62385,39.73128,1685.66],[-120.62376,39.73124,1684.07],[-120.62375,39.73122,1683.8],[-120.62369,39.73119,1682.71],[-120.62368,39.73117,1682.43],[-120.6237,39.73111,1682.33],[-120.62369,39.73108,1681.89],[-120.62362,39.73103,1679.74],[-120.62347,39.73101,1677.25],[-120.62339,39.73098,1675.69],[-120.62315,39.73093,1672.51],[-120.62302,39.73093,1672.08],[-120.62273,39.73085,1670.5],[-120.62264,39.73084,1669.93],[-120.62244,39.73088,1668.12],[-120.6222,39.73098,1664.04],[-120.62214,39.73106,1663.08],[-120.6221,39.73107,1662.41],[-120.62208,39.73107,1662.06],[-120.62206,39.73104,1661.66],[-120.6221,39.73095,1662.2],[-120.62209,39.73093,1661.98],[-120.62223,39.73081,1664.05],[-120.62222,39.73074,1662.09],[-120.62208,39.7307,1658.7],[-120.62203,39.73066,1656.81],[-120.62194,39.73068,1655.59],[-120.62194,39.73064,1654.66],[-120.62182,39.73071,1654.01],[-120.62166,39.73086,1652.95],[-120.62163,39.7309,1652.42],[-120.62158,39.731,1651.7],[-120.62161,39.73104,1652.58],[-120.62167,39.73107,1654.11],[-120.62179,39.73119,1653.07],[-120.62183,39.7312,1653.5],[-120.62193,39.73127,1652.44],[-120.62204,39.73132,1652.23],[-120.62211,39.73141,1650.22],[-120.62214,39.73148,1648.58],[-120.62211,39.73147,1648.32],[-120.62209,39.73153,1646.01],[-120.62211,39.73154,1646.1],[-120.6221,39.73161,1643.65],[-120.62206,39.73164,1642.74],[-120.62206,39.73174,1643.21],[-120.6221,39.73176,1644.43],[-120.62212,39.73181,1645.33],[-120.62209,39.7319,1645.27],[-120.62215,39.73195,1648.13],[-120.62219,39.73207,1651.49],[-120.6223,39.73214,1655.36],[-120.62229,39.73219,1654.64],[-120.62242,39.73228,1656.22],[-120.62249,39.73239,1655.73],[-120.62238,39.73247,1652.49],[-120.62246,39.73254,1652.3],[-120.6225,39.7326,1651.68],[-120.62251,39.73267,1650.4],[-120.62255,39.73267,1650.94],[-120.62275,39.7331,1650.32],[-120.62269,39.73321,1649.31],[-120.62246,39.73344,1648.71],[-120.6224,39.73355,1648.39],[-120.62234,39.73362,1648.56],[-120.62222,39.73364,1649.07],[-120.62222,39.7337,1649.53],[-120.6221,39.73384,1652.33],[-120.62209,39.7339,1653.58],[-120.62193,39.73402,1654.64],[-120.62179,39.73404,1653.82],[-120.62163,39.73397,1651.87],[-120.62155,39.73397,1651.43],[-120.62144,39.734,1651.45],[-120.62138,39.73405,1652.12],[-120.62126,39.73408,1652.42],[-120.62115,39.73415,1653.57],[-120.62107,39.73422,1654.32],[-120.62105,39.73429,1655.42],[-120.6209,39.7345,1658.05],[-120.62085,39.73452,1658.04],[-120.62074,39.73463,1659.42],[-120.62055,39.73468,1660.43],[-120.62033,39.73468,1661.23],[-120.62021,39.73465,1661.28],[-120.62001,39.73459,1661.33],[-120.6195,39.73441,1661.04],[-120.61882,39.73429,1661.83],[-120.61866,39.73424,1660.05],[-120.61859,39.73424,1658.36],[-120.6185,39.73428,1656.12],[-120.61839,39.7343,1653.19],[-120.61849,39.73447,1654.83],[-120.61844,39.73474,1650.96],[-120.61848,39.73488,1650.27],[-120.61841,39.73504,1645.85],[-120.61838,39.73523,1641.59],[-120.61827,39.73537,1636.93],[-120.61811,39.73545,1632.81],[-120.61802,39.73546,1631.08],[-120.61805,39.73543,1632.04],[-120.6181,39.73542,1633.05],[-120.61803,39.73532,1633.03],[-120.61797,39.73528,1632.1],[-120.61783,39.73502,1631.41],[-120.61774,39.73493,1629.86],[-120.61766,39.73493,1628.14],[-120.61764,39.73495,1627.63],[-120.61755,39.73492,1626.15],[-120.61753,39.73501,1625.16],[-120.61746,39.73512,1622.88],[-120.61743,39.73525,1621.06],[-120.61738,39.73539,1619.03],[-120.61739,39.73606,1617.36],[-120.6173,39.73619,1615.5],[-120.6171,39.73639,1612.03],[-120.61685,39.73654,1606.59],[-120.6168,39.73657,1605.56],[-120.61675,39.73656,1605.16],[-120.61676,39.73652,1605.86],[-120.61674,39.73647,1606.34],[-120.61673,39.73641,1607.08],[-120.6166,39.73623,1605.58],[-120.61657,39.73615,1604.9],[-120.6166,39.73594,1603.78],[-120.61663,39.73584,1603.45],[-120.6166,39.73577,1602.43],[-120.61662,39.73572,1602.62],[-120.61658,39.73572,1601.7],[-120.61639,39.73583,1598.32],[-120.6162,39.73615,1598.08],[-120.61602,39.73629,1595.6],[-120.61587,39.73659,1593.36],[-120.61586,39.73671,1592.74],[-120.61588,39.73677,1592.71],[-120.61592,39.73682,1592.95],[-120.61585,39.73685,1591.78],[-120.61585,39.73687,1591.67],[-120.61596,39.73694,1591.66],[-120.6161,39.73696,1592.11],[-120.61615,39.73695,1592.7],[-120.61623,39.73698,1592.4],[-120.61624,39.73702,1591.37],[-120.6163,39.73707,1590.33],[-120.61636,39.73722,1586.59],[-120.61637,39.73727,1585.31],[-120.61631,39.73731,1583.78],[-120.6163,39.73737,1582.06],[-120.61638,39.73745,1580.6],[-120.61673,39.73741,1584.26],[-120.61688,39.73742,1584.92],[-120.61698,39.73747,1584],[-120.61714,39.73758,1581.35],[-120.61742,39.73775,1577.44],[-120.61777,39.73777,1577.23],[-120.61855,39.73771,1580.36],[-120.61897,39.73798,1572.95],[-120.61909,39.73854,1565.82],[-120.6191,39.73896,1563.56],[-120.61904,39.73932,1562.8],[-120.61902,39.73953,1560.61],[-120.61895,39.73977,1556.66],[-120.61887,39.73982,1555.99],[-120.61878,39.73964,1558.12],[-120.61878,39.73978,1556.53],[-120.61878,39.73974,1556.98],[-120.61877,39.73968,1557.64],[-120.61876,39.73962,1558.28],[-120.61876,39.73959,1558.61],[-120.61878,39.73949,1559.54],[-120.61877,39.73944,1559.72],[-120.61877,39.73941,1559.87],[-120.6187,39.73916,1559.98],[-120.61858,39.7387,1560.7],[-120.61849,39.73864,1560.12],[-120.61814,39.73847,1558.59],[-120.61808,39.73843,1558.96],[-120.61802,39.73845,1557.93],[-120.6179,39.73841,1558.14],[-120.61792,39.73843,1557.74],[-120.61786,39.73852,1555.17],[-120.61807,39.73937,1545.47],[-120.61806,39.73947,1544.42],[-120.61803,39.73955,1543.35],[-120.61797,39.7395,1543.21],[-120.61799,39.73959,1542.71],[-120.61799,39.73981,1541.41],[-120.61784,39.74027,1538.43],[-120.61776,39.74043,1537],[-120.61772,39.74047,1536.2],[-120.61758,39.74055,1533.78],[-120.61759,39.74069,1534.79],[-120.61755,39.74081,1535.09],[-120.61749,39.74093,1535.07],[-120.61739,39.74105,1534.32],[-120.61736,39.74113,1534.26],[-120.6174,39.74133,1534.04],[-120.61745,39.74147,1531.81],[-120.61748,39.74145,1532.76],[-120.61752,39.74142,1534.22],[-120.61751,39.7414,1534.77],[-120.61741,39.74139,1533.72],[-120.61736,39.74145,1531.43],[-120.61736,39.74148,1530.63],[-120.61716,39.7416,1526.24],[-120.61695,39.74166,1523.8],[-120.61682,39.74166,1522.65],[-120.61668,39.74165,1521.63],[-120.61642,39.74152,1519.18],[-120.6163,39.74148,1517.8],[-120.6162,39.74147,1516.78],[-120.61627,39.74152,1517.46],[-120.61632,39.74159,1517.9],[-120.61637,39.74169,1517.9],[-120.61639,39.74177,1517.12],[-120.61635,39.74179,1516.66],[-120.61641,39.74193,1514.78],[-120.61621,39.74197,1512.89],[-120.61599,39.74209,1509.19],[-120.61591,39.74212,1508.08],[-120.61556,39.74215,1505.33],[-120.61529,39.74215,1503.51],[-120.6152,39.74213,1503.02],[-120.61504,39.74207,1502.22],[-120.61483,39.74196,1501.31],[-120.61479,39.74191,1501.25],[-120.61474,39.74188,1500.98],[-120.61472,39.74183,1500.93],[-120.61456,39.7418,1499.99],[-120.61452,39.74177,1499.83],[-120.61447,39.74178,1499.56],[-120.61439,39.74176,1499.19],[-120.61437,39.74174,1499.12],[-120.61434,39.74166,1499.07],[-120.61412,39.74149,1498.87],[-120.61416,39.74154,1498.77],[-120.61423,39.74155,1498.85],[-120.61423,39.7416,1498.73],[-120.61415,39.74155,1498.73],[-120.61407,39.74153,1498.67],[-120.61396,39.74159,1498.27],[-120.61391,39.74167,1497.82],[-120.61389,39.74177,1497.33],[-120.61384,39.7419,1496.47],[-120.6138,39.74195,1495.96],[-120.61369,39.74202,1494.74],[-120.61361,39.74201,1494.23],[-120.61335,39.74206,1491.94],[-120.61321,39.74204,1491.35],[-120.61299,39.74205,1490.75],[-120.61277,39.74209,1489.66],[-120.61268,39.74209,1489.45],[-120.61253,39.74198,1490.84],[-120.61241,39.74193,1491.29],[-120.61223,39.74192,1490.95],[-120.61202,39.7418,1491.94],[-120.61196,39.7418,1491.7],[-120.61192,39.74184,1490.88],[-120.612,39.74185,1491.06],[-120.61202,39.74193,1489.73],[-120.6121,39.74205,1487.48],[-120.61211,39.74212,1486.01],[-120.61208,39.74232,1483.5],[-120.61202,39.74246,1482.42],[-120.61197,39.74257,1483.93],[-120.6118,39.74255,1481.43],[-120.61166,39.74261,1479.95],[-120.61154,39.7427,1478.86],[-120.61149,39.74283,1479.08],[-120.61143,39.74315,1476.39],[-120.61149,39.74329,1474.34],[-120.61162,39.74339,1473.53],[-120.61181,39.7435,1473.19],[-120.61171,39.74385,1456.93],[-120.61179,39.74391,1455.46],[-120.6121,39.744,1457.18],[-120.61229,39.74411,1456.1],[-120.61247,39.7441,1460.19],[-120.61274,39.74416,1461.2],[-120.61308,39.7441,1465.47],[-120.61357,39.7443,1460.54],[-120.61375,39.74433,1461.93],[-120.61392,39.74439,1462.31],[-120.61408,39.7445,1460.34],[-120.61425,39.74453,1460.53],[-120.61456,39.74452,1460.05],[-120.61482,39.74447,1458.85],[-120.61476,39.74451,1458.38],[-120.61464,39.74454,1458.79],[-120.61456,39.74491,1455.87],[-120.6145,39.74496,1455.91],[-120.61448,39.74501,1455.69],[-120.61451,39.74507,1455.13],[-120.61453,39.7452,1454.53],[-120.61448,39.74526,1454.58],[-120.6147,39.7453,1452.89],[-120.61467,39.74536,1452.76],[-120.61448,39.74534,1454.29],[-120.61444,39.74536,1454.29],[-120.61426,39.74548,1454.2],[-120.61408,39.74571,1450.81],[-120.61397,39.74581,1449.03],[-120.61382,39.74584,1448.08],[-120.61378,39.74588,1447.19],[-120.61363,39.74593,1445.59],[-120.61354,39.74595,1444.89],[-120.6134,39.74593,1444.55],[-120.61338,39.74598,1443.79],[-120.61322,39.74597,1443.29],[-120.61307,39.74603,1442.38],[-120.61303,39.74603,1442.32],[-120.61294,39.74605,1441.99],[-120.61288,39.74612,1441.24],[-120.6128,39.74614,1440.87],[-120.61268,39.74622,1439.29],[-120.61258,39.74618,1439.77],[-120.61254,39.74619,1439.51],[-120.6125,39.74617,1439.74],[-120.61245,39.74618,1439.42],[-120.61198,39.74644,1433.4],[-120.61155,39.74637,1433.06],[-120.61136,39.74638,1432.23],[-120.61127,39.74636,1431.99],[-120.61105,39.74638,1431.04],[-120.61095,39.74643,1430.42],[-120.61092,39.74647,1430.08],[-120.61076,39.74657,1428.92],[-120.61064,39.74672,1427.31],[-120.61066,39.74696,1424.86],[-120.61059,39.74708,1422.98],[-120.61047,39.74721,1421.11],[-120.61035,39.74725,1420.41],[-120.60994,39.74728,1419.51],[-120.60985,39.7473,1419.21],[-120.60978,39.74733,1418.88],[-120.60976,39.74745,1418.03],[-120.60963,39.74754,1417.2],[-120.60946,39.74757,1416.94],[-120.60929,39.74758,1416.15],[-120.60848,39.74747,1412.56],[-120.60813,39.74746,1410.65],[-120.60804,39.74748,1410.01],[-120.60786,39.74756,1408.51],[-120.60758,39.74772,1406.51],[-120.60733,39.74793,1404.45],[-120.60718,39.74798,1403.95],[-120.60689,39.74801,1403.16],[-120.60644,39.74791,1401.68],[-120.60626,39.7479,1400.68],[-120.60594,39.74793,1398.62],[-120.60573,39.74803,1397.04],[-120.6052,39.74844,1393.14],[-120.60504,39.74853,1392.14],[-120.60491,39.74864,1391.16],[-120.60477,39.74881,1390.02],[-120.6049,39.749,1390.02],[-120.60433,39.74956,1385.37],[-120.60405,39.74945,1384.56],[-120.60402,39.74949,1384.23],[-120.60391,39.74955,1383.45],[-120.60385,39.74961,1382.96],[-120.6038,39.74973,1382.3],[-120.60374,39.74982,1381.73],[-120.60366,39.74989,1381.13],[-120.60345,39.75003,1379.48],[-120.60317,39.75011,1377.56],[-120.60302,39.75018,1376.32],[-120.60295,39.75026,1375.42],[-120.60288,39.7504,1374.07],[-120.60282,39.75047,1373.25],[-120.60274,39.75052,1372.49],[-120.60245,39.75063,1370.33],[-120.60208,39.75062,1368.69],[-120.60199,39.75064,1368.17],[-120.60189,39.7507,1367.39],[-120.60185,39.75083,1366.5],[-120.60188,39.7509,1366.23],[-120.60197,39.75099,1366.1],[-120.60231,39.75127,1365.76],[-120.60229,39.75138,1365.06],[-120.60227,39.75144,1364.69],[-120.60218,39.7516,1363.65],[-120.60212,39.75176,1362.74],[-120.60206,39.75186,1362.11],[-120.60203,39.75215,1360.75],[-120.6018,39.75242,1358.73],[-120.60166,39.75255,1357.86],[-120.60138,39.75259,1356.82],[-120.60106,39.75273,1355.44],[-120.60091,39.7529,1354.59],[-120.60033,39.75316,1352.13],[-120.60011,39.75325,1351.31],[-120.59987,39.75338,1350.36],[-120.59919,39.7536,1347.44],[-120.5991,39.7536,1347.07]]}}
