{"type":"Feature","properties":{"name":"Elwell to Mill Pond","sourceLabel":"Trailforks: Elwell to Mill Pond","sourceUrl":"https://www.trailforks.com/route/elwell-to-mill-pond/","retrievedAt":"2026-09-29T05:22:49.651561+00:00","gpxSha256":"9f868e1e9cc1c591bfc1716611686f054b71ed80b3e837ef06ffd52012a56faf","dataUsePolicy":"https://www.trailforks.com/about/data/","licenseNote":"Downloaded with user authorization to accept the Trailforks data use policy. Attribution required; commercial use requires separate Trailforks consent.","elevationSource":"Trailforks GPX export","sourceStats":{"distanceMiles":14,"climbingFt":2081,"descendingFt":4327},"movingTimeEstimate":"155 minutes, rounded to five minutes using Hard Way effort calibration: 275 * (14 + 2081/1000) / (23.64 + 4560/1000)."},"geometry":{"type":"LineString","coordinates":[[-120.65588,39.69309,2014.4],[-120.6559,39.693,2014.7],[-120.65593,39.69296,2015.1],[-120.65588,39.69299,2014.7],[-120.6559,39.69299,2014.7],[-120.6559,39.69298,2014.7],[-120.65591,39.693,2014.7],[-120.65593,39.69299,2015.0],[-120.65592,39.69298,2014.7],[-120.65593,39.69301,2015.0],[-120.65591,39.693,2014.7],[-120.65591,39.69297,2014.7],[-120.65592,39.69301,2014.7],[-120.65593,39.69299,2015.0],[-120.65592,39.69298,2014.7],[-120.65593,39.693,2015.0],[-120.65593,39.69299,2015.0],[-120.65595,39.69298,2015.0],[-120.65593,39.69298,2015.0],[-120.65595,39.69299,2015.0],[-120.65591,39.69302,2014.7],[-120.65591,39.69304,2014.7],[-120.65592,39.69301,2014.7],[-120.65587,39.69306,2014.4],[-120.65589,39.69309,2014.4],[-120.65591,39.69309,2014.4],[-120.6559,39.69307,2014.4],[-120.65587,39.69304,2014.7],[-120.65589,39.69309,2014.4],[-120.65587,39.69308,2014.4],[-120.65586,39.69303,2014.7],[-120.65593,39.69299,2015.0],[-120.65592,39.69302,2014.7],[-120.65593,39.69302,2015.0],[-120.65591,39.69299,2014.7],[-120.65592,39.69301,2014.7],[-120.65588,39.69301,2014.7],[-120.65589,39.693,2014.7],[-120.65589,39.69303,2014.7],[-120.65591,39.69302,2014.7],[-120.6559,39.69301,2014.7],[-120.6559,39.69304,2014.7],[-120.65585,39.69304,2014.7],[-120.65588,39.69307,2014.4],[-120.65584,39.69304,2014.7],[-120.65584,39.69302,2014.7],[-120.65586,39.69305,2014.7],[-120.65584,39.69301,2014.7],[-120.65584,39.69298,2014.7],[-120.65586,39.69299,2014.7],[-120.65588,39.69298,2014.7],[-120.65595,39.69302,2015.0],[-120.65598,39.69302,2015.0],[-120.65594,39.69303,2015.0],[-120.65594,39.69308,2014.6],[-120.65591,39.69307,2014.4],[-120.65591,39.69308,2014.4],[-120.65589,39.69304,2014.7],[-120.65594,39.69302,2015.0],[-120.65596,39.693,2015.0],[-120.65601,39.69301,2015.0],[-120.65613,39.693,2015.3],[-120.6563,39.69297,2015.6],[-120.65658,39.69302,2015.4],[-120.65681,39.69304,2014.5],[-120.65693,39.69307,2013.3],[-120.65709,39.69302,2013.7],[-120.65716,39.69298,2013.4],[-120.65729,39.69284,2014.4],[-120.65734,39.69283,2013.8],[-120.6575,39.69275,2013.9],[-120.65753,39.69259,2014.7],[-120.65757,39.6925,2014.7],[-120.65757,39.69241,2015.3],[-120.65763,39.69221,2018.0],[-120.65772,39.69209,2019.0],[-120.65782,39.692,2020.6],[-120.65795,39.69195,2020.0],[-120.658,39.69195,2019.2],[-120.65821,39.69203,2017.6],[-120.6583,39.69204,2015.1],[-120.65841,39.69203,2015.6],[-120.65871,39.69195,2011.1],[-120.65886,39.69196,2010.2],[-120.65898,39.69192,2009.9],[-120.65917,39.69182,2009.1],[-120.65915,39.69182,2009.6],[-120.65915,39.69183,2009.6],[-120.65919,39.69184,2009.1],[-120.65919,39.69181,2009.1],[-120.65927,39.69185,2008.6],[-120.65957,39.69188,2004.6],[-120.65977,39.69187,2003.1],[-120.65986,39.69185,2003.1],[-120.65998,39.6918,2002.1],[-120.66004,39.69179,2001.2],[-120.66018,39.69179,2000.9],[-120.66028,39.69177,2001.0],[-120.6604,39.69177,2000.9],[-120.66041,39.69181,2000.9],[-120.66039,39.69186,1999.3],[-120.66035,39.69193,1999.5],[-120.66031,39.69196,1998.3],[-120.66032,39.69208,1997.5],[-120.66033,39.69213,1996.9],[-120.66038,39.69217,1996.3],[-120.66045,39.69222,1996.3],[-120.6605,39.69222,1995.4],[-120.66061,39.69216,1994.1],[-120.66083,39.6921,1992.2],[-120.66094,39.69205,1989.4],[-120.66103,39.69197,1988.8],[-120.66111,39.69188,1989.8],[-120.6612,39.69182,1989.5],[-120.66139,39.6918,1985.0],[-120.66161,39.6918,1980.5],[-120.6618,39.69162,1975.8],[-120.66187,39.69158,1974.6],[-120.66206,39.69164,1972.5],[-120.66213,39.6916,1971.4],[-120.66219,39.6916,1971.4],[-120.66236,39.69163,1969.5],[-120.66282,39.69166,1974.0],[-120.66319,39.69183,1975.9],[-120.66318,39.69193,1974.2],[-120.66321,39.69195,1972.4],[-120.66323,39.69199,1972.4],[-120.66335,39.69207,1973.1],[-120.66336,39.69211,1973.1],[-120.66346,39.69219,1972.3],[-120.6635,39.69225,1969.6],[-120.66354,39.69227,1971.9],[-120.66372,39.69228,1976.1],[-120.66378,39.69227,1976.1],[-120.66408,39.69234,1979.1],[-120.66416,39.69232,1979.1],[-120.66435,39.69218,1979.9],[-120.66454,39.69212,1978.4],[-120.66454,39.6921,1978.4],[-120.66461,39.69207,1978.4],[-120.66464,39.69202,1978.7],[-120.66477,39.69196,1977.3],[-120.66484,39.69194,1977.3],[-120.66503,39.69181,1975.7],[-120.6651,39.69179,1975.1],[-120.66517,39.69173,1975.5],[-120.6653,39.6917,1975.5],[-120.66545,39.69171,1976.0],[-120.66554,39.69169,1976.5],[-120.66576,39.69162,1978.1],[-120.66593,39.69168,1977.9],[-120.666,39.69177,1977.0],[-120.66609,39.69182,1977.3],[-120.66617,39.69182,1978.4],[-120.66622,39.6918,1979.1],[-120.66631,39.69181,1978.7],[-120.66631,39.69177,1978.7],[-120.66627,39.69173,1979.0],[-120.66627,39.69177,1979.1],[-120.6663,39.69181,1978.7],[-120.66621,39.69185,1979.1],[-120.6662,39.6919,1976.8],[-120.66624,39.69195,1977.3],[-120.66623,39.69199,1977.3],[-120.66626,39.69204,1977.4],[-120.66637,39.69207,1979.1],[-120.66639,39.6921,1979.1],[-120.66645,39.69212,1979.1],[-120.66647,39.69214,1978.9],[-120.66652,39.69224,1978.9],[-120.66652,39.69231,1978.9],[-120.66654,39.69232,1979.4],[-120.66655,39.69236,1979.4],[-120.66665,39.69234,1979.9],[-120.66683,39.69235,1980.4],[-120.667,39.69233,1981.5],[-120.66712,39.69225,1980.6],[-120.66716,39.69225,1980.9],[-120.66721,39.69223,1980.9],[-120.66737,39.69226,1981.7],[-120.66748,39.69224,1982.4],[-120.66752,39.69221,1981.5],[-120.66763,39.69217,1982.5],[-120.66767,39.69212,1981.1],[-120.66776,39.69207,1982.1],[-120.6678,39.69201,1981.6],[-120.66787,39.69197,1981.6],[-120.66793,39.69196,1982.5],[-120.66805,39.69187,1981.7],[-120.66827,39.69181,1981.2],[-120.66838,39.69175,1980.1],[-120.66854,39.69178,1981.3],[-120.66879,39.69172,1980.0],[-120.66882,39.69175,1980.1],[-120.66886,39.69175,1980.1],[-120.66896,39.69175,1980.2],[-120.66913,39.69169,1980.1],[-120.66917,39.69164,1979.5],[-120.66921,39.69162,1979.5],[-120.66937,39.69161,1979.2],[-120.66942,39.69169,1979.6],[-120.66948,39.69172,1979.3],[-120.6695,39.69176,1980.2],[-120.6695,39.69185,1980.2],[-120.66951,39.69189,1981.4],[-120.66947,39.69198,1982.5],[-120.66949,39.69201,1982.5],[-120.66954,39.69204,1983.8],[-120.66956,39.69199,1982.3],[-120.66962,39.69197,1982.3],[-120.66981,39.692,1981.8],[-120.66984,39.69202,1981.5],[-120.66974,39.69212,1983.3],[-120.6697,39.69219,1985.1],[-120.66969,39.69227,1986.7],[-120.66972,39.69229,1986.7],[-120.6698,39.69225,1986.7],[-120.66986,39.69224,1986.7],[-120.66994,39.69219,1984.7],[-120.67007,39.69221,1984.5],[-120.67027,39.69227,1985.2],[-120.67036,39.69227,1984.9],[-120.67047,39.69223,1983.5],[-120.6706,39.69222,1982.1],[-120.67087,39.69223,1982.5],[-120.67101,39.69225,1982.3],[-120.6711,39.69234,1982.7],[-120.67117,39.69238,1982.6],[-120.67136,39.69242,1983.1],[-120.67149,39.69246,1983.5],[-120.67156,39.69245,1983.5],[-120.67164,39.69241,1983.5],[-120.67172,39.6924,1983.5],[-120.67187,39.69243,1983.0],[-120.67214,39.69241,1984.9],[-120.67232,39.69244,1985.9],[-120.67251,39.69246,1986.4],[-120.67257,39.69245,1986.4],[-120.67262,39.69246,1986.7],[-120.67261,39.69247,1986.7],[-120.6729,39.69239,1986.6],[-120.67308,39.6924,1987.3],[-120.67328,39.69234,1988.9],[-120.67327,39.69235,1988.9],[-120.67336,39.6923,1990.8],[-120.67351,39.69227,1992.9],[-120.67366,39.69231,1996.9],[-120.67385,39.6923,2000.6],[-120.67399,39.69233,2003.4],[-120.67416,39.69233,2004.2],[-120.67453,39.69239,2006.0],[-120.67492,39.69248,2007.8],[-120.6752,39.69248,2008.1],[-120.67527,39.69252,2008.7],[-120.67546,39.69251,2008.7],[-120.67589,39.69259,2008.3],[-120.67613,39.69269,2009.1],[-120.67617,39.69272,2009.1],[-120.67615,39.69283,2009.5],[-120.67612,39.6929,2010.8],[-120.67614,39.69291,2010.8],[-120.67632,39.69292,2010.0],[-120.67654,39.69288,2011.2],[-120.67673,39.6929,2012.9],[-120.67698,39.69304,2016.1],[-120.67712,39.6932,2020.4],[-120.67713,39.69324,2021.8],[-120.67712,39.69328,2021.0],[-120.67715,39.69332,2022.5],[-120.67732,39.69335,2025.6],[-120.67743,39.69346,2026.5],[-120.67746,39.69352,2026.6],[-120.67753,39.69357,2027.5],[-120.67755,39.69361,2027.5],[-120.67761,39.69365,2028.8],[-120.67761,39.69367,2028.8],[-120.67759,39.69372,2028.2],[-120.67761,39.69375,2029.1],[-120.67769,39.69379,2030.0],[-120.67794,39.6939,2030.7],[-120.67816,39.69411,2032.8],[-120.67818,39.69412,2032.8],[-120.67824,39.69408,2032.8],[-120.67839,39.69405,2035.1],[-120.6784,39.69412,2033.2],[-120.67843,39.6942,2030.0],[-120.67844,39.69419,2030.0],[-120.67843,39.69406,2035.8],[-120.67861,39.694,2036.9],[-120.67879,39.694,2038.5],[-120.6789,39.69395,2041.8],[-120.67898,39.69396,2041.8],[-120.67896,39.69392,2041.8],[-120.67899,39.6939,2044.2],[-120.67911,39.69388,2047.6],[-120.67913,39.69385,2047.6],[-120.67911,39.69377,2047.8],[-120.67916,39.69371,2047.8],[-120.67918,39.69365,2048.6],[-120.67923,39.69362,2048.6],[-120.67923,39.69359,2047.4],[-120.67929,39.69352,2048.4],[-120.67927,39.6935,2047.3],[-120.67937,39.69341,2047.4],[-120.67949,39.69334,2047.9],[-120.67952,39.6933,2046.9],[-120.67952,39.69321,2046.3],[-120.67944,39.6931,2045.5],[-120.67943,39.69311,2045.5],[-120.67941,39.69308,2045.5],[-120.67941,39.69302,2045.5],[-120.67937,39.69295,2045.7],[-120.67936,39.69288,2045.7],[-120.67933,39.69286,2044.7],[-120.67925,39.69284,2043.5],[-120.67919,39.69278,2043.5],[-120.67925,39.69259,2043.5],[-120.67936,39.69249,2044.8],[-120.67939,39.69241,2044.8],[-120.67944,39.6925,2045.8],[-120.67936,39.69242,2044.8],[-120.67942,39.6924,2043.0],[-120.67939,39.69241,2044.8],[-120.67936,39.69239,2043.0],[-120.67943,39.69239,2043.0],[-120.67948,39.69233,2044.6],[-120.67962,39.69225,2044.2],[-120.67976,39.69227,2046.4],[-120.67987,39.69218,2045.1],[-120.67989,39.69218,2045.1],[-120.67997,39.69219,2045.4],[-120.68004,39.69222,2045.7],[-120.68019,39.69222,2046.2],[-120.68025,39.69226,2048.0],[-120.68042,39.69227,2048.6],[-120.68038,39.69235,2050.1],[-120.68045,39.69226,2048.6],[-120.6806,39.69225,2049.0],[-120.68087,39.69231,2050.5],[-120.681,39.69236,2054.5],[-120.68105,39.69247,2058.2],[-120.68113,39.69253,2060.9],[-120.68117,39.6926,2061.3],[-120.68123,39.6926,2062.5],[-120.68134,39.69257,2063.2],[-120.68144,39.6926,2064.4],[-120.68152,39.69256,2065.0],[-120.68159,39.69256,2065.7],[-120.68164,39.69254,2065.7],[-120.68176,39.69252,2068.2],[-120.68196,39.69256,2071.1],[-120.68199,39.69256,2071.1],[-120.68202,39.69252,2071.1],[-120.6821,39.69257,2072.2],[-120.68203,39.6926,2070.1],[-120.68196,39.69258,2071.1],[-120.6821,39.69257,2072.2],[-120.68208,39.69257,2072.2],[-120.68211,39.69255,2072.2],[-120.6821,39.69257,2072.2],[-120.68211,39.69257,2072.2],[-120.68218,39.69252,2073.3],[-120.68222,39.69248,2074.4],[-120.68232,39.69232,2077.3],[-120.68233,39.69226,2077.2],[-120.68238,39.69219,2076.8],[-120.68241,39.69217,2078.6],[-120.68241,39.69207,2078.1],[-120.68249,39.69198,2077.2],[-120.6825,39.69191,2076.3],[-120.68253,39.69183,2079.1],[-120.68261,39.69177,2082.4],[-120.68263,39.6917,2082.9],[-120.68275,39.69168,2086.1],[-120.68281,39.69163,2089.6],[-120.68289,39.6916,2092.4],[-120.68299,39.69154,2095.7],[-120.68307,39.69153,2098.4],[-120.68321,39.69154,2100.7],[-120.68325,39.69152,2103.1],[-120.68328,39.69154,2103.1],[-120.68327,39.6916,2102.4],[-120.68329,39.69165,2102.4],[-120.68335,39.6917,2103.8],[-120.68341,39.69173,2103.8],[-120.68342,39.69175,2103.8],[-120.68348,39.69177,2105.0],[-120.68354,39.69184,2106.3],[-120.68355,39.69188,2104.9],[-120.6838,39.69199,2105.3],[-120.68395,39.69212,2104.7],[-120.68406,39.69215,2104.8],[-120.68411,39.69221,2104.7],[-120.68412,39.69224,2104.8],[-120.68417,39.69225,2104.8],[-120.68415,39.69223,2104.8],[-120.68431,39.69229,2104.7],[-120.68442,39.69232,2105.6],[-120.68454,39.69227,2105.4],[-120.68452,39.69221,2105.8],[-120.68454,39.69219,2105.7],[-120.68478,39.69217,2105.9],[-120.68497,39.69226,2106.3],[-120.68505,39.69245,2104.4],[-120.68512,39.69257,2102.8],[-120.68524,39.69266,2102.0],[-120.68529,39.69275,2101.4],[-120.6856,39.69285,2098.0],[-120.68572,39.69293,2096.7],[-120.68583,39.69297,2095.6],[-120.68587,39.69301,2095.9],[-120.68596,39.69307,2094.6],[-120.68607,39.69316,2091.8],[-120.68615,39.69319,2093.4],[-120.68624,39.69331,2087.9],[-120.68636,39.69341,2083.8],[-120.68641,39.69347,2081.2],[-120.68649,39.6935,2081.6],[-120.6865,39.69352,2077.4],[-120.68648,39.69355,2076.9],[-120.68641,39.69361,2076.9],[-120.68632,39.69365,2074.3],[-120.68634,39.69368,2074.3],[-120.68655,39.69375,2071.7],[-120.6866,39.69376,2071.8],[-120.68671,39.69385,2069.2],[-120.68675,39.69392,2065.5],[-120.68686,39.694,2063.7],[-120.68686,39.69405,2063.7],[-120.68688,39.69403,2063.7],[-120.68695,39.69406,2064.2],[-120.68707,39.69414,2061.7],[-120.68711,39.69416,2061.7],[-120.68734,39.69416,2060.0],[-120.68784,39.69424,2053.7],[-120.68797,39.69428,2049.5],[-120.6882,39.69431,2048.1],[-120.6882,39.69435,2048.1],[-120.68817,39.69447,2043.1],[-120.68818,39.69448,2043.1],[-120.68846,39.69449,2041.3],[-120.68851,39.69451,2041.3],[-120.68853,39.69455,2038.4],[-120.68887,39.69452,2040.3],[-120.689,39.69455,2037.1],[-120.68932,39.69458,2033.8],[-120.68953,39.69464,2026.8],[-120.68954,39.69467,2025.0],[-120.68975,39.69471,2026.6],[-120.68987,39.69471,2028.7],[-120.68992,39.69475,2027.8],[-120.68991,39.69473,2027.8],[-120.68993,39.69471,2030.3],[-120.69003,39.69483,2027.2],[-120.69004,39.69487,2027.2],[-120.6901,39.6949,2027.6],[-120.69017,39.69501,2018.8],[-120.69028,39.69519,2014.5],[-120.69026,39.69529,2011.7],[-120.69041,39.69543,2013.2],[-120.69043,39.69548,2012.3],[-120.69043,39.69553,2012.3],[-120.69045,39.69554,2012.3],[-120.69047,39.69562,2012.8],[-120.69067,39.69575,2011.8],[-120.69075,39.69581,2012.2],[-120.69075,39.69584,2009.9],[-120.69076,39.69583,2012.2],[-120.69084,39.69586,2010.0],[-120.69091,39.69593,2008.5],[-120.69095,39.696,2008.4],[-120.69099,39.69604,2008.0],[-120.69101,39.69608,2008.0],[-120.69107,39.69631,2009.3],[-120.69114,39.69644,2010.8],[-120.69122,39.69654,2011.5],[-120.69125,39.69663,2011.6],[-120.69126,39.69678,2011.8],[-120.69124,39.69701,2012.7],[-120.69117,39.69712,2012.1],[-120.69114,39.69715,2013.1],[-120.69114,39.6972,2013.1],[-120.69108,39.69731,2012.4],[-120.69108,39.69735,2013.8],[-120.69083,39.69767,2019.0],[-120.69078,39.6977,2021.0],[-120.69078,39.69774,2021.0],[-120.69064,39.69791,2022.4],[-120.69056,39.69806,2025.8],[-120.6905,39.6981,2025.2],[-120.69046,39.69817,2026.3],[-120.69043,39.6982,2026.3],[-120.6904,39.69825,2027.5],[-120.6904,39.6983,2027.5],[-120.69041,39.69833,2027.5],[-120.69045,39.69834,2028.1],[-120.69052,39.69828,2028.4],[-120.69058,39.69827,2029.4],[-120.69063,39.69824,2028.0],[-120.6907,39.69818,2029.3],[-120.69079,39.69817,2031.2],[-120.69087,39.69814,2031.3],[-120.69095,39.69821,2035.8],[-120.69093,39.69817,2035.8],[-120.69094,39.69825,2036.7],[-120.69092,39.6983,2034.9],[-120.69101,39.69835,2037.4],[-120.69105,39.69835,2038.8],[-120.6911,39.69833,2038.3],[-120.69128,39.69828,2040.4],[-120.6915,39.69831,2043.5],[-120.69155,39.69835,2044.5],[-120.69158,39.69839,2046.0],[-120.69157,39.69842,2044.5],[-120.69149,39.69844,2045.3],[-120.69138,39.69856,2043.0],[-120.69142,39.69859,2044.5],[-120.69145,39.69857,2044.5],[-120.69151,39.69857,2045.8],[-120.69156,39.69859,2045.8],[-120.69162,39.69869,2047.8],[-120.69162,39.69877,2049.1],[-120.69166,39.69881,2050.9],[-120.69165,39.69886,2050.9],[-120.6917,39.69892,2054.8],[-120.69168,39.69903,2055.9],[-120.69158,39.69922,2055.0],[-120.69157,39.69939,2056.6],[-120.69151,39.69945,2058.7],[-120.69152,39.69946,2058.7],[-120.69155,39.69947,2058.7],[-120.69159,39.69944,2058.6],[-120.69161,39.69945,2060.8],[-120.69166,39.6995,2060.8],[-120.6917,39.69957,2064.7],[-120.69161,39.69944,2058.6],[-120.69169,39.69943,2060.5],[-120.69183,39.69931,2060.0],[-120.69193,39.69928,2061.8],[-120.69192,39.69924,2061.3],[-120.69193,39.69912,2061.6],[-120.69195,39.69911,2064.3],[-120.69201,39.69911,2064.3],[-120.69204,39.69914,2067.3],[-120.69211,39.69917,2067.4],[-120.69213,39.69926,2071.0],[-120.69212,39.69926,2067.9],[-120.69212,39.69929,2067.9],[-120.69212,39.69934,2067.9],[-120.69208,39.6993,2067.9],[-120.69208,39.69931,2067.9],[-120.69211,39.69931,2067.9],[-120.69211,39.69932,2067.9],[-120.6921,39.69937,2068.9],[-120.69205,39.69943,2068.9],[-120.69203,39.69947,2068.5],[-120.69199,39.6995,2068.5],[-120.69195,39.69958,2070.8],[-120.69189,39.69964,2070.7],[-120.69186,39.69968,2070.7],[-120.69177,39.69972,2068.5],[-120.69176,39.69975,2070.3],[-120.69181,39.69975,2070.3],[-120.69188,39.69972,2070.7],[-120.69203,39.69969,2073.1],[-120.692,39.69969,2073.1],[-120.69218,39.69968,2079.3],[-120.69225,39.69969,2082.8],[-120.69237,39.69965,2086.1],[-120.69245,39.69957,2086.0],[-120.69246,39.69953,2083.7],[-120.69255,39.69948,2087.5],[-120.69258,39.6994,2086.9],[-120.69261,39.69936,2091.5],[-120.69266,39.69936,2091.5],[-120.69264,39.69937,2091.5],[-120.69268,39.69939,2091.5],[-120.6927,39.69945,2095.2],[-120.69269,39.69949,2095.2],[-120.6927,39.69953,2095.2],[-120.69269,39.69953,2095.2],[-120.69264,39.69961,2092.6],[-120.69267,39.69969,2095.1],[-120.69266,39.69976,2099.3],[-120.69246,39.69996,2098.9],[-120.69245,39.70002,2102.3],[-120.6924,39.70012,2099.7],[-120.69237,39.70035,2103.6],[-120.69234,39.70041,2105.5],[-120.69233,39.70048,2107.0],[-120.69236,39.70064,2108.2],[-120.69244,39.70072,2112.2],[-120.69243,39.70078,2114.4],[-120.69236,39.70083,2112.9],[-120.69227,39.70092,2114.1],[-120.69211,39.70099,2113.0],[-120.69184,39.70109,2108.6],[-120.69166,39.70119,2108.4],[-120.69149,39.70132,2114.0],[-120.69141,39.70142,2114.6],[-120.69124,39.70151,2113.4],[-120.69118,39.70159,2114.7],[-120.69119,39.70161,2114.7],[-120.69158,39.70149,2121.4],[-120.69162,39.70151,2121.4],[-120.69161,39.70155,2121.4],[-120.69157,39.70159,2121.4],[-120.69151,39.7016,2121.4],[-120.69134,39.70173,2120.3],[-120.69124,39.70178,2121.4],[-120.69111,39.7019,2121.7],[-120.69104,39.70194,2121.7],[-120.69096,39.70201,2123.2],[-120.69085,39.70206,2124.2],[-120.6908,39.70215,2125.4],[-120.69068,39.70229,2128.6],[-120.6906,39.70233,2132.9],[-120.69043,39.70235,2130.1],[-120.69039,39.70241,2133.5],[-120.69028,39.7025,2134.0],[-120.6903,39.70249,2132.2],[-120.69031,39.70251,2134.0],[-120.69028,39.7025,2134.0],[-120.69028,39.7025,2134.0],[-120.69029,39.70252,2134.0],[-120.69027,39.70251,2132.2],[-120.69026,39.70252,2132.2],[-120.69027,39.70252,2132.2],[-120.69027,39.70255,2132.2],[-120.69027,39.7025,2132.2],[-120.69028,39.70252,2134.0],[-120.69029,39.70249,2132.2],[-120.6903,39.70251,2134.0],[-120.69028,39.70249,2132.2],[-120.69027,39.70249,2130.5],[-120.69029,39.7025,2134.0],[-120.69025,39.7025,2132.2],[-120.69026,39.70251,2132.2],[-120.69026,39.70249,2130.5],[-120.69028,39.70249,2132.2],[-120.69028,39.70266,2135.6],[-120.69029,39.70249,2132.2],[-120.6903,39.7025,2134.0],[-120.69028,39.70247,2132.2],[-120.6903,39.7025,2134.0],[-120.69034,39.70248,2132.2],[-120.69037,39.70251,2134.0],[-120.69036,39.70252,2134.0],[-120.69036,39.7026,2135.6],[-120.69034,39.70263,2135.6],[-120.6903,39.70262,2135.6],[-120.69037,39.70247,2132.2],[-120.69031,39.7026,2135.6],[-120.69033,39.70268,2135.6],[-120.69044,39.70281,2139.4],[-120.69055,39.70285,2141.6],[-120.69074,39.70271,2143.5],[-120.69076,39.70268,2142.5],[-120.69093,39.7026,2144.6],[-120.69095,39.70256,2142.2],[-120.69103,39.70255,2143.4],[-120.69116,39.70249,2142.2],[-120.69129,39.70247,2143.7],[-120.69133,39.70244,2145.4],[-120.69148,39.70239,2144.7],[-120.69158,39.70234,2149.2],[-120.69183,39.70225,2151.7],[-120.69192,39.70224,2155.0],[-120.69198,39.7022,2154.8],[-120.692,39.70222,2154.8],[-120.69208,39.7022,2157.1],[-120.69219,39.70221,2159.2],[-120.6922,39.70221,2159.2],[-120.69219,39.70219,2159.2],[-120.6922,39.70221,2159.2],[-120.69229,39.70224,2163.1],[-120.69229,39.70227,2163.1],[-120.69226,39.70234,2164.8],[-120.69225,39.7024,2164.8],[-120.69219,39.70248,2164.6],[-120.69219,39.70259,2166.0],[-120.69217,39.70259,2166.0],[-120.69217,39.70261,2167.3],[-120.69222,39.70269,2168.7],[-120.69223,39.70284,2171.9],[-120.69219,39.70295,2171.3],[-120.69217,39.70299,2173.1],[-120.69216,39.70305,2173.1],[-120.69212,39.7031,2173.3],[-120.69213,39.7032,2177.2],[-120.69217,39.70323,2177.2],[-120.69218,39.70333,2179.0],[-120.6922,39.70337,2180.7],[-120.69215,39.70349,2182.4],[-120.69211,39.70351,2181.2],[-120.69209,39.7035,2181.2],[-120.69206,39.70353,2183.2],[-120.69207,39.70359,2183.2],[-120.69206,39.70362,2185.6],[-120.69212,39.70361,2183.2],[-120.69208,39.70364,2185.6],[-120.69207,39.70369,2185.6],[-120.69197,39.70377,2187.1],[-120.69197,39.7038,2189.9],[-120.69194,39.7038,2188.0],[-120.69195,39.70379,2187.1],[-120.69193,39.70387,2188.0],[-120.69195,39.70386,2189.9],[-120.69186,39.70398,2190.6],[-120.69181,39.70396,2188.6],[-120.69181,39.70398,2188.6],[-120.69179,39.70396,2188.6],[-120.69187,39.70404,2193.1],[-120.69188,39.7041,2195.4],[-120.69189,39.70407,2193.1],[-120.69189,39.70409,2195.4],[-120.69187,39.70409,2195.4],[-120.69188,39.7041,2195.4],[-120.69185,39.70412,2193.6],[-120.69183,39.70412,2193.6],[-120.69185,39.7041,2193.6],[-120.69187,39.7041,2195.4],[-120.69186,39.70412,2195.4],[-120.69181,39.7041,2193.6],[-120.69171,39.70411,2191.5],[-120.69172,39.70408,2191.5],[-120.69169,39.70412,2191.5],[-120.69167,39.70407,2189.1],[-120.69169,39.70404,2189.1],[-120.69168,39.70407,2189.1],[-120.69169,39.70408,2191.5],[-120.69166,39.70407,2187.0],[-120.6917,39.70407,2189.1],[-120.69168,39.70407,2189.1],[-120.69167,39.70404,2189.1],[-120.69167,39.70407,2189.1],[-120.6917,39.70408,2191.5],[-120.69169,39.70409,2191.5],[-120.69161,39.70389,2184.5],[-120.69166,39.70408,2189.4],[-120.69171,39.70411,2191.5],[-120.69177,39.70406,2191.1],[-120.69183,39.70408,2193.6],[-120.69183,39.7041,2193.6],[-120.69187,39.70407,2193.1],[-120.69186,39.70411,2195.4],[-120.69187,39.70411,2195.4],[-120.69186,39.70406,2193.1],[-120.69185,39.70408,2193.6],[-120.69189,39.70412,2195.4],[-120.6919,39.7041,2195.4],[-120.69188,39.70409,2195.4],[-120.69187,39.70411,2195.4],[-120.69188,39.70413,2195.4],[-120.69185,39.70416,2193.6],[-120.69184,39.70426,2196.6],[-120.69182,39.70429,2196.6],[-120.69165,39.70439,2196.7],[-120.69155,39.70449,2200.4],[-120.6915,39.70449,2200.4],[-120.69146,39.70453,2199.7],[-120.69145,39.70458,2204.7],[-120.69127,39.70468,2207.4],[-120.69127,39.7047,2207.4],[-120.69123,39.70471,2207.4],[-120.69122,39.70474,2211.0],[-120.69117,39.70477,2210.3],[-120.69116,39.7048,2210.3],[-120.6911,39.70482,2213.2],[-120.6911,39.70485,2213.2],[-120.69103,39.70488,2213.2],[-120.69097,39.70496,2216.3],[-120.69093,39.70495,2216.3],[-120.69084,39.705,2219.6],[-120.69075,39.70508,2218.2],[-120.69101,39.7051,2225.8],[-120.69132,39.7052,2234.1],[-120.69135,39.70526,2234.1],[-120.69137,39.70526,2234.1],[-120.69141,39.70532,2236.4],[-120.6914,39.70538,2239.8],[-120.69136,39.70544,2239.7],[-120.69128,39.7055,2242.5],[-120.69125,39.7055,2242.5],[-120.69123,39.70554,2242.5],[-120.69113,39.70563,2245.2],[-120.69105,39.70567,2248.3],[-120.69092,39.7057,2246.8],[-120.69087,39.70574,2246.8],[-120.69085,39.70573,2246.8],[-120.69086,39.70575,2251.0],[-120.69083,39.70574,2246.5],[-120.69071,39.70581,2250.7],[-120.69052,39.70585,2255.3],[-120.69035,39.70591,2255.9],[-120.69021,39.70592,2256.0],[-120.69015,39.70595,2260.3],[-120.69001,39.70596,2260.2],[-120.68994,39.706,2260.0],[-120.68982,39.70602,2264.9],[-120.68974,39.706,2259.6],[-120.68974,39.70601,2259.6],[-120.68973,39.706,2259.6],[-120.68974,39.70602,2264.7],[-120.68972,39.70602,2264.3],[-120.68984,39.70609,2264.9],[-120.68987,39.7061,2264.9],[-120.68988,39.70612,2269.9],[-120.6899,39.70611,2264.9],[-120.6899,39.70615,2269.9],[-120.68995,39.70615,2269.9],[-120.68997,39.70619,2269.9],[-120.68998,39.70618,2269.9],[-120.68996,39.70618,2269.9],[-120.69003,39.70623,2275.5],[-120.69008,39.70623,2275.5],[-120.69007,39.70625,2275.5],[-120.69012,39.70628,2275.2],[-120.6902,39.7063,2280.0],[-120.69024,39.70635,2280.0],[-120.69024,39.70637,2280.0],[-120.69016,39.70643,2284.3],[-120.6901,39.70644,2284.3],[-120.69002,39.70647,2284.3],[-120.68994,39.70647,2284.2],[-120.68988,39.70652,2286.9],[-120.68986,39.70653,2286.9],[-120.68986,39.70651,2286.9],[-120.68986,39.70653,2286.9],[-120.68988,39.70656,2286.9],[-120.68988,39.70655,2286.9],[-120.68991,39.70655,2287.4],[-120.68994,39.70659,2291.0],[-120.69003,39.70661,2292.2],[-120.69002,39.70662,2292.2],[-120.69006,39.70664,2292.2],[-120.69041,39.7067,2299.8],[-120.69041,39.70674,2299.8],[-120.69038,39.70674,2299.8],[-120.69037,39.70677,2306.4],[-120.69039,39.70677,2305.8],[-120.69037,39.70679,2306.4],[-120.69029,39.70684,2306.4],[-120.69026,39.70689,2309.1],[-120.6902,39.70691,2309.1],[-120.6902,39.70693,2309.1],[-120.69021,39.70695,2311.6],[-120.6903,39.70693,2308.9],[-120.69029,39.70694,2308.9],[-120.69041,39.70699,2310.4],[-120.6904,39.70704,2314.4],[-120.6905,39.70712,2312.4],[-120.69054,39.70725,2317.0],[-120.69054,39.70732,2312.9],[-120.6905,39.70735,2312.9],[-120.6905,39.70739,2312.9],[-120.69052,39.70732,2312.9],[-120.69047,39.70737,2312.9],[-120.69043,39.70739,2317.4],[-120.69033,39.70736,2320.2],[-120.69026,39.70739,2324.4],[-120.69019,39.70739,2324.4],[-120.69017,39.70742,2328.7],[-120.6902,39.70749,2322.9],[-120.69023,39.7075,2320.2],[-120.69022,39.70753,2320.2],[-120.69017,39.70755,2326.6],[-120.69017,39.70753,2326.6],[-120.69014,39.70753,2326.6],[-120.69009,39.70757,2331.7],[-120.69004,39.70757,2331.7],[-120.69002,39.70758,2331.7],[-120.69004,39.70759,2331.7],[-120.69003,39.70762,2330.8],[-120.69004,39.70763,2330.8],[-120.69003,39.70764,2330.8],[-120.68995,39.70767,2335.3],[-120.6899,39.70771,2339.7],[-120.68974,39.70773,2343.0],[-120.68971,39.70779,2345.5],[-120.68968,39.70782,2345.5],[-120.68957,39.70781,2347.5],[-120.68955,39.70783,2347.5],[-120.68946,39.70779,2349.3],[-120.68947,39.7078,2349.3],[-120.68944,39.70781,2351.1],[-120.68939,39.70781,2351.1],[-120.68924,39.7078,2356.2],[-120.68915,39.70782,2358.9],[-120.68892,39.70782,2359.9],[-120.68889,39.70787,2359.9],[-120.68877,39.70795,2356.8],[-120.68868,39.70794,2355.1],[-120.68861,39.70799,2360.3],[-120.6886,39.70797,2360.3],[-120.68854,39.708,2360.3],[-120.68847,39.70799,2359.8],[-120.6885,39.70812,2362.6],[-120.68845,39.70821,2363.6],[-120.68835,39.7083,2361.2],[-120.68835,39.70834,2358.5],[-120.68839,39.7084,2358.5],[-120.6883,39.70849,2355.0],[-120.68831,39.70851,2355.0],[-120.68831,39.70856,2352.9],[-120.68826,39.70857,2352.9],[-120.68819,39.70854,2351.9],[-120.68809,39.70854,2351.0],[-120.68807,39.70856,2351.0],[-120.68807,39.70863,2348.7],[-120.68804,39.70863,2347.9],[-120.68805,39.70864,2347.9],[-120.68795,39.70867,2347.0],[-120.68791,39.70872,2344.2],[-120.68791,39.70876,2344.2],[-120.68794,39.70878,2344.2],[-120.68795,39.70882,2341.0],[-120.68795,39.70885,2341.0],[-120.68801,39.70891,2338.4],[-120.688,39.70893,2338.4],[-120.68802,39.70898,2338.4],[-120.68799,39.70899,2334.2],[-120.68807,39.70903,2336.1],[-120.68812,39.70913,2332.0],[-120.6881,39.70915,2332.0],[-120.68807,39.70915,2332.0],[-120.68807,39.70918,2329.0],[-120.68803,39.7092,2327.9],[-120.68801,39.70916,2330.4],[-120.68798,39.70919,2327.9],[-120.68797,39.70929,2326.0],[-120.68794,39.70936,2322.7],[-120.68797,39.7094,2324.1],[-120.68802,39.70941,2324.1],[-120.68799,39.7095,2322.1],[-120.68795,39.70954,2318.5],[-120.68794,39.70959,2318.5],[-120.68787,39.70966,2314.6],[-120.68783,39.70978,2312.4],[-120.68775,39.70985,2308.4],[-120.6877,39.70994,2306.4],[-120.68754,39.71011,2297.2],[-120.68753,39.71014,2297.2],[-120.68747,39.71019,2293.4],[-120.68747,39.71028,2291.6],[-120.68733,39.71039,2288.0],[-120.68734,39.71046,2288.0],[-120.68731,39.71057,2283.5],[-120.68732,39.71069,2283.6],[-120.68735,39.71078,2282.7],[-120.68733,39.71084,2282.0],[-120.68736,39.711,2281.5],[-120.6873,39.71114,2279.9],[-120.68729,39.71122,2279.7],[-120.68726,39.71126,2279.7],[-120.68724,39.71137,2279.7],[-120.68723,39.71149,2279.6],[-120.6872,39.71153,2278.8],[-120.68721,39.71161,2278.9],[-120.68718,39.71175,2278.9],[-120.68718,39.71187,2279.3],[-120.68722,39.71193,2279.3],[-120.68716,39.71203,2279.6],[-120.68712,39.71213,2279.7],[-120.68708,39.71216,2279.7],[-120.68708,39.71227,2280.1],[-120.68702,39.71229,2279.3],[-120.68701,39.71232,2279.7],[-120.68704,39.71243,2281.2],[-120.68693,39.71252,2279.6],[-120.68687,39.71262,2280.0],[-120.68686,39.7127,2280.5],[-120.68681,39.71273,2279.3],[-120.68676,39.71282,2279.7],[-120.68658,39.71294,2277.7],[-120.68654,39.71301,2276.7],[-120.68647,39.71305,2275.2],[-120.68644,39.71312,2275.7],[-120.68639,39.71319,2276.1],[-120.68637,39.71318,2274.5],[-120.68635,39.71324,2274.5],[-120.68636,39.7133,2275.1],[-120.68625,39.71344,2274.6],[-120.68624,39.71351,2274.6],[-120.68619,39.71354,2273.6],[-120.68622,39.71359,2275.4],[-120.68621,39.71369,2276.2],[-120.68623,39.71372,2277.0],[-120.68614,39.71395,2276.8],[-120.68595,39.71411,2273.9],[-120.686,39.71415,2273.9],[-120.68588,39.71416,2271.3],[-120.68581,39.71428,2269.8],[-120.6858,39.71435,2269.8],[-120.68578,39.71436,2270.3],[-120.6858,39.7144,2270.3],[-120.68575,39.71448,2270.9],[-120.68576,39.71451,2270.9],[-120.68569,39.71459,2268.5],[-120.68568,39.71469,2268.7],[-120.68569,39.71473,2269.0],[-120.68569,39.71478,2269.0],[-120.68568,39.7148,2269.0],[-120.6857,39.715,2269.6],[-120.68574,39.71506,2269.6],[-120.68572,39.71518,2269.6],[-120.6857,39.7152,2269.4],[-120.6857,39.71528,2269.1],[-120.68567,39.71538,2268.7],[-120.6857,39.71545,2268.7],[-120.68568,39.71552,2268.0],[-120.68569,39.71556,2267.3],[-120.68564,39.71563,2265.7],[-120.68565,39.71565,2266.6],[-120.68563,39.71568,2265.0],[-120.68572,39.71574,2266.6],[-120.68575,39.71576,2267.4],[-120.68578,39.71574,2268.3],[-120.68576,39.7158,2267.4],[-120.6858,39.71586,2266.5],[-120.68583,39.71586,2266.5],[-120.68588,39.71588,2268.5],[-120.68593,39.71586,2270.7],[-120.68598,39.71602,2266.4],[-120.68607,39.71653,2254.8],[-120.68611,39.71734,2237.0],[-120.68617,39.71741,2237.4],[-120.6862,39.71749,2237.4],[-120.68617,39.71758,2236.3],[-120.68621,39.71767,2237.0],[-120.68619,39.71776,2234.6],[-120.68625,39.71792,2233.9],[-120.68618,39.71808,2230.4],[-120.68616,39.71824,2229.8],[-120.68609,39.71828,2228.1],[-120.68619,39.71831,2229.5],[-120.68615,39.71844,2228.9],[-120.68603,39.7185,2227.0],[-120.68597,39.71857,2224.5],[-120.68593,39.71862,2224.0],[-120.68602,39.71851,2227.0],[-120.68593,39.71867,2224.0],[-120.68573,39.7189,2217.0],[-120.68575,39.71899,2218.1],[-120.68559,39.71913,2213.9],[-120.68561,39.71922,2213.2],[-120.68563,39.71935,2212.5],[-120.68562,39.71938,2211.8],[-120.68556,39.71942,2211.8],[-120.68558,39.71951,2210.8],[-120.68556,39.71956,2209.5],[-120.68542,39.7196,2206.5],[-120.6853,39.7196,2204.1],[-120.68517,39.71957,2199.5],[-120.68511,39.71958,2199.5],[-120.68479,39.71987,2186.6],[-120.68472,39.72,2182.1],[-120.68468,39.72011,2180.1],[-120.68456,39.7202,2176.2],[-120.68454,39.72024,2176.2],[-120.68464,39.72032,2176.2],[-120.68468,39.72031,2176.2],[-120.68468,39.72034,2176.2],[-120.68449,39.72048,2171.3],[-120.68448,39.72052,2171.3],[-120.6845,39.72057,2170.5],[-120.68447,39.72065,2169.5],[-120.68438,39.72081,2167.2],[-120.68431,39.72087,2164.4],[-120.68433,39.72086,2164.4],[-120.68436,39.72093,2164.3],[-120.68436,39.72103,2163.0],[-120.6844,39.72106,2163.0],[-120.68438,39.72109,2163.0],[-120.68438,39.7212,2161.7],[-120.68435,39.72121,2159.1],[-120.68433,39.72118,2160.7],[-120.68437,39.72116,2161.7],[-120.68436,39.72114,2161.7],[-120.6844,39.7212,2161.7],[-120.68439,39.72123,2160.2],[-120.68433,39.7213,2156.9],[-120.68426,39.72133,2156.9],[-120.68423,39.72139,2153.3],[-120.6843,39.72148,2154.4],[-120.68432,39.72156,2151.3],[-120.68436,39.72159,2150.1],[-120.68432,39.72167,2146.5],[-120.68419,39.7218,2144.6],[-120.68408,39.72178,2143.3],[-120.6841,39.72188,2142.2],[-120.68412,39.72189,2142.2],[-120.68403,39.72199,2138.7],[-120.68386,39.72203,2136.5],[-120.68382,39.72207,2135.0],[-120.68376,39.72207,2134.6],[-120.68374,39.72207,2134.6],[-120.68368,39.72203,2135.2],[-120.68365,39.72199,2135.2],[-120.6836,39.72198,2134.6],[-120.68355,39.72199,2134.6],[-120.68345,39.72202,2134.3],[-120.68338,39.722,2134.1],[-120.68331,39.722,2133.8],[-120.68326,39.72204,2133.3],[-120.68316,39.72207,2133.1],[-120.68307,39.72204,2132.9],[-120.68302,39.72206,2132.6],[-120.68292,39.722,2132.6],[-120.68277,39.72197,2131.9],[-120.68269,39.72193,2132.4],[-120.68249,39.72193,2132.0],[-120.68241,39.72185,2132.1],[-120.68231,39.72182,2131.4],[-120.68226,39.72178,2131.4],[-120.68202,39.72167,2129.7],[-120.68196,39.72159,2129.3],[-120.68191,39.72157,2129.3],[-120.68176,39.72161,2128.6],[-120.68158,39.72163,2127.5],[-120.68154,39.7216,2126.8],[-120.68149,39.7216,2126.8],[-120.68154,39.72163,2126.8],[-120.68155,39.72168,2126.8],[-120.68148,39.72161,2126.4],[-120.68147,39.72162,2126.4],[-120.68143,39.72163,2126.4],[-120.68145,39.72163,2126.4],[-120.68146,39.72164,2126.4],[-120.68146,39.72161,2126.4],[-120.68144,39.72164,2126.4],[-120.68148,39.72163,2126.4],[-120.68146,39.72164,2126.4],[-120.68148,39.72165,2126.4],[-120.68145,39.72163,2126.4],[-120.68141,39.72167,2126.6],[-120.68134,39.72166,2126.0],[-120.68128,39.7217,2126.1],[-120.68122,39.7217,2126.1],[-120.68104,39.7216,2124.9],[-120.68095,39.72153,2124.0],[-120.68074,39.72146,2122.6],[-120.68064,39.7214,2122.5],[-120.68053,39.72139,2122.5],[-120.68048,39.72135,2121.3],[-120.68037,39.72131,2120.6],[-120.6803,39.7213,2120.6],[-120.68016,39.72122,2116.1],[-120.68008,39.72113,2112.9],[-120.67991,39.7211,2111.1],[-120.67977,39.72104,2109.7],[-120.67963,39.72103,2109.2],[-120.67955,39.72099,2108.6],[-120.67949,39.721,2108.0],[-120.67942,39.72097,2107.7],[-120.6793,39.72094,2107.4],[-120.67927,39.72095,2107.4],[-120.67918,39.7209,2106.7],[-120.67896,39.7209,2106.0],[-120.67885,39.72086,2106.0],[-120.67866,39.7207,2105.8],[-120.67865,39.72062,2105.8],[-120.67862,39.72058,2105.8],[-120.67862,39.72052,2105.8],[-120.67857,39.72044,2105.8],[-120.67852,39.72041,2105.8],[-120.67829,39.72042,2108.2],[-120.67818,39.72038,2108.7],[-120.67806,39.72039,2109.0],[-120.67798,39.72038,2108.9],[-120.67791,39.72039,2108.7],[-120.67787,39.72041,2108.6],[-120.67768,39.72042,2108.3],[-120.67764,39.72045,2108.3],[-120.67751,39.72047,2108.6],[-120.67731,39.7204,2107.1],[-120.67719,39.72029,2105.9],[-120.67708,39.72024,2104.9],[-120.67694,39.72019,2104.7],[-120.67691,39.72016,2103.6],[-120.67684,39.72017,2103.4],[-120.67681,39.72013,2103.4],[-120.67672,39.72011,2103.0],[-120.67662,39.72012,2102.7],[-120.67647,39.72024,2102.8],[-120.67635,39.7203,2103.1],[-120.67621,39.7203,2102.5],[-120.6759,39.72038,2100.5],[-120.67582,39.72044,2099.9],[-120.67572,39.72045,2099.3],[-120.67567,39.72054,2099.2],[-120.67556,39.72057,2098.4],[-120.67552,39.72055,2097.5],[-120.67532,39.72061,2095.8],[-120.67527,39.72068,2095.0],[-120.67512,39.72067,2094.3],[-120.67499,39.72077,2093.0],[-120.67479,39.72076,2091.5],[-120.67468,39.72071,2090.6],[-120.67458,39.72069,2090.1],[-120.67447,39.7207,2089.5],[-120.67441,39.72075,2089.0],[-120.6744,39.72081,2089.0],[-120.67436,39.72084,2089.0],[-120.67427,39.72087,2088.3],[-120.6742,39.72093,2087.4],[-120.67416,39.72092,2086.9],[-120.67407,39.72095,2085.8],[-120.67391,39.72105,2084.3],[-120.67389,39.72108,2084.3],[-120.67388,39.72114,2082.7],[-120.67394,39.72121,2083.0],[-120.67393,39.72128,2083.0],[-120.67387,39.72141,2079.5],[-120.67387,39.72151,2077.8],[-120.67383,39.72153,2077.8],[-120.67385,39.72166,2076.2],[-120.67383,39.72169,2074.5],[-120.67373,39.72175,2073.5],[-120.6736,39.72193,2069.2],[-120.67354,39.72195,2067.8],[-120.67344,39.72203,2066.3],[-120.67294,39.72198,2061.8],[-120.67288,39.72196,2061.8],[-120.67277,39.72201,2061.2],[-120.67245,39.72222,2056.9],[-120.67238,39.72221,2056.3],[-120.67232,39.72226,2055.0],[-120.67159,39.72265,2046.7],[-120.67153,39.72264,2046.2],[-120.67144,39.72272,2045.0],[-120.67137,39.72273,2044.3],[-120.67131,39.72285,2043.8],[-120.67133,39.72294,2043.3],[-120.67122,39.72302,2042.3],[-120.67113,39.72306,2041.5],[-120.67114,39.72315,2040.9],[-120.67112,39.72322,2040.9],[-120.67108,39.72329,2039.8],[-120.67097,39.72331,2039.4],[-120.67087,39.72339,2038.3],[-120.67087,39.72345,2037.3],[-120.67095,39.72352,2036.2],[-120.67091,39.72358,2035.8],[-120.67092,39.72366,2034.2],[-120.67102,39.72363,2035.0],[-120.67106,39.72371,2033.7],[-120.67133,39.72367,2035.2],[-120.67133,39.72394,2031.9],[-120.67129,39.72407,2030.6],[-120.67133,39.72413,2029.9],[-120.67134,39.72421,2028.8],[-120.67138,39.72431,2027.7],[-120.67144,39.72439,2026.6],[-120.67147,39.72448,2025.2],[-120.6715,39.72474,2019.1],[-120.67155,39.72478,2019.1],[-120.67154,39.72489,2016.9],[-120.67144,39.72508,2012.9],[-120.67143,39.72515,2011.7],[-120.67113,39.72533,2008.7],[-120.67101,39.72536,2008.0],[-120.67094,39.7254,2006.9],[-120.67094,39.72547,2006.1],[-120.67092,39.72553,2005.8],[-120.67085,39.72557,2004.6],[-120.67077,39.72558,2004.2],[-120.67061,39.72583,2000.6],[-120.6706,39.7259,1998.4],[-120.67069,39.72612,1993.2],[-120.67071,39.7262,1993.2],[-120.6707,39.72625,1991.6],[-120.6706,39.72625,1990.6],[-120.67045,39.72628,1987.9],[-120.67025,39.72636,1983.3],[-120.67015,39.72634,1981.8],[-120.66999,39.72625,1979.9],[-120.66984,39.7262,1979.3],[-120.66981,39.72616,1977.5],[-120.66977,39.72615,1977.5],[-120.66952,39.72601,1974.5],[-120.66941,39.72591,1973.4],[-120.66936,39.72582,1974.2],[-120.66937,39.72573,1975.0],[-120.66935,39.72562,1972.8],[-120.6693,39.72553,1972.9],[-120.6693,39.72544,1972.7],[-120.66933,39.72538,1972.7],[-120.6693,39.72536,1972.3],[-120.66922,39.72545,1969.4],[-120.66917,39.72546,1969.4],[-120.66914,39.72552,1966.6],[-120.66911,39.72554,1966.6],[-120.66909,39.72562,1966.9],[-120.66902,39.72577,1964.9],[-120.66893,39.72581,1962.6],[-120.66884,39.72604,1959.9],[-120.6689,39.72604,1962.2],[-120.66881,39.72603,1959.9],[-120.66877,39.72598,1958.0],[-120.66873,39.72584,1957.9],[-120.66868,39.72578,1955.3],[-120.66866,39.72569,1955.0],[-120.66868,39.72554,1953.9],[-120.66883,39.72525,1956.4],[-120.66871,39.72531,1954.6],[-120.66868,39.72534,1951.6],[-120.66866,39.72545,1952.8],[-120.66856,39.72558,1952.0],[-120.66857,39.72565,1952.4],[-120.66853,39.7257,1952.4],[-120.66848,39.72587,1950.3],[-120.66851,39.72591,1950.3],[-120.6685,39.72596,1950.7],[-120.66846,39.72593,1950.7],[-120.66849,39.72601,1950.7],[-120.66852,39.72603,1953.3],[-120.66851,39.72607,1950.6],[-120.66859,39.72608,1953.3],[-120.66857,39.72613,1952.5],[-120.66858,39.72615,1952.5],[-120.66863,39.72617,1954.9],[-120.66869,39.72624,1953.8],[-120.66872,39.72632,1954.9],[-120.66876,39.72634,1954.9],[-120.66876,39.72639,1952.3],[-120.66874,39.72646,1952.3],[-120.66869,39.72647,1949.6],[-120.66864,39.72646,1949.6],[-120.6686,39.72648,1946.1],[-120.66848,39.72636,1945.6],[-120.66832,39.72641,1938.2],[-120.66825,39.72637,1939.9],[-120.66809,39.72635,1937.1],[-120.66799,39.72634,1936.0],[-120.66787,39.72638,1933.1],[-120.6678,39.72635,1933.1],[-120.66772,39.72636,1931.5],[-120.6677,39.72632,1931.5],[-120.66768,39.72634,1930.2],[-120.66768,39.72637,1930.2],[-120.66771,39.72641,1931.7],[-120.66775,39.72641,1931.7],[-120.66781,39.72646,1932.6],[-120.66799,39.72654,1932.9],[-120.668,39.72658,1930.4],[-120.66794,39.72662,1929.6],[-120.66787,39.72661,1929.1],[-120.6678,39.72665,1929.1],[-120.66778,39.72667,1926.5],[-120.66779,39.72674,1926.5],[-120.66777,39.72676,1922.9],[-120.66764,39.72682,1922.8],[-120.66755,39.72693,1919.5],[-120.66756,39.72699,1916.5],[-120.66768,39.72691,1919.4],[-120.6678,39.72691,1919.6],[-120.66786,39.72689,1919.6],[-120.66791,39.72696,1916.3],[-120.6679,39.72699,1916.3],[-120.66783,39.72701,1916.0],[-120.66779,39.72708,1912.7],[-120.66759,39.72709,1913.5],[-120.66753,39.72713,1910.3],[-120.66752,39.72716,1910.3],[-120.66753,39.7272,1910.3],[-120.6676,39.72721,1909.9],[-120.66769,39.72718,1909.6],[-120.66784,39.7272,1909.4],[-120.66847,39.72744,1904.6],[-120.66858,39.72751,1903.8],[-120.6686,39.72755,1903.8],[-120.66859,39.72764,1901.5],[-120.66851,39.7277,1897.3],[-120.66807,39.72778,1891.8],[-120.66788,39.7279,1890.6],[-120.66773,39.72787,1892.9],[-120.66756,39.7279,1890.9],[-120.66748,39.72803,1889.1],[-120.66742,39.72806,1887.7],[-120.66743,39.72812,1887.7],[-120.66723,39.72825,1885.1],[-120.66708,39.72842,1885.7],[-120.66711,39.72847,1884.5],[-120.66708,39.72863,1882.1],[-120.66702,39.72869,1883.4],[-120.66701,39.72874,1881.8],[-120.66703,39.72889,1878.7],[-120.66696,39.72903,1877.0],[-120.66697,39.72908,1875.3],[-120.66695,39.72914,1875.3],[-120.66697,39.72916,1875.3],[-120.66696,39.7292,1874.2],[-120.667,39.72923,1874.2],[-120.66696,39.72932,1873.4],[-120.66699,39.72939,1873.1],[-120.66702,39.72941,1873.1],[-120.66721,39.72927,1869.4],[-120.66736,39.72906,1872.0],[-120.66756,39.72905,1870.1],[-120.66779,39.72906,1870.1],[-120.66785,39.72909,1868.7],[-120.66788,39.72914,1869.0],[-120.66795,39.72932,1866.5],[-120.66802,39.72957,1863.3],[-120.66814,39.72958,1863.5],[-120.6682,39.7297,1862.8],[-120.66822,39.72975,1862.1],[-120.66821,39.72982,1861.2],[-120.66815,39.72997,1859.7],[-120.66809,39.73004,1858.1],[-120.66809,39.7302,1855.4],[-120.668,39.73048,1853.7],[-120.668,39.73054,1853.7],[-120.66809,39.73058,1853.2],[-120.66811,39.73061,1853.2],[-120.66809,39.7308,1852.6],[-120.66798,39.73094,1851.7],[-120.66799,39.731,1851.7],[-120.66796,39.73105,1851.2],[-120.66797,39.73111,1851.2],[-120.66795,39.73116,1850.6],[-120.66798,39.73124,1851.2],[-120.66801,39.73127,1851.2],[-120.668,39.73136,1852.2],[-120.66804,39.73144,1853.3],[-120.66803,39.73147,1853.3],[-120.668,39.73146,1853.3],[-120.66799,39.73149,1854.5],[-120.66805,39.73149,1854.5],[-120.66799,39.73149,1854.5],[-120.66801,39.73154,1854.5],[-120.668,39.73153,1854.5],[-120.66793,39.73153,1853.8],[-120.66796,39.73153,1853.8],[-120.66803,39.73147,1853.3],[-120.66798,39.7315,1854.5],[-120.66797,39.73153,1854.5],[-120.66787,39.73155,1853.3],[-120.66765,39.73169,1854.3],[-120.66764,39.73174,1854.3],[-120.66759,39.73182,1854.7],[-120.66747,39.7319,1855.1],[-120.66745,39.73193,1855.1],[-120.66732,39.732,1855.4],[-120.66722,39.73204,1855.1],[-120.66719,39.73209,1855.1],[-120.66711,39.73215,1855.0],[-120.66696,39.73214,1854.2],[-120.66692,39.73216,1852.8],[-120.66685,39.7322,1850.7],[-120.66676,39.73224,1850.3],[-120.66676,39.73229,1850.3],[-120.66674,39.73229,1847.7],[-120.66672,39.73227,1847.7],[-120.66677,39.73222,1850.7],[-120.66675,39.73221,1848.3],[-120.66676,39.73219,1850.7],[-120.6668,39.73218,1850.7],[-120.66682,39.73216,1850.7],[-120.66672,39.73204,1848.2],[-120.6667,39.73204,1848.2],[-120.66668,39.73209,1848.2],[-120.66666,39.73207,1846.4],[-120.66672,39.73206,1848.2],[-120.66671,39.73203,1847.9],[-120.6667,39.73204,1848.2],[-120.66677,39.73209,1850.4],[-120.66679,39.73212,1850.4],[-120.66677,39.73216,1850.7],[-120.66678,39.73221,1850.7],[-120.66671,39.73227,1847.7],[-120.66669,39.73226,1847.7],[-120.66664,39.73226,1845.5],[-120.66665,39.73228,1845.5],[-120.66663,39.73227,1845.5],[-120.66665,39.73229,1845.5],[-120.66664,39.73234,1845.2],[-120.66666,39.73232,1845.2],[-120.6667,39.73231,1847.7],[-120.66669,39.73232,1847.1],[-120.66669,39.7323,1847.7],[-120.6667,39.7323,1847.7],[-120.66668,39.7323,1847.7],[-120.66672,39.7323,1847.7],[-120.66669,39.73231,1847.7],[-120.6667,39.7323,1847.7],[-120.66669,39.73229,1847.7],[-120.66669,39.7323,1847.7],[-120.66666,39.73232,1845.2],[-120.66666,39.73237,1845.2],[-120.66659,39.73245,1844.6],[-120.66659,39.73248,1844.6],[-120.66661,39.7325,1843.5],[-120.6666,39.73268,1842.4],[-120.66653,39.73293,1840.2],[-120.66651,39.73297,1839.7],[-120.66652,39.73303,1839.7],[-120.6665,39.73307,1839.1],[-120.66646,39.7331,1838.4],[-120.66642,39.73323,1837.6],[-120.66634,39.73331,1836.3],[-120.66628,39.73333,1835.9],[-120.66625,39.73341,1835.2],[-120.66627,39.73345,1834.5],[-120.66624,39.73358,1833.9],[-120.6662,39.73361,1833.4],[-120.66617,39.73372,1832.5],[-120.66614,39.73377,1832.5],[-120.66614,39.73381,1832.0],[-120.66616,39.73379,1832.5],[-120.66619,39.73393,1831.5],[-120.66623,39.73396,1832.0],[-120.66628,39.73406,1831.4],[-120.66633,39.7341,1831.3],[-120.66634,39.73417,1830.6],[-120.66632,39.7342,1830.6],[-120.66636,39.73424,1830.6],[-120.6664,39.73433,1830.4],[-120.6664,39.73438,1828.4],[-120.66643,39.73444,1828.4],[-120.66646,39.73459,1822.2],[-120.66653,39.7347,1820.8],[-120.66654,39.73477,1817.5],[-120.66662,39.73491,1811.0],[-120.6667,39.73504,1810.6],[-120.66674,39.73506,1810.6],[-120.66673,39.73511,1807.8],[-120.6668,39.7352,1807.8],[-120.66682,39.73527,1807.8],[-120.66681,39.73534,1805.4],[-120.66685,39.73536,1805.4],[-120.66687,39.73542,1805.5],[-120.66699,39.73552,1804.7],[-120.66696,39.73558,1802.2],[-120.66698,39.73565,1799.7],[-120.66707,39.73571,1800.9],[-120.66721,39.73584,1796.2],[-120.66705,39.73608,1789.9],[-120.66707,39.73621,1783.8],[-120.66715,39.73623,1783.8],[-120.66716,39.73629,1783.8],[-120.66716,39.73632,1780.9],[-120.66712,39.73637,1781.2],[-120.66716,39.73644,1778.2],[-120.66712,39.73648,1778.5],[-120.6671,39.73657,1775.8],[-120.66708,39.73673,1770.4],[-120.66714,39.7368,1767.7],[-120.6673,39.73685,1767.3],[-120.66732,39.73691,1764.9],[-120.66737,39.73698,1762.4],[-120.66738,39.73703,1762.4],[-120.66742,39.73712,1759.5],[-120.66742,39.73716,1757.2],[-120.66747,39.73719,1757.2],[-120.66754,39.7374,1754.1],[-120.66756,39.73742,1752.8],[-120.66753,39.73754,1751.4],[-120.66749,39.73761,1749.1],[-120.66748,39.73769,1747.8],[-120.66742,39.73776,1747.8],[-120.66732,39.73779,1745.4],[-120.66728,39.73783,1744.5],[-120.66728,39.73789,1743.2],[-120.66721,39.73794,1742.3],[-120.66716,39.73797,1741.0],[-120.66711,39.73797,1740.5],[-120.66713,39.73804,1741.0],[-120.6671,39.73806,1738.8],[-120.66706,39.73813,1738.8],[-120.66701,39.73816,1736.0],[-120.66698,39.73821,1736.0],[-120.66691,39.73827,1733.3],[-120.66689,39.73833,1733.3],[-120.6668,39.73843,1729.6],[-120.66675,39.73845,1729.4],[-120.6667,39.73852,1727.6],[-120.6667,39.73856,1727.6],[-120.66673,39.73862,1725.9],[-120.66669,39.73868,1725.9],[-120.6666,39.73892,1720.6],[-120.66654,39.73897,1720.3],[-120.66642,39.73902,1716.8],[-120.66635,39.73915,1713.0],[-120.66631,39.73918,1710.4],[-120.66628,39.73922,1709.9],[-120.66628,39.73928,1707.6],[-120.66617,39.73937,1705.4],[-120.66614,39.73945,1703.6],[-120.66605,39.73956,1700.6],[-120.666,39.73965,1697.6],[-120.66592,39.73973,1695.3],[-120.66576,39.73978,1694.9],[-120.66576,39.73984,1693.4],[-120.66569,39.7399,1692.4],[-120.66569,39.74004,1690.3],[-120.66552,39.74011,1686.4],[-120.66552,39.74013,1686.4],[-120.66534,39.7402,1683.3],[-120.66522,39.74031,1682.4],[-120.66517,39.74039,1681.4],[-120.6651,39.74042,1681.4],[-120.66508,39.74041,1680.5],[-120.66486,39.74053,1679.3],[-120.66481,39.74056,1678.6],[-120.66477,39.74062,1678.6],[-120.66465,39.74064,1679.2],[-120.66465,39.74069,1678.0],[-120.66461,39.74079,1677.6],[-120.66455,39.74083,1677.6],[-120.66452,39.74091,1677.2],[-120.6644,39.74092,1678.1],[-120.66422,39.74104,1677.4],[-120.66424,39.74113,1675.7],[-120.66419,39.74121,1673.9],[-120.66419,39.74126,1673.9],[-120.66417,39.7413,1672.0],[-120.66407,39.74132,1674.1],[-120.66405,39.74134,1674.1],[-120.66397,39.74151,1671.1],[-120.66391,39.74153,1671.1],[-120.66385,39.74169,1667.6],[-120.66379,39.74175,1668.8],[-120.66372,39.7419,1663.7],[-120.66361,39.74194,1665.9],[-120.66347,39.74192,1667.2],[-120.66339,39.74192,1668.2],[-120.66324,39.74209,1664.5],[-120.66323,39.74212,1664.5],[-120.66317,39.74217,1662.4],[-120.66309,39.74229,1661.1],[-120.663,39.74233,1659.2],[-120.66298,39.74237,1659.2],[-120.66293,39.74254,1650.3],[-120.66282,39.74276,1642.7],[-120.66273,39.74279,1639.2],[-120.66269,39.74283,1639.2],[-120.66264,39.74284,1638.9],[-120.66256,39.74293,1635.7],[-120.6625,39.74295,1635.6],[-120.6624,39.74305,1632.3],[-120.66242,39.74308,1630.2],[-120.66242,39.7431,1630.2],[-120.66237,39.74317,1628.0],[-120.66238,39.74324,1628.0],[-120.66231,39.74325,1625.7],[-120.66226,39.74334,1625.0],[-120.66218,39.7434,1622.7],[-120.66199,39.74349,1620.4],[-120.66201,39.7435,1620.4],[-120.66195,39.74349,1620.4],[-120.66192,39.74359,1619.2],[-120.66177,39.74369,1617.8],[-120.66169,39.74377,1616.5],[-120.66164,39.74378,1616.4],[-120.66156,39.7439,1613.7],[-120.66152,39.744,1613.1],[-120.66133,39.74423,1609.9],[-120.66128,39.74432,1608.5],[-120.66116,39.74437,1607.1],[-120.66115,39.74441,1607.1],[-120.66106,39.74448,1605.6],[-120.66104,39.74451,1605.6],[-120.66105,39.74461,1605.5],[-120.66104,39.74466,1605.4],[-120.66088,39.74477,1603.0],[-120.66081,39.74486,1601.4],[-120.66077,39.74487,1601.4],[-120.66071,39.74494,1599.8],[-120.66065,39.74503,1599.5],[-120.66059,39.74498,1598.4],[-120.66055,39.74498,1597.1],[-120.66049,39.74496,1597.1],[-120.66047,39.74496,1597.1],[-120.66046,39.74502,1595.2],[-120.6605,39.74509,1596.7],[-120.6605,39.74503,1596.7],[-120.66055,39.74518,1596.4],[-120.66048,39.74517,1596.4],[-120.66044,39.74512,1594.8],[-120.66039,39.74513,1594.8],[-120.66023,39.74511,1592.2],[-120.66027,39.74506,1593.4],[-120.66023,39.74504,1593.4],[-120.66016,39.74504,1593.3],[-120.66006,39.74499,1595.0],[-120.66001,39.74502,1593.3],[-120.65995,39.74498,1595.1],[-120.65993,39.74493,1595.1],[-120.65987,39.74493,1595.1],[-120.65984,39.74492,1595.1],[-120.65984,39.7449,1596.7],[-120.65972,39.7449,1596.7],[-120.65966,39.74486,1596.7],[-120.65961,39.74486,1596.4],[-120.65951,39.74481,1596.8],[-120.65934,39.74483,1596.4],[-120.65932,39.74482,1596.4],[-120.65932,39.74477,1596.7],[-120.65929,39.74478,1596.7],[-120.65922,39.74475,1597.4],[-120.65915,39.74477,1598.3],[-120.65914,39.74475,1598.3],[-120.6591,39.74475,1598.3],[-120.65907,39.74469,1600.0],[-120.65901,39.74466,1600.0],[-120.65889,39.74467,1601.4],[-120.65883,39.74469,1602.8],[-120.6588,39.74472,1602.8],[-120.65875,39.74473,1603.7],[-120.65873,39.74471,1604.1],[-120.65867,39.74474,1604.9],[-120.65866,39.74473,1604.9],[-120.65869,39.74473,1604.9],[-120.65866,39.74476,1604.9],[-120.65857,39.74476,1606.0],[-120.6584,39.7448,1608.7],[-120.65828,39.74488,1610.1],[-120.65822,39.74488,1611.7],[-120.65816,39.7449,1611.7],[-120.65814,39.74496,1612.7],[-120.6581,39.74496,1612.7],[-120.65806,39.74493,1612.7],[-120.65786,39.745,1614.5],[-120.65781,39.74499,1615.8],[-120.65774,39.74499,1616.9],[-120.65761,39.74506,1616.4],[-120.65748,39.74508,1618.5],[-120.65719,39.74518,1619.4],[-120.65699,39.74516,1621.1],[-120.65695,39.74514,1621.1],[-120.65693,39.74518,1621.9],[-120.6569,39.74515,1621.9],[-120.65685,39.74518,1622.9],[-120.65674,39.74518,1623.8],[-120.65666,39.74516,1624.8],[-120.65667,39.74514,1623.8],[-120.65663,39.74511,1624.8],[-120.65662,39.74507,1626.3],[-120.65657,39.74504,1627.3],[-120.65661,39.74491,1627.9],[-120.65658,39.74494,1627.9],[-120.65659,39.74494,1627.9],[-120.65663,39.74489,1629.4],[-120.65673,39.74469,1631.4],[-120.65676,39.74466,1630.6],[-120.65678,39.74468,1630.6],[-120.65677,39.74464,1630.6],[-120.65682,39.74449,1633.6],[-120.65681,39.74444,1635.2],[-120.65681,39.74445,1633.6],[-120.65682,39.74442,1635.2],[-120.65683,39.74443,1635.2],[-120.65686,39.7444,1634.2],[-120.65681,39.74438,1635.2],[-120.65683,39.74438,1635.2],[-120.65684,39.74439,1635.2],[-120.65681,39.74439,1635.2],[-120.65681,39.7444,1635.2],[-120.65676,39.74442,1635.2],[-120.65672,39.74442,1636.2],[-120.65667,39.74446,1634.5],[-120.65649,39.74447,1636.4],[-120.65647,39.74448,1637.6],[-120.65641,39.74447,1637.6],[-120.6564,39.74446,1637.6],[-120.65629,39.7445,1640.2],[-120.65625,39.74449,1640.2],[-120.65619,39.74455,1639.8],[-120.65607,39.74456,1641.2],[-120.65602,39.74454,1641.2],[-120.65593,39.74456,1642.7],[-120.65583,39.74454,1645.6],[-120.65578,39.74455,1645.6],[-120.65569,39.74452,1648.9],[-120.65568,39.74449,1648.9],[-120.65565,39.74448,1648.9],[-120.65555,39.74454,1649.4],[-120.6555,39.74451,1651.4],[-120.65546,39.74444,1655.0],[-120.65534,39.74444,1656.0],[-120.65534,39.74442,1656.0],[-120.65529,39.74443,1656.0],[-120.65527,39.74439,1657.1],[-120.65521,39.74439,1657.1],[-120.65518,39.74439,1658.1],[-120.65517,39.74444,1658.1],[-120.65514,39.74441,1658.1],[-120.65504,39.7444,1658.9],[-120.65498,39.74434,1662.5],[-120.65494,39.74434,1662.5],[-120.65497,39.74436,1659.4],[-120.65487,39.74439,1659.7],[-120.65486,39.74436,1659.7],[-120.65486,39.74439,1659.7],[-120.65471,39.74444,1659.2],[-120.6547,39.74446,1655.7],[-120.65464,39.74441,1659.2],[-120.65463,39.74443,1659.2],[-120.65454,39.7444,1658.9],[-120.65453,39.74442,1658.6],[-120.65451,39.74441,1658.6],[-120.65451,39.7444,1658.6],[-120.65451,39.74442,1658.6],[-120.65451,39.7444,1658.6],[-120.6544,39.74445,1655.8],[-120.65433,39.74443,1658.4],[-120.65432,39.74441,1658.4],[-120.65429,39.74445,1656.2],[-120.65423,39.74447,1657.0],[-120.65422,39.74447,1657.0],[-120.65421,39.74444,1659.3],[-120.6542,39.74445,1657.0],[-120.65417,39.74443,1659.3],[-120.65417,39.74444,1659.3],[-120.65419,39.74444,1659.3],[-120.65416,39.74443,1661.0],[-120.65418,39.74444,1659.3],[-120.65413,39.74446,1658.5],[-120.65413,39.7445,1658.5],[-120.6541,39.74454,1656.6],[-120.65392,39.7446,1660.4],[-120.65393,39.74461,1660.4],[-120.65389,39.74463,1658.8],[-120.65371,39.74469,1662.6],[-120.65363,39.74474,1662.4],[-120.6535,39.7448,1665.9],[-120.65338,39.74483,1665.2],[-120.65339,39.74484,1665.2],[-120.65314,39.74493,1668.0],[-120.65274,39.74498,1675.8],[-120.65257,39.74506,1676.9],[-120.65248,39.74508,1679.4],[-120.65243,39.74514,1675.3],[-120.65229,39.74519,1676.6],[-120.65222,39.74523,1679.6],[-120.65211,39.74525,1682.5],[-120.652,39.74534,1681.4],[-120.65196,39.74535,1681.4],[-120.65183,39.74546,1683.5],[-120.6517,39.74552,1683.5],[-120.65164,39.74557,1683.6],[-120.65157,39.7456,1687.1],[-120.6514,39.74565,1687.2],[-120.65132,39.74572,1690.8],[-120.65124,39.74575,1691.0],[-120.65114,39.74583,1694.7],[-120.65106,39.74586,1694.8],[-120.65105,39.74589,1694.8],[-120.65099,39.7459,1698.1],[-120.65064,39.74616,1699.5],[-120.65063,39.74619,1699.5],[-120.65038,39.74638,1698.9],[-120.65021,39.74642,1700.6],[-120.65022,39.74642,1700.6],[-120.65016,39.74648,1702.3],[-120.65017,39.7465,1700.6],[-120.64986,39.7468,1700.1],[-120.65,39.74666,1701.5],[-120.64983,39.74674,1701.4],[-120.64976,39.74681,1700.8],[-120.64947,39.74697,1698.5],[-120.64953,39.74692,1698.3],[-120.6495,39.74688,1698.3],[-120.64947,39.74675,1697.3],[-120.64944,39.74671,1695.9],[-120.64943,39.74659,1695.2],[-120.64939,39.74651,1694.3],[-120.64935,39.74649,1692.2],[-120.64929,39.74658,1693.2],[-120.64912,39.74668,1689.8],[-120.64908,39.74673,1689.8],[-120.649,39.74677,1688.5],[-120.64873,39.74705,1684.5],[-120.64872,39.74697,1683.7],[-120.64874,39.7469,1682.9],[-120.64871,39.74682,1682.2],[-120.64871,39.7467,1681.5],[-120.64867,39.74647,1677.9],[-120.64867,39.74631,1677.4],[-120.6486,39.74609,1673.5],[-120.64868,39.74597,1674.1],[-120.64875,39.74578,1673.5],[-120.64875,39.74571,1672.1],[-120.6488,39.74543,1669.6],[-120.64885,39.74532,1668.9],[-120.64884,39.74525,1668.5],[-120.6488,39.74522,1668.5],[-120.64879,39.74516,1665.5],[-120.64881,39.74511,1667.9],[-120.64879,39.7451,1665.5],[-120.64879,39.74507,1664.7],[-120.64881,39.74496,1666.3],[-120.6489,39.74487,1667.5],[-120.64887,39.74483,1665.1],[-120.64876,39.74477,1661.3],[-120.64869,39.74476,1659.2],[-120.64865,39.74474,1659.2],[-120.6486,39.74468,1655.4],[-120.64856,39.74458,1653.7],[-120.64861,39.74453,1652.2],[-120.64849,39.74452,1649.9],[-120.64847,39.74456,1651.4],[-120.64838,39.74457,1649.0],[-120.64833,39.74462,1647.2],[-120.64828,39.74463,1648.7],[-120.64815,39.74474,1648.5],[-120.64812,39.74472,1646.0],[-120.64803,39.74482,1646.6],[-120.64799,39.74483,1646.6],[-120.64797,39.74489,1646.6],[-120.64794,39.74492,1645.8],[-120.64764,39.74504,1642.8],[-120.64757,39.7451,1641.7],[-120.64751,39.7451,1641.7],[-120.64743,39.74518,1640.6],[-120.6473,39.74523,1638.8],[-120.64725,39.7453,1638.5],[-120.64722,39.74532,1637.7],[-120.6472,39.74536,1637.7],[-120.6471,39.7454,1636.3],[-120.64701,39.74552,1634.7],[-120.64696,39.74549,1634.7],[-120.64697,39.74545,1635.4],[-120.64696,39.74552,1634.7],[-120.64694,39.74552,1633.7],[-120.64697,39.74557,1634.0],[-120.64715,39.74556,1636.0],[-120.64696,39.74557,1634.0],[-120.64696,39.74561,1634.0],[-120.647,39.74563,1634.0],[-120.64706,39.74568,1634.4],[-120.64707,39.74572,1634.4],[-120.64704,39.74587,1633.5],[-120.64706,39.74596,1633.2],[-120.64704,39.74599,1633.2],[-120.64703,39.74614,1631.7],[-120.64698,39.74619,1631.7],[-120.64694,39.74621,1630.5],[-120.64694,39.74624,1630.5],[-120.64691,39.74625,1630.5],[-120.6469,39.74632,1630.7],[-120.64686,39.74634,1630.7],[-120.64686,39.74638,1630.7],[-120.64655,39.74673,1625.8],[-120.64656,39.74684,1626.7],[-120.64654,39.74688,1627.4],[-120.64647,39.74695,1626.2],[-120.64643,39.74696,1626.2],[-120.64633,39.74706,1624.8],[-120.64626,39.7472,1623.0],[-120.64622,39.74725,1622.9],[-120.6462,39.74731,1620.6],[-120.64606,39.74745,1617.2],[-120.64597,39.74751,1613.8],[-120.6459,39.74761,1610.7],[-120.64579,39.74761,1608.4],[-120.64576,39.74763,1608.4],[-120.64575,39.7477,1608.7],[-120.64568,39.74784,1607.2],[-120.64567,39.74801,1608.1],[-120.64561,39.74806,1605.8],[-120.64559,39.74813,1605.8],[-120.64563,39.74823,1605.7],[-120.64558,39.7483,1605.2],[-120.64552,39.74851,1601.1],[-120.64552,39.74858,1599.7],[-120.64546,39.74864,1596.5],[-120.64543,39.7487,1596.5],[-120.64544,39.74877,1595.9],[-120.64541,39.74885,1595.6],[-120.64538,39.74896,1595.5],[-120.64533,39.74901,1593.1],[-120.64526,39.74902,1590.7],[-120.64514,39.74906,1587.9],[-120.64515,39.74914,1587.0],[-120.64513,39.74916,1587.0],[-120.64505,39.74919,1583.4],[-120.64498,39.74924,1579.3],[-120.64498,39.74927,1580.6],[-120.64491,39.74931,1580.6],[-120.64492,39.74938,1582.3],[-120.64487,39.7494,1578.7],[-120.64456,39.74976,1577.5],[-120.64418,39.74992,1571.1],[-120.64407,39.74993,1568.3],[-120.64404,39.74999,1568.3],[-120.64398,39.75004,1568.3],[-120.64391,39.7501,1569.3],[-120.64383,39.75012,1568.3],[-120.64378,39.75019,1568.2],[-120.64377,39.75029,1569.1],[-120.6437,39.75037,1568.0],[-120.64371,39.75036,1569.1],[-120.64375,39.75039,1570.0],[-120.64364,39.75039,1568.8],[-120.64355,39.75036,1566.8],[-120.64356,39.75039,1567.6],[-120.6437,39.75042,1568.8],[-120.64365,39.7505,1569.6],[-120.64362,39.7505,1569.6],[-120.64357,39.75056,1569.1],[-120.64353,39.75065,1569.9],[-120.64349,39.7507,1568.7],[-120.64346,39.7509,1570.3],[-120.64337,39.75101,1569.9],[-120.6433,39.75101,1568.5],[-120.64318,39.75108,1567.7],[-120.64316,39.75112,1568.2],[-120.64311,39.75114,1566.7],[-120.64305,39.75115,1565.3],[-120.64301,39.75114,1565.3],[-120.64297,39.75104,1564.8],[-120.64301,39.75097,1564.3],[-120.64297,39.75082,1563.2],[-120.64291,39.75081,1562.0],[-120.64295,39.75087,1562.5],[-120.64291,39.75089,1562.5],[-120.64286,39.75106,1562.0],[-120.64281,39.75109,1562.0],[-120.64282,39.75113,1562.5],[-120.64278,39.75117,1562.5],[-120.64279,39.7512,1562.5],[-120.64274,39.75132,1562.3],[-120.64274,39.75144,1563.0],[-120.64278,39.75151,1564.8],[-120.64277,39.75158,1563.7],[-120.64279,39.75161,1565.0],[-120.64279,39.75164,1565.0],[-120.64268,39.7518,1562.9],[-120.64274,39.75193,1564.3],[-120.64271,39.75203,1564.6],[-120.64272,39.75215,1565.0],[-120.64268,39.75221,1563.8],[-120.6427,39.7523,1565.3],[-120.64274,39.75235,1565.6],[-120.64269,39.75254,1566.0],[-120.64273,39.7526,1566.2],[-120.64263,39.75273,1564.9],[-120.64261,39.75282,1565.0],[-120.64265,39.75292,1565.1],[-120.64262,39.75297,1565.1],[-120.64261,39.75305,1565.1],[-120.6427,39.7531,1566.6],[-120.64266,39.75328,1565.2],[-120.64263,39.75331,1565.2],[-120.64263,39.75337,1565.2],[-120.64242,39.75351,1562.0],[-120.64235,39.75361,1560.2],[-120.64233,39.75371,1562.6],[-120.64227,39.75374,1561.0],[-120.64219,39.75389,1562.2],[-120.64201,39.75406,1560.6],[-120.64184,39.7542,1558.8],[-120.64172,39.75427,1557.4],[-120.64171,39.75431,1557.4],[-120.64164,39.75438,1556.1],[-120.64163,39.75442,1556.1],[-120.6415,39.75454,1555.3],[-120.64144,39.75463,1554.2],[-120.64127,39.75478,1552.0],[-120.64117,39.75494,1549.3],[-120.64111,39.75499,1548.8],[-120.64107,39.75505,1548.4],[-120.6409,39.7552,1546.7],[-120.64087,39.75524,1546.7],[-120.64086,39.7553,1546.8],[-120.64078,39.75536,1545.9],[-120.64059,39.75556,1544.7],[-120.64041,39.75569,1542.7],[-120.64035,39.75572,1541.4],[-120.64026,39.75574,1540.3],[-120.64016,39.75584,1541.4],[-120.64,39.75592,1539.7],[-120.63989,39.75596,1539.5],[-120.6398,39.75605,1539.2],[-120.63972,39.75607,1538.3],[-120.63969,39.75615,1539.0],[-120.63954,39.75628,1539.0],[-120.63952,39.75632,1539.0],[-120.63945,39.75633,1539.0],[-120.63942,39.75637,1538.4],[-120.63927,39.75646,1538.3],[-120.63919,39.75646,1537.9],[-120.63914,39.75651,1537.5],[-120.63904,39.75653,1537.1],[-120.63882,39.75667,1534.5],[-120.63872,39.7567,1533.9],[-120.63869,39.75674,1533.3],[-120.63864,39.75674,1533.3],[-120.63852,39.7568,1531.8],[-120.63842,39.75681,1530.8],[-120.63832,39.7568,1530.3],[-120.63821,39.75674,1531.2],[-120.63818,39.75677,1530.1],[-120.63792,39.75674,1530.6],[-120.63761,39.75683,1529.3],[-120.63745,39.7568,1529.4],[-120.63737,39.75672,1530.6],[-120.63716,39.75667,1530.2],[-120.6371,39.75667,1530.0],[-120.63699,39.75664,1531.4],[-120.6369,39.75666,1530.7],[-120.63683,39.75663,1529.9],[-120.63666,39.75662,1528.8],[-120.63663,39.75664,1528.8],[-120.63684,39.75671,1529.5],[-120.63691,39.75678,1529.0],[-120.63703,39.75684,1528.9],[-120.63704,39.75688,1528.4],[-120.6369,39.75694,1528.1],[-120.63686,39.75692,1528.1],[-120.6368,39.75696,1527.4],[-120.63658,39.757,1527.0],[-120.63646,39.75698,1526.6],[-120.63627,39.75705,1525.4],[-120.63619,39.75703,1525.6],[-120.63611,39.75705,1524.6],[-120.63603,39.75703,1525.2],[-120.63594,39.75706,1524.1],[-120.63592,39.75709,1523.5],[-120.63556,39.75718,1521.2],[-120.63542,39.75718,1519.8],[-120.63501,39.75723,1518.0],[-120.63492,39.75726,1517.3],[-120.63486,39.75737,1516.3],[-120.6348,39.75743,1515.4],[-120.63469,39.75749,1514.7],[-120.63436,39.7575,1511.5],[-120.63427,39.75753,1509.0],[-120.63425,39.75762,1506.2],[-120.63421,39.75768,1506.2],[-120.63422,39.75781,1504.4],[-120.63421,39.75789,1503.6],[-120.634,39.75813,1499.8],[-120.63393,39.75815,1498.6],[-120.6337,39.75813,1496.5],[-120.63359,39.75818,1495.3],[-120.63356,39.75824,1495.3],[-120.63359,39.75849,1494.5],[-120.63361,39.75854,1494.2],[-120.63372,39.75865,1495.0],[-120.63388,39.75863,1495.6],[-120.63391,39.75859,1496.9],[-120.63388,39.75864,1495.6],[-120.63384,39.75863,1495.6],[-120.63383,39.75866,1495.6],[-120.63387,39.75871,1495.1],[-120.63401,39.75881,1495.7],[-120.63407,39.75897,1495.2],[-120.63419,39.75908,1495.2],[-120.63414,39.75916,1494.6],[-120.63415,39.75918,1494.0],[-120.63416,39.75916,1494.6],[-120.63415,39.75915,1494.6],[-120.63414,39.7592,1494.0],[-120.63405,39.75922,1493.4],[-120.63403,39.75928,1492.8],[-120.63398,39.7594,1491.7],[-120.63387,39.75946,1490.5],[-120.63385,39.75951,1490.5],[-120.63379,39.75954,1489.4],[-120.63369,39.75966,1488.0],[-120.63369,39.75969,1488.0],[-120.63372,39.75962,1489.4],[-120.63367,39.75971,1488.0],[-120.63368,39.75968,1488.0],[-120.63369,39.75971,1488.0],[-120.63348,39.75985,1484.1],[-120.63328,39.75987,1481.4],[-120.6332,39.75991,1479.0],[-120.63313,39.75996,1477.2],[-120.63304,39.75992,1474.5],[-120.63284,39.7599,1469.8],[-120.6327,39.75991,1464.7],[-120.63258,39.75988,1462.5],[-120.63243,39.75981,1462.2],[-120.63222,39.75978,1458.5],[-120.63216,39.75979,1458.5],[-120.63205,39.75987,1456.1],[-120.63188,39.75984,1453.6],[-120.63185,39.7598,1453.1],[-120.63178,39.75965,1454.0],[-120.6317,39.75962,1453.4],[-120.63168,39.75959,1453.4],[-120.63165,39.75958,1451.6],[-120.6316,39.75959,1451.6],[-120.6315,39.75956,1449.5],[-120.63125,39.75958,1441.4],[-120.63122,39.75957,1441.4],[-120.63117,39.75961,1440.0],[-120.63109,39.75961,1439.4],[-120.63099,39.75964,1436.7],[-120.63096,39.75969,1436.7],[-120.63082,39.7598,1432.5],[-120.63079,39.75985,1429.0],[-120.63073,39.75988,1429.0],[-120.63074,39.75992,1426.1],[-120.63072,39.75994,1426.1],[-120.63073,39.75996,1426.1],[-120.63053,39.76017,1416.0],[-120.63054,39.76018,1416.0],[-120.63052,39.76022,1414.3],[-120.63044,39.76027,1414.0],[-120.63043,39.76035,1413.0],[-120.63045,39.76041,1412.1],[-120.63043,39.76047,1410.6],[-120.63037,39.76054,1408.2],[-120.63032,39.76058,1406.0],[-120.63019,39.76056,1404.3],[-120.62995,39.76067,1404.7],[-120.6298,39.76072,1407.7],[-120.62976,39.76077,1406.0],[-120.62983,39.76084,1403.2],[-120.62984,39.76089,1403.2],[-120.62983,39.76092,1403.2],[-120.62987,39.76105,1400.6],[-120.62992,39.7611,1399.1],[-120.6299,39.76118,1398.6],[-120.62992,39.7612,1397.2],[-120.62997,39.7612,1397.2],[-120.63002,39.76126,1393.3],[-120.63012,39.76129,1394.6],[-120.63018,39.76136,1392.2],[-120.63023,39.76134,1393.7],[-120.63028,39.76136,1394.8],[-120.63032,39.76139,1393.0],[-120.63035,39.76144,1393.0],[-120.63044,39.76167,1386.6],[-120.63051,39.76177,1383.5],[-120.63052,39.76188,1381.3],[-120.63059,39.76198,1380.0],[-120.63059,39.76206,1379.1],[-120.63055,39.76208,1377.6],[-120.63059,39.76233,1380.8],[-120.63035,39.76256,1376.3],[-120.63028,39.76265,1376.3],[-120.63026,39.7627,1375.3],[-120.63025,39.76285,1375.5],[-120.63018,39.76294,1373.7],[-120.63012,39.76318,1374.3],[-120.63004,39.76334,1372.5],[-120.6301,39.76337,1375.2],[-120.63007,39.76341,1372.5],[-120.63011,39.76344,1375.4],[-120.63004,39.76357,1372.2],[-120.63008,39.76359,1372.2],[-120.63012,39.7637,1374.2],[-120.63013,39.76377,1372.6],[-120.63018,39.76388,1370.3],[-120.63028,39.764,1367.0],[-120.63029,39.76405,1367.0],[-120.63032,39.76409,1365.8],[-120.6304,39.76412,1365.8],[-120.63048,39.7642,1365.3],[-120.63059,39.7643,1364.7],[-120.63065,39.76437,1364.4],[-120.63072,39.76451,1363.6],[-120.63066,39.76455,1364.3],[-120.63044,39.76468,1364.2],[-120.63023,39.76473,1363.6],[-120.6302,39.7648,1363.6],[-120.63014,39.76484,1364.1],[-120.63011,39.7649,1364.1],[-120.63007,39.76493,1364.1],[-120.6299,39.76496,1361.7],[-120.62964,39.76509,1360.6],[-120.62958,39.76517,1359.2],[-120.6296,39.76521,1359.5],[-120.62959,39.7652,1359.5],[-120.62951,39.76529,1358.8],[-120.62941,39.76533,1358.1],[-120.62933,39.76534,1357.6],[-120.62911,39.76551,1357.1],[-120.62881,39.76565,1355.9],[-120.62872,39.76567,1355.6],[-120.6285,39.76581,1354.1],[-120.62841,39.76585,1353.2],[-120.6283,39.76585,1352.8],[-120.6281,39.76585,1351.7],[-120.62796,39.76582,1350.5],[-120.6279,39.76582,1350.5],[-120.62777,39.76587,1349.3],[-120.62763,39.76596,1348.5],[-120.62748,39.76601,1347.5],[-120.62743,39.76608,1347.2],[-120.62738,39.76609,1346.8],[-120.62734,39.76612,1346.6],[-120.62735,39.76616,1346.6],[-120.6273,39.76623,1345.9],[-120.62732,39.76626,1346.4],[-120.6273,39.7663,1345.6],[-120.62732,39.76633,1346.1],[-120.6273,39.76636,1345.6],[-120.62734,39.76642,1345.9],[-120.62733,39.76649,1345.6],[-120.62728,39.76658,1344.9],[-120.62717,39.76662,1344.5],[-120.62701,39.76662,1343.8],[-120.62696,39.76659,1343.8],[-120.6269,39.76653,1343.5],[-120.62689,39.76646,1343.8],[-120.62678,39.76637,1343.8],[-120.62673,39.76628,1343.8],[-120.62662,39.76619,1343.8],[-120.62657,39.76612,1343.4],[-120.62646,39.76604,1343.5],[-120.62642,39.76598,1343.9],[-120.6263,39.76591,1343.9],[-120.62622,39.76589,1343.8],[-120.62607,39.76581,1343.9],[-120.626,39.76581,1343.8],[-120.62597,39.76577,1343.8],[-120.62592,39.76577,1343.7],[-120.62574,39.76567,1344.0],[-120.62548,39.76549,1344.3],[-120.62541,39.76547,1343.9],[-120.62529,39.76542,1344.1],[-120.62482,39.76533,1343.9],[-120.6244,39.76535,1343.6],[-120.62425,39.76539,1343.1],[-120.62397,39.76538,1342.9],[-120.62378,39.76543,1342.9],[-120.6234,39.76542,1343.2],[-120.62334,39.76539,1343.2],[-120.62324,39.76531,1343.7],[-120.62315,39.76526,1344.0],[-120.62304,39.76522,1344.1],[-120.623,39.76521,1344.1],[-120.62294,39.76538,1343.3],[-120.62285,39.76547,1343.1],[-120.62283,39.76551,1343.1],[-120.62255,39.76578,1341.9],[-120.62248,39.76591,1341.4],[-120.62236,39.76601,1340.9],[-120.62214,39.76626,1339.4],[-120.62196,39.76655,1337.6],[-120.62187,39.76664,1336.9],[-120.62177,39.7667,1336.2],[-120.62169,39.76681,1335.5],[-120.62159,39.76687,1334.9],[-120.62142,39.76687,1334.6],[-120.62138,39.76688,1334.5],[-120.62131,39.76685,1335.1],[-120.62122,39.76686,1334.3],[-120.62094,39.76684,1334.1],[-120.62087,39.76682,1333.9],[-120.62068,39.76682,1334.0],[-120.62045,39.7668,1333.7],[-120.62037,39.76679,1333.4],[-120.62018,39.7668,1332.9],[-120.61997,39.76674,1333.2],[-120.61951,39.76665,1332.7],[-120.61932,39.76657,1333.0],[-120.61916,39.76652,1333.0],[-120.61897,39.76642,1333.3],[-120.61868,39.76614,1333.3],[-120.61847,39.76598,1332.9],[-120.61826,39.76588,1332.5],[-120.61815,39.76587,1332.4],[-120.6181,39.76588,1332.3],[-120.61802,39.76592,1332.3],[-120.61746,39.76662,1332.6],[-120.61721,39.76686,1331.1],[-120.61708,39.76693,1330.0],[-120.61682,39.76699,1331.2],[-120.61678,39.76702,1331.2],[-120.61657,39.76699,1330.5],[-120.61651,39.76696,1330.5],[-120.61651,39.76698,1330.5],[-120.61649,39.76697,1330.5],[-120.61606,39.76677,1329.4],[-120.61606,39.76677,1329.4]]}}
