{"type":"Feature","properties":{"name":"Mt. Hough Tollgate Option","sourceLabel":"Trailforks route plan 786054","sourceUrl":"https://www.trailforks.com/routeplan/view/786054/","gpxSha256":"913c58c4ad10daebf3151549bc87b9cb85a8c2a29773f3f1402240e542cb2d6c","importedAt":"2026-09-29T21:24:53.995508+00:00","elevationSource":"AWS Terrain Tiles (USGS 3DEP and SRTM), sampled from the route terrain; original GPX elevations were zero placeholders","sourceStats":{"distanceMiles":21.4,"pointCount":1449,"climbingFt":3973,"descendingFt":4008,"movingMinutes":230,"movingTimeEstimated":true}},"geometry":{"type":"LineString","coordinates":[[-120.90065,39.96941,1138.33],[-120.90027,39.96953,1142.19],[-120.90006,39.96952,1144.96],[-120.89924,39.96902,1148.11],[-120.89846,39.96873,1155.73],[-120.89746,39.96866,1163.08],[-120.89658,39.96841,1163.49],[-120.89632,39.96848,1170.86],[-120.89584,39.96881,1183.65],[-120.89553,39.96909,1191.09],[-120.89497,39.96947,1196.72],[-120.89404,39.96974,1202.42],[-120.89309,39.96949,1204.45],[-120.8921,39.96906,1201.39],[-120.89104,39.96917,1220.27],[-120.89025,39.9696,1232.49],[-120.88999,39.96951,1232.35],[-120.89002,39.96925,1230.47],[-120.88992,39.96906,1235.36],[-120.88967,39.96894,1237.77],[-120.88921,39.96886,1244.11],[-120.88885,39.96873,1242.8],[-120.88773,39.96875,1244.46],[-120.88695,39.96866,1244.6],[-120.886,39.96875,1246.33],[-120.88524,39.96896,1249.87],[-120.88517,39.96895,1249.64],[-120.8842,39.96878,1250.67],[-120.8836,39.96888,1253.63],[-120.8832,39.96909,1258.79],[-120.88282,39.96958,1263.16],[-120.8826,39.96967,1260.97],[-120.88227,39.9696,1259.65],[-120.88202,39.96925,1260.1],[-120.88184,39.96911,1261.43],[-120.88144,39.96909,1264.03],[-120.88119,39.96925,1267.66],[-120.88074,39.96967,1272.29],[-120.88025,39.96993,1276.01],[-120.87814,39.97079,1282.27],[-120.87743,39.97105,1282.41],[-120.87681,39.97148,1283.48],[-120.87662,39.97177,1284.21],[-120.87658,39.97194,1284.71],[-120.87655,39.97209,1285.36],[-120.87743,39.97323,1302.44],[-120.8775,39.97346,1303.11],[-120.87752,39.97352,1303.15],[-120.87731,39.97388,1303.42],[-120.87579,39.97435,1310.8],[-120.87567,39.9744,1311.52],[-120.87566,39.9744,1311.54],[-120.87537,39.97452,1313.26],[-120.87442,39.97491,1321.84],[-120.87287,39.97511,1333.87],[-120.8725,39.97508,1336.26],[-120.8716,39.97533,1346.23],[-120.87129,39.97555,1349.01],[-120.87115,39.97596,1357.91],[-120.87095,39.97679,1363.66],[-120.87077,39.97702,1364.25],[-120.87046,39.97722,1364.39],[-120.8703,39.97744,1368.24],[-120.87047,39.97758,1371.74],[-120.87123,39.97753,1380.03],[-120.87172,39.97737,1384.27],[-120.87222,39.97716,1385.93],[-120.87258,39.97721,1386.59],[-120.87284,39.97735,1388.3],[-120.87292,39.9776,1392.42],[-120.87268,39.97787,1398.98],[-120.87216,39.97809,1404.68],[-120.87127,39.97894,1418.24],[-120.87107,39.97937,1426.92],[-120.87083,39.97957,1432.91],[-120.87038,39.97966,1436.49],[-120.86992,39.9797,1440.37],[-120.86962,39.97988,1443.67],[-120.86957,39.98019,1447.25],[-120.86965,39.98052,1453.5],[-120.86984,39.98078,1459.88],[-120.87017,39.98118,1466.5],[-120.87016,39.98147,1471.48],[-120.86924,39.98231,1487.98],[-120.86886,39.98279,1493.68],[-120.8678,39.9831,1500.85],[-120.86726,39.98311,1505.29],[-120.86665,39.9829,1508.4],[-120.86628,39.98281,1512.04],[-120.86588,39.98286,1514.12],[-120.8656,39.98312,1517.11],[-120.86436,39.98467,1530.17],[-120.86415,39.9852,1533.3],[-120.86412,39.98554,1535.73],[-120.86401,39.98581,1534.75],[-120.86426,39.98663,1545.69],[-120.86451,39.98722,1546.43],[-120.86446,39.98766,1543.66],[-120.86457,39.98818,1541.51],[-120.86451,39.98887,1540.5],[-120.86451,39.98893,1540.66],[-120.86436,39.98931,1541.67],[-120.86392,39.98971,1544.8],[-120.86356,39.9899,1549.56],[-120.86328,39.98989,1552.26],[-120.86211,39.98944,1561.47],[-120.86173,39.98942,1563.09],[-120.86098,39.98985,1570.76],[-120.86076,39.98998,1571.84],[-120.86,39.99031,1580.43],[-120.85938,39.99043,1584.01],[-120.8592,39.9906,1588.58],[-120.85914,39.99076,1592.32],[-120.85915,39.99101,1597.09],[-120.85939,39.99141,1603.09],[-120.85959,39.99165,1606.46],[-120.85985,39.99202,1609.44],[-120.86012,39.99264,1616.07],[-120.8601,39.99311,1619.27],[-120.86027,39.99347,1616.96],[-120.86057,39.99403,1614.9],[-120.86081,39.99466,1617.77],[-120.8608,39.99482,1618.79],[-120.86022,39.99548,1624.8],[-120.86024,39.99603,1627.69],[-120.86047,39.9964,1634.13],[-120.86084,39.99675,1638],[-120.86078,39.99741,1638.98],[-120.86086,39.99798,1638.31],[-120.861,39.9981,1640.18],[-120.86123,39.99826,1642.47],[-120.86144,39.99839,1644.11],[-120.8614,39.99852,1646.64],[-120.86136,39.99862,1648.06],[-120.86061,39.99931,1659.07],[-120.8603,39.9998,1669.79],[-120.8603,40.00048,1684.71],[-120.86046,40.00089,1692.29],[-120.86069,40.00111,1696.19],[-120.86075,40.00127,1698.5],[-120.8608,40.00189,1707.43],[-120.86047,40.00233,1713.62],[-120.85979,40.00275,1725],[-120.85936,40.00352,1734.44],[-120.85913,40.00372,1735.29],[-120.85882,40.00437,1741.31],[-120.8589,40.00466,1741.35],[-120.85914,40.00506,1740.68],[-120.85933,40.00595,1739.3],[-120.85916,40.00641,1738.48],[-120.8586,40.00694,1736.44],[-120.85821,40.00707,1733.55],[-120.85765,40.00716,1726.41],[-120.85753,40.00736,1723.34],[-120.85767,40.00757,1722.42],[-120.85822,40.00804,1715.95],[-120.8583,40.00835,1711.56],[-120.85843,40.00849,1709.19],[-120.85861,40.00861,1706.61],[-120.85868,40.00881,1703.49],[-120.85872,40.00927,1699.33],[-120.85878,40.00978,1696.17],[-120.85893,40.01,1697.4],[-120.85915,40.01013,1699.59],[-120.85923,40.01017,1700.59],[-120.85966,40.0105,1705.03],[-120.85974,40.0107,1704.87],[-120.85976,40.01088,1704.24],[-120.85957,40.01142,1705.56],[-120.85975,40.01234,1698.64],[-120.85978,40.0125,1696.84],[-120.85996,40.01337,1688.52],[-120.86015,40.01364,1689.18],[-120.86035,40.01383,1689.71],[-120.8604,40.01402,1691.26],[-120.86032,40.0145,1701.49],[-120.86053,40.0152,1710.57],[-120.86074,40.01567,1711.95],[-120.86084,40.0163,1713.99],[-120.86048,40.01739,1722.79],[-120.86056,40.01809,1732.84],[-120.86079,40.01845,1736.84],[-120.86127,40.01905,1745.74],[-120.86163,40.01971,1756.74],[-120.86172,40.01995,1758.37],[-120.86171,40.02057,1761.07],[-120.86159,40.02103,1765.78],[-120.86174,40.02156,1774.17],[-120.86171,40.02164,1775.4],[-120.86133,40.02288,1780.53],[-120.8611,40.02326,1780.46],[-120.86116,40.02379,1785.71],[-120.86132,40.02429,1791.39],[-120.86159,40.02566,1801.21],[-120.86153,40.02597,1803.09],[-120.86153,40.02624,1805.26],[-120.86175,40.02639,1806.31],[-120.86212,40.02681,1811.89],[-120.86245,40.02723,1817.46],[-120.86248,40.02746,1820.81],[-120.86262,40.02762,1823.02],[-120.8635,40.02811,1829.62],[-120.86404,40.0285,1832.41],[-120.86476,40.02931,1839.15],[-120.86544,40.03035,1854.08],[-120.86709,40.03141,1878.44],[-120.86741,40.03174,1882.77],[-120.86773,40.03226,1890.02],[-120.86879,40.03275,1901.44],[-120.86909,40.03287,1905.59],[-120.86932,40.03291,1908.19],[-120.86952,40.03284,1909.89],[-120.86968,40.03271,1911.88],[-120.86988,40.03248,1915.31],[-120.87011,40.03228,1920.76],[-120.87061,40.03167,1932.05],[-120.87087,40.03146,1933.17],[-120.87106,40.03141,1933.7],[-120.87131,40.03141,1933.98],[-120.87182,40.0315,1934.46],[-120.87226,40.03178,1935.55],[-120.87319,40.03273,1938.62],[-120.87434,40.03416,1952.95],[-120.87432,40.03434,1955.57],[-120.87442,40.03456,1959.54],[-120.87515,40.03531,1978.71],[-120.87546,40.0357,1987.13],[-120.87578,40.03594,1994.06],[-120.87602,40.03626,2002.04],[-120.87611,40.03658,2007.64],[-120.87625,40.03689,2011.39],[-120.87634,40.03706,2012.21],[-120.87654,40.03725,2013.5],[-120.87722,40.03779,2017.22],[-120.87746,40.03793,2019.31],[-120.87759,40.03809,2020.48],[-120.87776,40.03834,2022.26],[-120.87805,40.03871,2024.84],[-120.87852,40.03905,2029.2],[-120.8793,40.03984,2034.55],[-120.87957,40.04018,2038.71],[-120.87985,40.04059,2044.32],[-120.88086,40.04148,2069.28],[-120.88193,40.04145,2082.69],[-120.88239,40.04144,2086.9],[-120.88296,40.04139,2089.09],[-120.88368,40.04146,2098],[-120.88417,40.04141,2101.56],[-120.88456,40.04143,2104.47],[-120.88474,40.04141,2104.44],[-120.88505,40.04144,2106.12],[-120.88543,40.04145,2106.37],[-120.88574,40.04151,2108.1],[-120.88587,40.04152,2108.16],[-120.88616,40.0416,2110.29],[-120.88644,40.04162,2110.26],[-120.88694,40.04175,2113.75],[-120.88783,40.0419,2113.12],[-120.88843,40.04216,2113.76],[-120.88879,40.04237,2113.39],[-120.88893,40.04254,2114.86],[-120.88906,40.04269,2115.46],[-120.88933,40.04305,2117.28],[-120.88996,40.04419,2120.91],[-120.8898,40.04478,2129.04],[-120.88957,40.04516,2132.86],[-120.88921,40.04628,2132.03],[-120.88902,40.04646,2132.91],[-120.88878,40.04657,2135.18],[-120.8885,40.04661,2139],[-120.88817,40.04661,2143.32],[-120.88797,40.04656,2145.89],[-120.88786,40.04653,2147.18],[-120.8878,40.04641,2150.04],[-120.888,40.04608,2153.03],[-120.88812,40.04575,2155.97],[-120.88816,40.04536,2159.75],[-120.88798,40.04486,2168.03],[-120.88783,40.04482,2171.28],[-120.88737,40.04504,2176.55],[-120.88704,40.04516,2180.38],[-120.88669,40.04532,2183.86],[-120.88635,40.04538,2188.29],[-120.88632,40.04538,2188.64],[-120.88606,40.04542,2188.41],[-120.88603,40.04542,2188.17],[-120.88602,40.04541,2188.5],[-120.88602,40.04541,2188.5],[-120.88602,40.04542,2188.09],[-120.88603,40.04542,2188.17],[-120.88601,40.04547,2185.88],[-120.88601,40.04547,2185.88],[-120.88602,40.04548,2185.6],[-120.88604,40.04548,2185.89],[-120.88606,40.04549,2185.82],[-120.88608,40.0455,2185.78],[-120.88608,40.0455,2185.78],[-120.886,40.04557,2181.38],[-120.88601,40.04557,2181.62],[-120.88604,40.04561,2180.79],[-120.88623,40.04562,2184.54],[-120.88639,40.04569,2182.56],[-120.88645,40.04569,2183.23],[-120.8865,40.04565,2184.65],[-120.8865,40.04565,2184.65],[-120.8866,40.04549,2184.27],[-120.88672,40.04543,2182.29],[-120.88693,40.04527,2180.43],[-120.88698,40.04526,2179.72],[-120.88702,40.04528,2178.66],[-120.88701,40.04533,2177.98],[-120.88692,40.04544,2178.43],[-120.88682,40.04564,2178.95],[-120.88681,40.04567,2178.94],[-120.88683,40.04569,2178.44],[-120.88687,40.04567,2177.79],[-120.88694,40.04558,2176.92],[-120.8871,40.04548,2174.67],[-120.88736,40.04538,2171.56],[-120.88747,40.04531,2170.93],[-120.88761,40.04527,2169.41],[-120.88772,40.04519,2168.78],[-120.88777,40.04518,2168.12],[-120.88781,40.0452,2167.25],[-120.88777,40.04529,2166.78],[-120.88778,40.04534,2166.03],[-120.8878,40.04538,2165.26],[-120.88789,40.04546,2163.01],[-120.88791,40.04551,2162.08],[-120.88786,40.04566,2160.89],[-120.88778,40.04576,2160.66],[-120.88772,40.0459,2159.62],[-120.88771,40.04596,2158.77],[-120.88773,40.04609,2156.36],[-120.88772,40.04614,2155.65],[-120.88757,40.04633,2152.46],[-120.88755,40.04636,2151.76],[-120.88754,40.04641,2150.49],[-120.88755,40.04646,2148.53],[-120.88764,40.04656,2145.26],[-120.88777,40.04666,2143.25],[-120.88786,40.04677,2140.8],[-120.88797,40.04687,2138.73],[-120.88802,40.04693,2137.62],[-120.88805,40.04699,2136.67],[-120.88812,40.04733,2132.29],[-120.88812,40.04733,2132.29],[-120.88812,40.04748,2130.49],[-120.88819,40.04782,2130.06],[-120.88817,40.04805,2128.42],[-120.88821,40.04813,2129.26],[-120.88821,40.04829,2129.09],[-120.88826,40.04838,2129.69],[-120.88827,40.04843,2129.74],[-120.88826,40.04849,2129.76],[-120.88828,40.04854,2129.66],[-120.88831,40.04858,2129.51],[-120.88837,40.04863,2129.41],[-120.88857,40.04871,2129.63],[-120.88867,40.0488,2129.25],[-120.88873,40.04882,2129.2],[-120.88879,40.04886,2129.19],[-120.8888,40.04885,2129.22],[-120.8888,40.04886,2129.21],[-120.8888,40.04887,2129.2],[-120.88881,40.04885,2129.23],[-120.88905,40.04846,2125.78],[-120.88907,40.0484,2125.31],[-120.88906,40.04834,2125.21],[-120.88902,40.04826,2125.38],[-120.88891,40.04812,2126.62],[-120.88886,40.04807,2127.12],[-120.88883,40.04802,2127.41],[-120.88882,40.04796,2127.56],[-120.8888,40.04789,2127.92],[-120.88881,40.04779,2128.02],[-120.8888,40.04771,2128.31],[-120.8888,40.04765,2128.44],[-120.88888,40.04755,2127.4],[-120.8889,40.04749,2127.09],[-120.88883,40.04727,2128.34],[-120.88883,40.04718,2128.44],[-120.88887,40.04712,2127.97],[-120.8889,40.04705,2127.78],[-120.88894,40.04692,2128.01],[-120.88898,40.04686,2128.3],[-120.88904,40.04682,2128.04],[-120.88909,40.04677,2128.01],[-120.88923,40.04657,2128.47],[-120.88945,40.04636,2127.1],[-120.88958,40.04612,2126.77],[-120.8897,40.04589,2125.65],[-120.88977,40.04568,2125.58],[-120.88987,40.0454,2124.76],[-120.8899,40.04522,2124.83],[-120.8899,40.04504,2125.58],[-120.89,40.04479,2123.5],[-120.89009,40.04461,2120.35],[-120.89011,40.0443,2117.4],[-120.89009,40.04413,2115.51],[-120.89002,40.04387,2113.27],[-120.88992,40.04365,2112.45],[-120.88982,40.0435,2112.77],[-120.8898,40.04344,2112.46],[-120.88983,40.0434,2111.12],[-120.88989,40.04343,2109.98],[-120.88998,40.04353,2108.9],[-120.89022,40.04368,2104.5],[-120.89039,40.04384,2101.2],[-120.89058,40.04404,2097.17],[-120.89073,40.04425,2093.7],[-120.89082,40.04446,2091.71],[-120.89086,40.04465,2091.05],[-120.89086,40.04486,2091.66],[-120.89084,40.04502,2092.55],[-120.89082,40.04524,2093.13],[-120.89081,40.04548,2092.85],[-120.89083,40.04576,2090.74],[-120.89091,40.046,2086.41],[-120.89088,40.04615,2086.47],[-120.89088,40.04623,2085.79],[-120.89091,40.04629,2084.24],[-120.89097,40.04624,2082.56],[-120.89103,40.04616,2081.26],[-120.89113,40.04602,2078.82],[-120.89126,40.04589,2075.16],[-120.89137,40.04574,2072.33],[-120.89146,40.0455,2070.41],[-120.8915,40.0454,2069.4],[-120.89157,40.04531,2067.12],[-120.89163,40.04526,2065.03],[-120.89169,40.04523,2062.93],[-120.89172,40.04525,2061.88],[-120.89174,40.04529,2061.17],[-120.89178,40.04536,2059.76],[-120.89181,40.04548,2058.23],[-120.89184,40.04554,2056.96],[-120.89188,40.04558,2055.43],[-120.89194,40.04554,2053.51],[-120.89198,40.04549,2052.31],[-120.89206,40.04533,2050.01],[-120.89218,40.04513,2045.99],[-120.89227,40.04492,2042.8],[-120.8923,40.04471,2041.31],[-120.89234,40.04465,2039.8],[-120.89241,40.04469,2037.74],[-120.89244,40.04476,2037.06],[-120.89251,40.04485,2035.18],[-120.89255,40.04489,2033.97],[-120.89261,40.04489,2032.12],[-120.89266,40.04484,2030.56],[-120.8927,40.04474,2028.93],[-120.89274,40.04461,2027.12],[-120.89285,40.04439,2022.14],[-120.89291,40.0442,2018.83],[-120.89294,40.04398,2016.4],[-120.89294,40.04372,2014.97],[-120.89296,40.04338,2011.7],[-120.89287,40.043,2010.36],[-120.89285,40.0428,2008.83],[-120.89276,40.04254,2008.06],[-120.89264,40.04227,2006.39],[-120.89253,40.04209,2005.81],[-120.89246,40.04191,2004.34],[-120.89227,40.04172,2006.59],[-120.8922,40.04163,2006.75],[-120.89221,40.04141,2002],[-120.89218,40.0412,1998.11],[-120.89206,40.04098,1997.69],[-120.89192,40.04078,1998.21],[-120.89177,40.04058,1998.29],[-120.89168,40.04042,1997.14],[-120.89157,40.04019,1995.32],[-120.89151,40.04002,1994.12],[-120.89148,40.03991,1993.51],[-120.8914,40.03969,1991.74],[-120.89142,40.03951,1988.1],[-120.89144,40.03932,1983.56],[-120.89143,40.03898,1979.99],[-120.89139,40.03872,1979.59],[-120.89132,40.03846,1978.77],[-120.89131,40.03832,1978.33],[-120.89133,40.03815,1978.45],[-120.89138,40.03797,1979.18],[-120.89148,40.03781,1980.75],[-120.89158,40.03768,1982.04],[-120.89163,40.03757,1982.65],[-120.89171,40.03735,1983.61],[-120.89172,40.03721,1983.64],[-120.89175,40.03703,1984.5],[-120.8918,40.03672,1987.02],[-120.8918,40.0366,1987.71],[-120.89175,40.0365,1987.35],[-120.89167,40.03642,1986.35],[-120.89158,40.0363,1985.43],[-120.89152,40.0362,1984.79],[-120.89146,40.03597,1984.29],[-120.89142,40.03582,1984.02],[-120.89134,40.03568,1982.43],[-120.89109,40.03546,1980.5],[-120.89095,40.03528,1981.95],[-120.89075,40.03511,1981.78],[-120.89056,40.03497,1979.42],[-120.89034,40.03484,1975.64],[-120.89008,40.03474,1972.21],[-120.88997,40.03468,1970.95],[-120.8899,40.03461,1970.34],[-120.88986,40.03452,1970.53],[-120.88977,40.03436,1969.77],[-120.88965,40.03424,1966.73],[-120.8894,40.03404,1958.91],[-120.88896,40.03364,1951.27],[-120.88879,40.03346,1948.03],[-120.8887,40.0333,1946.57],[-120.88855,40.03305,1943.64],[-120.8885,40.03287,1942.9],[-120.88849,40.0327,1943.25],[-120.88848,40.03254,1943.61],[-120.88844,40.03244,1942.8],[-120.88837,40.03224,1941.57],[-120.88815,40.03183,1936.16],[-120.88801,40.03158,1932.7],[-120.88796,40.03142,1931.3],[-120.88786,40.03115,1927.76],[-120.88782,40.03101,1925.48],[-120.88783,40.03092,1924.74],[-120.88788,40.03078,1923.83],[-120.88788,40.03074,1923.29],[-120.88784,40.03069,1921.91],[-120.88774,40.0307,1920.31],[-120.88752,40.03077,1917.25],[-120.88745,40.03078,1916.06],[-120.88741,40.03077,1915.21],[-120.88734,40.03066,1912.89],[-120.88711,40.03035,1905.56],[-120.88706,40.03032,1904.41],[-120.88698,40.03031,1903.02],[-120.88693,40.03034,1902.57],[-120.88685,40.0304,1901.95],[-120.88682,40.03047,1902.14],[-120.88682,40.03065,1903.9],[-120.88679,40.0307,1903.61],[-120.88675,40.03072,1902.97],[-120.88671,40.03071,1902.17],[-120.88666,40.03067,1901.05],[-120.88657,40.03044,1897.48],[-120.88653,40.03037,1896.16],[-120.88647,40.03025,1893.8],[-120.88642,40.03015,1891.85],[-120.88639,40.03,1889.85],[-120.8864,40.02985,1888.59],[-120.88642,40.02974,1888.07],[-120.88639,40.0297,1887.27],[-120.88634,40.02969,1886.37],[-120.88627,40.02972,1885.43],[-120.88616,40.02981,1884.19],[-120.88602,40.02995,1883.01],[-120.88598,40.03004,1883.18],[-120.88593,40.03021,1884.01],[-120.88588,40.03057,1886.05],[-120.88584,40.03066,1885.83],[-120.88581,40.03068,1885.39],[-120.88577,40.03067,1884.74],[-120.8857,40.0306,1883.34],[-120.88559,40.03042,1880.5],[-120.88552,40.03033,1878.71],[-120.88544,40.03025,1876.67],[-120.88534,40.03007,1873.38],[-120.88525,40.02991,1870.39],[-120.88524,40.02977,1868.99],[-120.88526,40.02967,1868.49],[-120.88527,40.02959,1868],[-120.88527,40.02954,1867.69],[-120.88525,40.02946,1866.88],[-120.88523,40.02936,1865.94],[-120.88524,40.02928,1865.69],[-120.88531,40.0291,1865.98],[-120.88539,40.02894,1866.18],[-120.88554,40.02869,1866.1],[-120.88556,40.02858,1865.15],[-120.88557,40.02845,1863.63],[-120.88559,40.02819,1860.41],[-120.8856,40.028,1858.11],[-120.88561,40.02787,1856.86],[-120.88558,40.0277,1854.77],[-120.88558,40.0276,1853.89],[-120.88562,40.02751,1853.55],[-120.88575,40.02739,1853.94],[-120.88587,40.02728,1854.21],[-120.88592,40.02722,1854.15],[-120.88599,40.0271,1853.54],[-120.88602,40.02701,1852.85],[-120.88609,40.02695,1852.83],[-120.88625,40.02685,1852.99],[-120.88632,40.02678,1852.65],[-120.88634,40.02672,1852.04],[-120.88633,40.02665,1851.18],[-120.8862,40.02657,1849.6],[-120.88612,40.02652,1848.58],[-120.88607,40.02641,1847.27],[-120.88601,40.02615,1845.28],[-120.88597,40.02596,1844.17],[-120.88592,40.02587,1843.66],[-120.88586,40.02578,1843.36],[-120.88578,40.02567,1843.07],[-120.88567,40.02554,1843.44],[-120.88561,40.02549,1843.73],[-120.88547,40.02542,1844.15],[-120.88536,40.02539,1843.39],[-120.88525,40.02533,1842.99],[-120.88517,40.02524,1843.3],[-120.88512,40.02516,1843.82],[-120.88504,40.02509,1844.32],[-120.88487,40.02504,1844.41],[-120.88451,40.02492,1846.48],[-120.88422,40.02487,1846.84],[-120.88403,40.02486,1846.52],[-120.88391,40.02487,1845.97],[-120.88383,40.0249,1845.06],[-120.88373,40.02499,1842.86],[-120.88364,40.02508,1840.92],[-120.88354,40.02513,1839.96],[-120.88341,40.02517,1839.34],[-120.88334,40.02522,1838.64],[-120.88325,40.02532,1837.01],[-120.88315,40.02543,1835.39],[-120.88309,40.02549,1834.6],[-120.88299,40.02555,1833.98],[-120.88282,40.02558,1834.23],[-120.88258,40.02561,1834.69],[-120.88246,40.02561,1835.2],[-120.88228,40.02558,1836.44],[-120.88217,40.02557,1836.96],[-120.88203,40.02559,1836.79],[-120.88184,40.0256,1836.28],[-120.88174,40.02558,1836.6],[-120.8816,40.02556,1836.44],[-120.8815,40.02558,1835.47],[-120.88138,40.02557,1835.07],[-120.88129,40.02556,1834.63],[-120.88114,40.0255,1834.79],[-120.88085,40.0254,1834.43],[-120.88067,40.02532,1834.71],[-120.88062,40.02528,1835.25],[-120.88053,40.02519,1836.63],[-120.88049,40.02517,1836.74],[-120.88033,40.02511,1836.68],[-120.88003,40.02499,1837.02],[-120.87973,40.02487,1836.86],[-120.87962,40.02481,1837.08],[-120.87949,40.02476,1836.6],[-120.87933,40.02474,1834.95],[-120.87914,40.0247,1833.48],[-120.87884,40.02461,1832.75],[-120.87871,40.02459,1832.48],[-120.87856,40.0246,1831.74],[-120.87839,40.02466,1830.37],[-120.87818,40.02478,1827.37],[-120.87803,40.02484,1825.78],[-120.87791,40.02485,1825.43],[-120.87779,40.02483,1825.6],[-120.87765,40.02475,1827.22],[-120.8776,40.02472,1827.81],[-120.87743,40.02461,1829.59],[-120.87725,40.0245,1830.84],[-120.87711,40.02446,1830.31],[-120.87692,40.02443,1829.04],[-120.87676,40.02442,1827.47],[-120.8766,40.02441,1825.87],[-120.87652,40.02438,1825.64],[-120.87642,40.02428,1826.76],[-120.87636,40.02418,1828.37],[-120.87629,40.02409,1829.7],[-120.8762,40.02402,1830.45],[-120.87582,40.02379,1832.63],[-120.87569,40.02375,1832.29],[-120.8755,40.02373,1831.03],[-120.87519,40.0237,1828.46],[-120.87501,40.02366,1827.62],[-120.87478,40.02358,1826.99],[-120.87457,40.02346,1826.82],[-120.87441,40.02335,1826.72],[-120.87426,40.02328,1825.7],[-120.87409,40.02319,1824.43],[-120.87393,40.02306,1823.68],[-120.87382,40.02287,1824.9],[-120.87371,40.02278,1824.25],[-120.87353,40.02271,1822.15],[-120.87316,40.02258,1818.52],[-120.87301,40.02251,1817.45],[-120.87286,40.02242,1816.51],[-120.87277,40.02239,1815.49],[-120.87259,40.02238,1812.82],[-120.87243,40.02234,1811.37],[-120.87225,40.02227,1811.64],[-120.87207,40.0222,1811.71],[-120.87197,40.02213,1811.93],[-120.87185,40.02194,1813.39],[-120.8718,40.02166,1815.91],[-120.87178,40.02153,1817.39],[-120.87176,40.02147,1817.85],[-120.87171,40.02139,1818.07],[-120.87154,40.02132,1815.65],[-120.87133,40.02118,1812.27],[-120.87125,40.02108,1812.04],[-120.87123,40.02097,1813.77],[-120.87121,40.02093,1814.18],[-120.87116,40.0209,1814.08],[-120.87107,40.02092,1811.75],[-120.87095,40.02095,1810.21],[-120.87067,40.02096,1808.08],[-120.87042,40.02093,1807.73],[-120.87014,40.02089,1806.29],[-120.86987,40.02083,1803.78],[-120.86969,40.02078,1801.91],[-120.86963,40.02074,1801.11],[-120.86959,40.02064,1802.76],[-120.86958,40.02048,1802.06],[-120.86963,40.02036,1803.06],[-120.8697,40.02025,1803.72],[-120.8698,40.02013,1804.8],[-120.86986,40.02003,1805.52],[-120.86987,40.01995,1805.13],[-120.86983,40.01985,1803.47],[-120.86976,40.01977,1802.22],[-120.86961,40.01961,1799.59],[-120.86952,40.01949,1799.11],[-120.86926,40.01923,1796.93],[-120.86908,40.01906,1795.42],[-120.86896,40.019,1793.77],[-120.86878,40.01892,1790.89],[-120.86855,40.01887,1786.84],[-120.86842,40.01882,1785.41],[-120.86828,40.0187,1785.47],[-120.8682,40.01856,1786.95],[-120.86812,40.01838,1787.04],[-120.86808,40.01822,1786.92],[-120.86806,40.01806,1786.57],[-120.86801,40.01796,1785.67],[-120.86794,40.01789,1784.66],[-120.86786,40.01783,1783.69],[-120.86777,40.01776,1782.69],[-120.86769,40.01774,1781.6],[-120.86752,40.01777,1778.85],[-120.86732,40.01779,1776.45],[-120.86727,40.01778,1776.01],[-120.86711,40.01777,1773.95],[-120.86704,40.01776,1773.15],[-120.86693,40.01769,1772.63],[-120.86675,40.01741,1772.16],[-120.86663,40.01726,1770.48],[-120.86649,40.0171,1768],[-120.86631,40.01682,1764.66],[-120.86616,40.01658,1761.25],[-120.86613,40.01644,1760.63],[-120.86608,40.01624,1759.03],[-120.86607,40.01604,1759.35],[-120.86601,40.01591,1758.26],[-120.86592,40.01584,1756.85],[-120.86568,40.0157,1754.46],[-120.86555,40.01562,1753.23],[-120.86542,40.01547,1753.32],[-120.86531,40.01528,1754.64],[-120.86527,40.01519,1755.49],[-120.86517,40.01511,1755.07],[-120.86503,40.01508,1753.13],[-120.86481,40.01511,1748.45],[-120.86469,40.01509,1746.73],[-120.86453,40.01501,1745.39],[-120.86438,40.0148,1745.86],[-120.86434,40.0145,1748.44],[-120.8643,40.01432,1748.94],[-120.8642,40.01413,1748.22],[-120.86408,40.01398,1746.93],[-120.86394,40.01387,1744.71],[-120.86376,40.01381,1740.62],[-120.86351,40.01375,1734.88],[-120.86334,40.01365,1732.86],[-120.86308,40.01347,1729.48],[-120.86295,40.01331,1728.7],[-120.86282,40.01296,1728.88],[-120.86274,40.01264,1727.02],[-120.86272,40.01244,1725.59],[-120.86277,40.01225,1725.04],[-120.86288,40.01205,1723.65],[-120.86299,40.01199,1724.14],[-120.86313,40.01195,1725.14],[-120.86338,40.01196,1727.82],[-120.86349,40.01195,1728.47],[-120.86359,40.01191,1728],[-120.86361,40.01182,1725.77],[-120.86358,40.01161,1720.63],[-120.86357,40.01128,1715.57],[-120.86356,40.01096,1714.13],[-120.86355,40.01076,1713.52],[-120.86345,40.01052,1710.6],[-120.86341,40.01028,1709.21],[-120.86336,40.01011,1708.59],[-120.86327,40.01006,1707.35],[-120.86318,40.01006,1705.76],[-120.86309,40.01011,1703.64],[-120.863,40.01021,1701.85],[-120.86277,40.01044,1698.42],[-120.86261,40.01063,1696.59],[-120.86257,40.01074,1696.54],[-120.86255,40.01082,1696.72],[-120.8625,40.01083,1696.01],[-120.86245,40.01079,1694.9],[-120.86238,40.01066,1692.62],[-120.86239,40.01046,1691.58],[-120.86253,40.01019,1692.26],[-120.86257,40.01003,1692.3],[-120.86256,40.00989,1691.49],[-120.86248,40.00965,1689.16],[-120.8624,40.00945,1687.14],[-120.86235,40.00927,1685.61],[-120.86234,40.00917,1684.87],[-120.8624,40.00898,1683.77],[-120.86254,40.00883,1683.82],[-120.86273,40.0087,1683.49],[-120.86308,40.00854,1684.6],[-120.86322,40.0085,1684.96],[-120.86331,40.00848,1685.26],[-120.86337,40.00848,1686.03],[-120.86345,40.00847,1686.68],[-120.86351,40.00846,1687.12],[-120.86365,40.00837,1685.77],[-120.86373,40.00832,1685.09],[-120.8638,40.00827,1684.35],[-120.86387,40.00824,1684.37],[-120.86392,40.00823,1684.76],[-120.86401,40.00818,1684.49],[-120.86409,40.00812,1683.82],[-120.86414,40.00809,1683.64],[-120.86422,40.00803,1683.01],[-120.86427,40.008,1682.92],[-120.86429,40.00796,1682.16],[-120.86431,40.00794,1681.9],[-120.86436,40.00788,1680.94],[-120.86462,40.00772,1679.88],[-120.86464,40.00768,1679.41],[-120.86476,40.00761,1679.99],[-120.86485,40.00751,1680],[-120.86492,40.00737,1679.5],[-120.86505,40.00723,1680.66],[-120.86512,40.00712,1678.82],[-120.86524,40.00703,1679.27],[-120.86533,40.007,1679.71],[-120.86542,40.007,1681.04],[-120.8656,40.00704,1684.65],[-120.86579,40.00701,1684.82],[-120.86602,40.0069,1681.28],[-120.86612,40.00687,1680.35],[-120.86626,40.0068,1677.84],[-120.86637,40.00677,1678.01],[-120.86653,40.00671,1677.66],[-120.8667,40.00659,1675.57],[-120.86687,40.00649,1674.02],[-120.86706,40.00645,1674.37],[-120.86739,40.00639,1674.41],[-120.86765,40.00631,1672.89],[-120.86797,40.00625,1673.72],[-120.86819,40.00619,1674.51],[-120.86823,40.0061,1671.87],[-120.86833,40.00594,1667.39],[-120.86842,40.00586,1665.4],[-120.86852,40.00579,1663.99],[-120.86858,40.00576,1663.63],[-120.86867,40.00573,1663.71],[-120.8688,40.00574,1666.7],[-120.86888,40.00573,1668.09],[-120.86891,40.0056,1666.58],[-120.86886,40.00551,1664.68],[-120.86873,40.00535,1660.85],[-120.86865,40.00528,1659.49],[-120.86865,40.00521,1660.05],[-120.86871,40.00511,1661.84],[-120.86889,40.00501,1663.68],[-120.86918,40.00492,1664.34],[-120.86971,40.00484,1664.1],[-120.86988,40.00484,1664.37],[-120.87003,40.00488,1665.25],[-120.87018,40.00495,1664.93],[-120.87029,40.00504,1664.67],[-120.87041,40.00515,1664],[-120.87061,40.00529,1663.16],[-120.87105,40.00539,1658.67],[-120.87113,40.00539,1659.13],[-120.87151,40.00527,1658.39],[-120.87192,40.00527,1659.85],[-120.87209,40.00526,1659.74],[-120.87223,40.00518,1657.61],[-120.87251,40.00503,1653.7],[-120.87269,40.00498,1654.42],[-120.87294,40.00484,1653.73],[-120.87316,40.00468,1653.17],[-120.87318,40.00465,1652.63],[-120.87333,40.00457,1655.68],[-120.87339,40.00451,1657.01],[-120.87343,40.00443,1657.45],[-120.87343,40.00432,1655.93],[-120.87346,40.00421,1655.05],[-120.87362,40.00404,1654.06],[-120.87373,40.00397,1653.2],[-120.87379,40.00396,1653.64],[-120.87393,40.00394,1652.94],[-120.87402,40.00395,1653.15],[-120.87415,40.00395,1652.89],[-120.87437,40.00398,1649.08],[-120.87453,40.00401,1645.85],[-120.87464,40.00408,1643.56],[-120.87469,40.00416,1642.81],[-120.87471,40.00439,1645.73],[-120.87474,40.00445,1646.34],[-120.87482,40.00451,1646.08],[-120.87505,40.00453,1644.75],[-120.87526,40.00448,1641.6],[-120.87542,40.00448,1641.54],[-120.87557,40.00447,1640.81],[-120.87581,40.00442,1637.35],[-120.876,40.00443,1636.54],[-120.87616,40.00449,1637.46],[-120.87646,40.00466,1639.45],[-120.87677,40.00474,1636.27],[-120.87702,40.00488,1637.44],[-120.8771,40.00491,1638.61],[-120.87717,40.00491,1638.59],[-120.87725,40.00488,1637.17],[-120.87744,40.00472,1632.13],[-120.87762,40.00466,1630.66],[-120.87772,40.00465,1630.81],[-120.8784,40.00459,1628.74],[-120.87918,40.00471,1628.29],[-120.87932,40.0047,1626.63],[-120.87937,40.00466,1624.77],[-120.87936,40.00462,1623.62],[-120.87929,40.00457,1622.86],[-120.87913,40.00453,1622.98],[-120.87875,40.00452,1625.07],[-120.87852,40.00448,1624.69],[-120.87841,40.00443,1623.37],[-120.878,40.00437,1621.1],[-120.87773,40.00437,1619.6],[-120.8775,40.00434,1617.97],[-120.87735,40.00424,1616.69],[-120.87727,40.0041,1614.93],[-120.87723,40.00387,1613.16],[-120.87714,40.00356,1607.35],[-120.87714,40.00348,1605.44],[-120.87718,40.0034,1603.44],[-120.87725,40.00334,1602],[-120.87742,40.00327,1602.64],[-120.87796,40.00329,1604.29],[-120.87877,40.0032,1593.5],[-120.87898,40.00313,1591.47],[-120.87936,40.00297,1588.25],[-120.87951,40.00293,1586.22],[-120.87974,40.00284,1583.18],[-120.88008,40.00276,1577.26],[-120.88021,40.00267,1575.87],[-120.88028,40.0026,1575.11],[-120.88052,40.00221,1571.55],[-120.88077,40.00193,1566.62],[-120.88097,40.00175,1563.54],[-120.88101,40.00169,1563.04],[-120.88102,40.00162,1563.06],[-120.88098,40.00141,1564.17],[-120.88099,40.00135,1563.69],[-120.88105,40.00118,1561.71],[-120.88126,40.00112,1557.84],[-120.88145,40.00097,1555.42],[-120.88207,40.00069,1545.99],[-120.88265,40.0002,1541.27],[-120.88271,40.00017,1540.46],[-120.8828,40.00023,1538.63],[-120.88296,40.00032,1535.87],[-120.88329,40.00038,1533.52],[-120.8837,40.00045,1529.31],[-120.88387,40.00045,1527.49],[-120.88399,40.00043,1526.53],[-120.88425,40.00034,1523.71],[-120.88474,40.00002,1514.99],[-120.88489,39.99989,1512.58],[-120.88502,39.99976,1511.45],[-120.88523,39.99973,1508.33],[-120.88533,39.99967,1507.8],[-120.88571,39.99951,1503.76],[-120.88591,39.99948,1500.19],[-120.88596,39.99944,1499.51],[-120.88601,39.99933,1498.87],[-120.88616,39.99925,1495.78],[-120.88624,39.99917,1494.31],[-120.88625,39.99901,1493.38],[-120.88627,39.99895,1492.67],[-120.88636,39.99884,1490.29],[-120.88641,39.9987,1487.93],[-120.88641,39.99862,1487.09],[-120.88649,39.99846,1484.25],[-120.88649,39.99837,1483.64],[-120.88646,39.9983,1483.7],[-120.88645,39.99823,1483.75],[-120.88648,39.99817,1483.1],[-120.88662,39.99801,1479.81],[-120.8867,39.99789,1477.48],[-120.88674,39.99778,1475.96],[-120.88681,39.99767,1473.65],[-120.88679,39.99758,1473.62],[-120.8868,39.99736,1472.42],[-120.88688,39.99724,1470.63],[-120.88693,39.99715,1468.87],[-120.88689,39.99698,1467.58],[-120.88692,39.99694,1466.08],[-120.88699,39.99692,1464.51],[-120.88707,39.99692,1463.33],[-120.88725,39.99694,1461.27],[-120.88731,39.99698,1461.49],[-120.88757,39.997,1458.11],[-120.88771,39.99715,1457.08],[-120.88778,39.9972,1456.26],[-120.88781,39.99725,1455.89],[-120.8878,39.99733,1454.98],[-120.88782,39.99748,1452.59],[-120.88781,39.99763,1450.56],[-120.88786,39.99779,1447.28],[-120.88792,39.99783,1446.23],[-120.8883,39.99798,1440.58],[-120.88863,39.99804,1436.68],[-120.88875,39.9981,1436.92],[-120.88884,39.9981,1436.33],[-120.88898,39.99806,1434.8],[-120.88912,39.99809,1434.02],[-120.88919,39.99815,1433.96],[-120.88923,39.99821,1434.06],[-120.88943,39.99835,1432.28],[-120.88951,39.99848,1431.22],[-120.89002,39.99875,1423.75],[-120.89081,39.99904,1418.75],[-120.89097,39.99902,1416.52],[-120.89103,39.99899,1414.79],[-120.89105,39.99892,1413.85],[-120.89103,39.99886,1413.88],[-120.89096,39.99881,1414.4],[-120.89091,39.99876,1413.81],[-120.89071,39.99872,1415.46],[-120.8906,39.99866,1415.93],[-120.89058,39.99854,1414.42],[-120.89039,39.99835,1413.96],[-120.89039,39.99826,1413],[-120.89041,39.99819,1412.44],[-120.89044,39.99815,1411.86],[-120.89062,39.99801,1408.96],[-120.89075,39.99794,1407.36],[-120.8912,39.99775,1400.03],[-120.89141,39.99768,1395.2],[-120.8915,39.99762,1393.17],[-120.8916,39.99731,1392.43],[-120.8917,39.99713,1387.69],[-120.89173,39.99696,1383.82],[-120.89172,39.99687,1381.83],[-120.89162,39.99672,1379.93],[-120.89142,39.99644,1373.62],[-120.8911,39.99603,1371.61],[-120.89106,39.9959,1371.35],[-120.89112,39.99561,1369.55],[-120.8913,39.99528,1364.84],[-120.89144,39.99509,1360.6],[-120.89154,39.99483,1357.98],[-120.89166,39.99467,1357.12],[-120.89118,39.99549,1368.26],[-120.89123,39.99535,1366.88],[-120.89127,39.99523,1365.52],[-120.89129,39.99514,1364.67],[-120.89132,39.99495,1363.62],[-120.89138,39.99469,1360.83],[-120.89138,39.99463,1360.45],[-120.89135,39.99459,1360.15],[-120.89129,39.99455,1359.68],[-120.8912,39.99452,1359.54],[-120.89108,39.99447,1358.49],[-120.89099,39.99443,1357.15],[-120.89087,39.99436,1354.46],[-120.8908,39.99434,1353.68],[-120.89073,39.99434,1353.82],[-120.89061,39.99435,1354.63],[-120.89054,39.99434,1354.25],[-120.89043,39.99431,1352.84],[-120.89034,39.99429,1351.94],[-120.89025,39.99429,1352.11],[-120.89014,39.99431,1353.38],[-120.88998,39.99433,1354.7],[-120.88987,39.99433,1355.62],[-120.88969,39.99432,1357.02],[-120.88961,39.9943,1356.71],[-120.88956,39.99427,1355.51],[-120.88951,39.99421,1352.55],[-120.88945,39.99418,1351.49],[-120.88937,39.99416,1351.26],[-120.88926,39.99413,1350.83],[-120.8892,39.9941,1350.39],[-120.88908,39.99406,1351.54],[-120.88904,39.99405,1352.17],[-120.88902,39.99403,1352.04],[-120.88902,39.994,1351.12],[-120.889,39.99393,1349.54],[-120.88898,39.99384,1347.44],[-120.88898,39.99379,1345.85],[-120.88898,39.99374,1344.2],[-120.88896,39.99368,1342.76],[-120.88893,39.99358,1340.16],[-120.8889,39.99353,1339.34],[-120.88884,39.99346,1338.94],[-120.88873,39.99335,1338.6],[-120.88866,39.99329,1338.63],[-120.88832,39.99306,1338.23],[-120.88825,39.99301,1337.89],[-120.88819,39.99297,1337.7],[-120.88813,39.99295,1338.07],[-120.88782,39.99289,1340.9],[-120.88776,39.99287,1340.93],[-120.88771,39.99284,1340.24],[-120.88754,39.99272,1336.94],[-120.88746,39.99267,1336.03],[-120.88736,39.99263,1335.84],[-120.88701,39.99249,1332.94],[-120.88693,39.99246,1331.75],[-120.88682,39.99244,1330.9],[-120.88674,39.99244,1330.69],[-120.88663,39.99246,1331.66],[-120.88656,39.99246,1331.48],[-120.88645,39.99244,1329.51],[-120.88638,39.99244,1328.88],[-120.88618,39.99247,1328.86],[-120.8861,39.99248,1328.69],[-120.88601,39.99247,1327.32],[-120.88592,39.99247,1326.5],[-120.88581,39.99249,1326.57],[-120.88576,39.99248,1326.16],[-120.88565,39.99241,1323.84],[-120.88558,39.99235,1322.38],[-120.88555,39.9923,1321.22],[-120.88555,39.99224,1319.73],[-120.88554,39.99213,1320],[-120.88598,39.99165,1316.39],[-120.88613,39.99155,1315.36],[-120.88651,39.99134,1308.05],[-120.88661,39.99122,1308.73],[-120.88693,39.99101,1304.23],[-120.88709,39.99086,1304.02],[-120.88732,39.99072,1302.79],[-120.88734,39.99062,1305.23],[-120.88742,39.99049,1306.79],[-120.88755,39.99042,1306.1],[-120.88772,39.99041,1302.18],[-120.88788,39.99033,1301.51],[-120.88807,39.99022,1300.96],[-120.88816,39.9901,1303.5],[-120.88828,39.99006,1300.8],[-120.88855,39.98994,1292.87],[-120.8887,39.98978,1292.95],[-120.88877,39.98957,1300.46],[-120.88881,39.98953,1302.12],[-120.8889,39.98946,1305.07],[-120.88895,39.98946,1304.39],[-120.88924,39.98954,1295.71],[-120.88936,39.98951,1293.1],[-120.88944,39.98944,1293.06],[-120.88958,39.9893,1293.37],[-120.88969,39.98917,1293.56],[-120.89002,39.98898,1284.32],[-120.89016,39.98884,1281],[-120.89022,39.9887,1282.7],[-120.89027,39.98853,1287.62],[-120.8903,39.98847,1290.41],[-120.89036,39.98843,1291.61],[-120.8907,39.98833,1290.81],[-120.8909,39.98829,1289.23],[-120.89109,39.98826,1285.96],[-120.89127,39.98823,1282.26],[-120.89149,39.98823,1274.82],[-120.89168,39.98816,1268.93],[-120.89177,39.98804,1267.07],[-120.89182,39.98786,1270],[-120.89186,39.98774,1272.82],[-120.8919,39.98766,1275.4],[-120.89206,39.98762,1272.92],[-120.8922,39.98755,1270.94],[-120.89238,39.98743,1266.76],[-120.89247,39.98725,1264.37],[-120.89251,39.98701,1263.01],[-120.89253,39.98688,1262.78],[-120.89257,39.98675,1261.37],[-120.89274,39.9864,1258.23],[-120.89286,39.9861,1259.02],[-120.89296,39.98596,1256.6],[-120.89302,39.98586,1253.54],[-120.89304,39.98576,1251.45],[-120.89302,39.98563,1250.59],[-120.89296,39.98552,1251.58],[-120.89292,39.98541,1251.81],[-120.89296,39.98523,1250.58],[-120.89303,39.98505,1249.55],[-120.89318,39.98487,1248.93],[-120.89325,39.98481,1249.97],[-120.8936,39.98467,1246.98],[-120.89385,39.98456,1244.53],[-120.89403,39.98454,1239.38],[-120.89418,39.98451,1235.29],[-120.89432,39.98438,1234.18],[-120.89445,39.98425,1232.05],[-120.8946,39.984,1228.73],[-120.8947,39.98368,1222.84],[-120.89478,39.98337,1218.6],[-120.89478,39.98331,1218.62],[-120.89475,39.98325,1218.92],[-120.89465,39.98319,1221.92],[-120.89456,39.98313,1223.63],[-120.89455,39.9831,1223.21],[-120.89458,39.98308,1221.99],[-120.89515,39.98309,1217.68],[-120.89581,39.98303,1224.07],[-120.89617,39.98307,1222.13],[-120.89652,39.98324,1211.52],[-120.89692,39.98321,1208.04],[-120.8976,39.98325,1194.59],[-120.89811,39.98313,1192.88],[-120.89827,39.98307,1194.58],[-120.8984,39.98312,1191.26],[-120.89872,39.98318,1186.38],[-120.89917,39.98315,1184.03],[-120.89942,39.98315,1179.9],[-120.89962,39.98311,1177.68],[-120.89987,39.98298,1176.95],[-120.90004,39.98292,1175.15],[-120.90012,39.98277,1176.37],[-120.90021,39.98272,1173.58],[-120.90026,39.98276,1173.43],[-120.90025,39.98282,1173.22],[-120.9002,39.98294,1171.93],[-120.90003,39.98317,1167.03],[-120.89984,39.98333,1163.19],[-120.89961,39.98342,1164.61],[-120.89867,39.98358,1162.52],[-120.89844,39.98364,1161.25],[-120.89832,39.9839,1151.46],[-120.89808,39.98405,1149.45],[-120.8978,39.98419,1148.19],[-120.89739,39.98438,1146.73],[-120.89709,39.98447,1145.58],[-120.89691,39.98444,1149.5],[-120.89679,39.98448,1147.97],[-120.89679,39.98474,1132.95],[-120.89655,39.98539,1124.78],[-120.89653,39.98551,1122.75],[-120.8966,39.98566,1117.82],[-120.89678,39.98568,1113.9],[-120.89694,39.98562,1112.72],[-120.89706,39.9855,1111.04],[-120.89718,39.9853,1109.1],[-120.89748,39.98502,1110.55],[-120.89765,39.9849,1112.86],[-120.89836,39.98462,1114.85],[-120.89863,39.98451,1116.43],[-120.89897,39.98451,1108.2],[-120.89937,39.9845,1100.55],[-120.89976,39.9846,1093.84],[-120.89998,39.9847,1089.84],[-120.90026,39.98471,1087.5],[-120.90055,39.98463,1084.57],[-120.901,39.98444,1083.64],[-120.90129,39.98447,1078.93],[-120.90166,39.98433,1076.03],[-120.9019,39.98432,1072.18],[-120.90203,39.98421,1073.02],[-120.90221,39.98417,1071.18],[-120.90241,39.98403,1072.14],[-120.90252,39.984,1072.03],[-120.90265,39.98402,1069.63],[-120.90273,39.98397,1071.19],[-120.90282,39.98391,1073.17],[-120.90288,39.98387,1074.52],[-120.9033,39.98374,1072.95],[-120.90338,39.98371,1071.51],[-120.90344,39.98366,1070.67],[-120.90379,39.98315,1072.73],[-120.90392,39.983,1072.58],[-120.90402,39.98289,1072.16],[-120.90428,39.98266,1074.25],[-120.90433,39.98261,1075.02],[-120.90435,39.98255,1076.59],[-120.90433,39.9825,1077.38],[-120.90428,39.98247,1076.77],[-120.9042,39.98243,1076.08],[-120.90411,39.98242,1076.2],[-120.90372,39.98242,1083.57],[-120.90361,39.9824,1086.52],[-120.90356,39.98237,1088.01],[-120.90354,39.98233,1088.62],[-120.90357,39.98229,1087.48],[-120.90367,39.98222,1084.78],[-120.90382,39.9821,1083.83],[-120.90393,39.98196,1083.45],[-120.904,39.98187,1083.84],[-120.90413,39.98156,1087.68],[-120.90418,39.98143,1088.29],[-120.9042,39.98133,1088.32],[-120.90418,39.98124,1090.48],[-120.90414,39.98113,1092.82],[-120.90407,39.98093,1095.62],[-120.90401,39.98073,1095.07],[-120.90392,39.98043,1091.14],[-120.90366,39.98006,1091.05],[-120.90359,39.9799,1087.47],[-120.90348,39.97968,1082.27],[-120.90338,39.97954,1080.06],[-120.90315,39.97941,1081.55],[-120.90303,39.97919,1076.82],[-120.90288,39.97909,1078.47],[-120.9028,39.979,1080.4],[-120.90288,39.97889,1075.47],[-120.90286,39.97878,1074.82],[-120.90291,39.97859,1069.32],[-120.90282,39.97848,1071.23],[-120.90278,39.97832,1068.32],[-120.90263,39.97819,1068.12],[-120.90245,39.97812,1068.53],[-120.90225,39.97809,1069.5],[-120.90199,39.97808,1068.33],[-120.90179,39.97804,1065.4],[-120.90159,39.97795,1061.6],[-120.9014,39.97789,1060.23],[-120.90116,39.9779,1060.93],[-120.90093,39.97795,1061.93],[-120.90068,39.97798,1061.65],[-120.90058,39.978,1061.66],[-120.90045,39.97796,1062.44],[-120.90035,39.97791,1063.13],[-120.90035,39.97784,1062.68],[-120.90043,39.97779,1061.13],[-120.90064,39.97776,1058.48],[-120.90077,39.97769,1058.22],[-120.90086,39.9776,1057.53],[-120.90096,39.97751,1056.28],[-120.90096,39.97747,1057.51],[-120.90089,39.97745,1059.07],[-120.90078,39.97748,1059.99],[-120.90069,39.97755,1060.17],[-120.90063,39.97755,1061.09],[-120.90061,39.97751,1062],[-120.90062,39.97746,1063.24],[-120.90084,39.97734,1063.24],[-120.90113,39.97719,1065.61],[-120.9012,39.97716,1066.27],[-120.90122,39.97713,1067.58],[-120.90116,39.97711,1069.56],[-120.90109,39.97712,1070.08],[-120.90101,39.97711,1071.87],[-120.90091,39.97716,1070.3],[-120.90082,39.97715,1071.8],[-120.90088,39.97708,1075.21],[-120.90103,39.97703,1076.17],[-120.90119,39.97695,1078.21],[-120.90166,39.97669,1081.44],[-120.90176,39.97661,1082.96],[-120.90186,39.97649,1086.23],[-120.90216,39.97634,1083.35],[-120.90241,39.97614,1084.16],[-120.90244,39.97611,1084.79],[-120.9025,39.97583,1099.61],[-120.90261,39.97571,1103.29],[-120.90288,39.97564,1095.97],[-120.903,39.97556,1096.19],[-120.90308,39.97546,1099.17],[-120.90318,39.97543,1096.18],[-120.9036,39.97505,1102.26],[-120.90372,39.97498,1101.22],[-120.90385,39.97487,1101.81],[-120.90412,39.97452,1105.74],[-120.9043,39.97438,1104.1],[-120.90433,39.97434,1104.91],[-120.90433,39.97429,1107.88],[-120.9043,39.97428,1109.69],[-120.90419,39.97435,1110.44],[-120.90402,39.97449,1111.74],[-120.90386,39.97464,1112.75],[-120.90371,39.97473,1115.58],[-120.90304,39.97511,1123.11],[-120.90294,39.97515,1124.61],[-120.90249,39.9752,1135.74],[-120.90219,39.97529,1139.1],[-120.90206,39.9754,1137.2],[-120.90191,39.97549,1136.26],[-120.90182,39.97556,1134.75],[-120.90167,39.97563,1134.5],[-120.90148,39.97567,1135.08],[-120.90136,39.97567,1136.14],[-120.90107,39.97556,1140.76],[-120.90091,39.97547,1143.18],[-120.90081,39.97538,1144.95],[-120.90069,39.97535,1145.01],[-120.9006,39.97527,1145.95],[-120.90036,39.97518,1145.54],[-120.9002,39.97509,1145.26],[-120.90004,39.97505,1145.09],[-120.8999,39.97499,1144.52],[-120.89966,39.97491,1145.96],[-120.89959,39.97488,1146.27],[-120.89951,39.9748,1146.54],[-120.8995,39.97472,1145.98],[-120.89953,39.97435,1141.37],[-120.89952,39.97425,1139.86],[-120.89949,39.97415,1138.57],[-120.89929,39.97379,1134.74],[-120.8992,39.97352,1133.57],[-120.89921,39.97346,1133.61],[-120.89938,39.97316,1130.63],[-120.8996,39.97292,1124.25],[-120.89966,39.97284,1122.92],[-120.89969,39.97276,1121.92],[-120.89969,39.9726,1121],[-120.89956,39.97234,1124.93],[-120.89955,39.97225,1126.14],[-120.8996,39.9722,1126.88],[-120.89982,39.97209,1124.96],[-120.89992,39.97202,1124.17],[-120.90012,39.97182,1118.43],[-120.90016,39.97175,1117.19],[-120.90017,39.97168,1117.23],[-120.90009,39.97143,1121.67],[-120.90014,39.97132,1122.74],[-120.90019,39.97128,1122.87],[-120.90027,39.97126,1122.39],[-120.90038,39.97129,1120.39],[-120.90065,39.97129,1117.45],[-120.90074,39.97126,1117.2],[-120.90083,39.97117,1117.82],[-120.90084,39.97112,1117.86],[-120.90081,39.97097,1119.24],[-120.90069,39.97078,1119.88],[-120.90058,39.9707,1121.21],[-120.9004,39.97064,1124.68],[-120.90022,39.97057,1127.36],[-120.90008,39.9705,1129.18],[-120.90004,39.97044,1128.81],[-120.9,39.97026,1130.21],[-120.8999,39.97007,1135.19],[-120.8999,39.97,1137.47],[-120.89994,39.96993,1139.21],[-120.90027,39.96953,1142.19],[-120.90027,39.96953,1142.19]]}}
