{"type":"Feature","properties":{"name":"Mt. Hough Classic Loop","sourceLabel":"Trailforks route plan 786052","sourceUrl":"https://www.trailforks.com/routeplan/view/786052/","gpxSha256":"daf363a9731259b0c9d73e98505e19fab5009b86e4e29616cdb7f6a20917517d","importedAt":"2026-09-29T21:19:11.738994+00:00","elevationSource":"AWS Terrain Tiles (USGS 3DEP and SRTM), sampled from the route terrain; original GPX elevations were zero placeholders","sourceStats":{"distanceMiles":22.14,"pointCount":1669,"climbingFt":4167,"descendingFt":4194,"movingMinutes":226,"movingTimeEstimated":true}},"geometry":{"type":"LineString","coordinates":[[-120.90061,39.96942,1138.63],[-120.90027,39.96953,1142.19],[-120.90006,39.96952,1144.96],[-120.89924,39.96902,1148.11],[-120.89846,39.96873,1155.73],[-120.89746,39.96866,1163.08],[-120.89658,39.96841,1163.49],[-120.89632,39.96848,1170.86],[-120.89584,39.96881,1183.65],[-120.89553,39.96909,1191.09],[-120.89497,39.96947,1196.72],[-120.89404,39.96974,1202.42],[-120.89309,39.96949,1204.45],[-120.8921,39.96906,1201.39],[-120.89104,39.96917,1220.27],[-120.89025,39.9696,1232.49],[-120.88999,39.96951,1232.35],[-120.89002,39.96925,1230.47],[-120.88992,39.96906,1235.36],[-120.88967,39.96894,1237.77],[-120.88921,39.96886,1244.11],[-120.88885,39.96873,1242.8],[-120.88773,39.96875,1244.46],[-120.88695,39.96866,1244.6],[-120.886,39.96875,1246.33],[-120.88524,39.96896,1249.87],[-120.88517,39.96895,1249.64],[-120.8842,39.96878,1250.67],[-120.8836,39.96888,1253.63],[-120.8832,39.96909,1258.79],[-120.88282,39.96958,1263.16],[-120.8826,39.96967,1260.97],[-120.88227,39.9696,1259.65],[-120.88202,39.96925,1260.1],[-120.88184,39.96911,1261.43],[-120.88144,39.96909,1264.03],[-120.88119,39.96925,1267.66],[-120.88074,39.96967,1272.29],[-120.88025,39.96993,1276.01],[-120.87814,39.97079,1282.27],[-120.87743,39.97105,1282.41],[-120.87681,39.97148,1283.48],[-120.87662,39.97177,1284.21],[-120.87658,39.97194,1284.71],[-120.87655,39.97209,1285.36],[-120.87743,39.97323,1302.44],[-120.8775,39.97346,1303.11],[-120.87752,39.97352,1303.15],[-120.87731,39.97388,1303.42],[-120.87579,39.97435,1310.8],[-120.87567,39.9744,1311.52],[-120.87566,39.9744,1311.54],[-120.87537,39.97452,1313.26],[-120.87442,39.97491,1321.84],[-120.87287,39.97511,1333.87],[-120.8725,39.97508,1336.26],[-120.8716,39.97533,1346.23],[-120.87129,39.97555,1349.01],[-120.87115,39.97596,1357.91],[-120.87095,39.97679,1363.66],[-120.87077,39.97702,1364.25],[-120.87046,39.97722,1364.39],[-120.8703,39.97744,1368.24],[-120.87047,39.97758,1371.74],[-120.87123,39.97753,1380.03],[-120.87172,39.97737,1384.27],[-120.87222,39.97716,1385.93],[-120.87258,39.97721,1386.59],[-120.87284,39.97735,1388.3],[-120.87292,39.9776,1392.42],[-120.87268,39.97787,1398.98],[-120.87216,39.97809,1404.68],[-120.87127,39.97894,1418.24],[-120.87107,39.97937,1426.92],[-120.87083,39.97957,1432.91],[-120.87038,39.97966,1436.49],[-120.86992,39.9797,1440.37],[-120.86962,39.97988,1443.67],[-120.86957,39.98019,1447.25],[-120.86965,39.98052,1453.5],[-120.86984,39.98078,1459.88],[-120.87017,39.98118,1466.5],[-120.87016,39.98147,1471.48],[-120.86924,39.98231,1487.98],[-120.86886,39.98279,1493.68],[-120.8678,39.9831,1500.85],[-120.86726,39.98311,1505.29],[-120.86665,39.9829,1508.4],[-120.86628,39.98281,1512.04],[-120.86588,39.98286,1514.12],[-120.8656,39.98312,1517.11],[-120.86436,39.98467,1530.17],[-120.86415,39.9852,1533.3],[-120.86412,39.98554,1535.73],[-120.86401,39.98581,1534.75],[-120.86426,39.98663,1545.69],[-120.86451,39.98722,1546.43],[-120.86446,39.98766,1543.66],[-120.86457,39.98818,1541.51],[-120.86451,39.98887,1540.5],[-120.86451,39.98893,1540.66],[-120.86436,39.98931,1541.67],[-120.86392,39.98971,1544.8],[-120.86356,39.9899,1549.56],[-120.86328,39.98989,1552.26],[-120.86211,39.98944,1561.47],[-120.86173,39.98942,1563.09],[-120.86098,39.98985,1570.76],[-120.86076,39.98998,1571.84],[-120.86,39.99031,1580.43],[-120.85938,39.99043,1584.01],[-120.8592,39.9906,1588.58],[-120.85914,39.99076,1592.32],[-120.85915,39.99101,1597.09],[-120.85939,39.99141,1603.09],[-120.85959,39.99165,1606.46],[-120.85985,39.99202,1609.44],[-120.86012,39.99264,1616.07],[-120.8601,39.99311,1619.27],[-120.86027,39.99347,1616.96],[-120.86057,39.99403,1614.9],[-120.86081,39.99466,1617.77],[-120.8608,39.99482,1618.79],[-120.86022,39.99548,1624.8],[-120.86024,39.99603,1627.69],[-120.86047,39.9964,1634.13],[-120.86084,39.99675,1638],[-120.86078,39.99741,1638.98],[-120.86086,39.99798,1638.31],[-120.861,39.9981,1640.18],[-120.86123,39.99826,1642.47],[-120.86144,39.99839,1644.11],[-120.8614,39.99852,1646.64],[-120.86136,39.99862,1648.06],[-120.86061,39.99931,1659.07],[-120.8603,39.9998,1669.79],[-120.8603,40.00048,1684.71],[-120.86046,40.00089,1692.29],[-120.86069,40.00111,1696.19],[-120.86075,40.00127,1698.5],[-120.8608,40.00189,1707.43],[-120.86047,40.00233,1713.62],[-120.85979,40.00275,1725],[-120.85936,40.00352,1734.44],[-120.85913,40.00372,1735.29],[-120.85882,40.00437,1741.31],[-120.8589,40.00466,1741.35],[-120.85914,40.00506,1740.68],[-120.85933,40.00595,1739.3],[-120.85916,40.00641,1738.48],[-120.8586,40.00694,1736.44],[-120.85821,40.00707,1733.55],[-120.85765,40.00716,1726.41],[-120.85753,40.00736,1723.34],[-120.85767,40.00757,1722.42],[-120.85822,40.00804,1715.95],[-120.8583,40.00835,1711.56],[-120.85843,40.00849,1709.19],[-120.85861,40.00861,1706.61],[-120.85868,40.00881,1703.49],[-120.85872,40.00927,1699.33],[-120.85878,40.00978,1696.17],[-120.85893,40.01,1697.4],[-120.85915,40.01013,1699.59],[-120.85923,40.01017,1700.59],[-120.85966,40.0105,1705.03],[-120.85974,40.0107,1704.87],[-120.85976,40.01088,1704.24],[-120.85957,40.01142,1705.56],[-120.85975,40.01234,1698.64],[-120.85978,40.0125,1696.84],[-120.85996,40.01337,1688.52],[-120.86015,40.01364,1689.18],[-120.86035,40.01383,1689.71],[-120.8604,40.01402,1691.26],[-120.86032,40.0145,1701.49],[-120.86053,40.0152,1710.57],[-120.86074,40.01567,1711.95],[-120.86084,40.0163,1713.99],[-120.86048,40.01739,1722.79],[-120.86056,40.01809,1732.84],[-120.86079,40.01845,1736.84],[-120.86127,40.01905,1745.74],[-120.86163,40.01971,1756.74],[-120.86172,40.01995,1758.37],[-120.86171,40.02057,1761.07],[-120.86159,40.02103,1765.78],[-120.86174,40.02156,1774.17],[-120.86171,40.02164,1775.4],[-120.86133,40.02288,1780.53],[-120.8611,40.02326,1780.46],[-120.86116,40.02379,1785.71],[-120.86132,40.02429,1791.39],[-120.86159,40.02566,1801.21],[-120.86153,40.02597,1803.09],[-120.86153,40.02624,1805.26],[-120.86175,40.02639,1806.31],[-120.86212,40.02681,1811.89],[-120.86245,40.02723,1817.46],[-120.86248,40.02746,1820.81],[-120.86262,40.02762,1823.02],[-120.8635,40.02811,1829.62],[-120.86404,40.0285,1832.41],[-120.86476,40.02931,1839.15],[-120.86544,40.03035,1854.08],[-120.86709,40.03141,1878.44],[-120.86741,40.03174,1882.77],[-120.86773,40.03226,1890.02],[-120.86879,40.03275,1901.44],[-120.86909,40.03287,1905.59],[-120.86932,40.03291,1908.19],[-120.86952,40.03284,1909.89],[-120.86968,40.03271,1911.88],[-120.86988,40.03248,1915.31],[-120.87011,40.03228,1920.76],[-120.87061,40.03167,1932.05],[-120.87087,40.03146,1933.17],[-120.87106,40.03141,1933.7],[-120.87131,40.03141,1933.98],[-120.87182,40.0315,1934.46],[-120.87226,40.03178,1935.55],[-120.87319,40.03273,1938.62],[-120.87434,40.03416,1952.95],[-120.87432,40.03434,1955.57],[-120.87442,40.03456,1959.54],[-120.87515,40.03531,1978.71],[-120.87546,40.0357,1987.13],[-120.87578,40.03594,1994.06],[-120.87602,40.03626,2002.04],[-120.87611,40.03658,2007.64],[-120.87625,40.03689,2011.39],[-120.87634,40.03706,2012.21],[-120.87654,40.03725,2013.5],[-120.87722,40.03779,2017.22],[-120.87746,40.03793,2019.31],[-120.87759,40.03809,2020.48],[-120.87776,40.03834,2022.26],[-120.87805,40.03871,2024.84],[-120.87852,40.03905,2029.2],[-120.8793,40.03984,2034.55],[-120.87957,40.04018,2038.71],[-120.87985,40.04059,2044.32],[-120.88086,40.04148,2069.28],[-120.88239,40.04144,2086.9],[-120.88296,40.04139,2089.09],[-120.88368,40.04146,2098],[-120.88417,40.04141,2101.56],[-120.88456,40.04143,2104.47],[-120.88474,40.04141,2104.44],[-120.88505,40.04144,2106.12],[-120.88543,40.04145,2106.37],[-120.88574,40.04151,2108.1],[-120.88587,40.04152,2108.16],[-120.88616,40.0416,2110.29],[-120.88644,40.04162,2110.26],[-120.88694,40.04175,2113.75],[-120.88783,40.0419,2113.12],[-120.88843,40.04216,2113.76],[-120.88879,40.04237,2113.39],[-120.88893,40.04254,2114.86],[-120.88902,40.04264,2115.22],[-120.88906,40.04269,2115.46],[-120.88933,40.04305,2117.28],[-120.88996,40.04419,2120.91],[-120.8898,40.04478,2129.04],[-120.88957,40.04516,2132.86],[-120.88921,40.04628,2132.03],[-120.88902,40.04646,2132.91],[-120.88878,40.04657,2135.18],[-120.8885,40.04661,2139],[-120.88817,40.04661,2143.32],[-120.88797,40.04656,2145.89],[-120.88786,40.04653,2147.18],[-120.8878,40.04641,2150.04],[-120.888,40.04608,2153.03],[-120.88812,40.04575,2155.97],[-120.88816,40.04536,2159.75],[-120.88798,40.04486,2168.03],[-120.88783,40.04482,2171.28],[-120.88737,40.04504,2176.55],[-120.88704,40.04516,2180.38],[-120.88669,40.04532,2183.86],[-120.88635,40.04538,2188.29],[-120.88603,40.04542,2188.17],[-120.88603,40.04542,2188.17],[-120.88604,40.04542,2188.25],[-120.88603,40.04542,2188.17],[-120.88603,40.04542,2188.17],[-120.88603,40.04542,2188.17],[-120.88603,40.04542,2188.17],[-120.88603,40.04542,2188.17],[-120.88603,40.04542,2188.17],[-120.88603,40.04542,2188.17],[-120.88603,40.04542,2188.17],[-120.88602,40.04548,2185.6],[-120.88602,40.04548,2185.6],[-120.88603,40.04548,2185.75],[-120.88603,40.04548,2185.75],[-120.88604,40.04548,2185.89],[-120.88604,40.04548,2185.89],[-120.88604,40.04548,2185.89],[-120.88605,40.04549,2185.66],[-120.88605,40.04549,2185.66],[-120.88605,40.04549,2185.66],[-120.88606,40.04549,2185.82],[-120.88606,40.04549,2185.82],[-120.88606,40.04549,2185.82],[-120.88607,40.04549,2185.97],[-120.88607,40.04549,2185.97],[-120.88607,40.0455,2185.61],[-120.88607,40.0455,2185.61],[-120.88608,40.0455,2185.78],[-120.88609,40.0455,2185.95],[-120.88609,40.0455,2185.95],[-120.88609,40.0455,2185.95],[-120.8861,40.04551,2185.79],[-120.8861,40.04551,2185.79],[-120.8861,40.04551,2185.79],[-120.88611,40.04551,2185.97],[-120.88611,40.04551,2185.97],[-120.88611,40.04551,2185.97],[-120.88612,40.04551,2186.15],[-120.88612,40.04551,2186.15],[-120.88612,40.04552,2185.85],[-120.88612,40.04552,2185.85],[-120.88613,40.04552,2186.04],[-120.88613,40.04552,2186.04],[-120.88614,40.04553,2185.94],[-120.88614,40.04553,2185.94],[-120.88614,40.04553,2185.94],[-120.88615,40.04553,2186.15],[-120.88615,40.04553,2186.15],[-120.88615,40.04553,2186.15],[-120.88615,40.04553,2186.15],[-120.88616,40.04554,2186.08],[-120.88616,40.04554,2186.08],[-120.88616,40.04554,2186.08],[-120.88617,40.04554,2186.3],[-120.88617,40.04554,2186.3],[-120.88617,40.04554,2186.3],[-120.88618,40.04555,2186.11],[-120.88618,40.04555,2186.11],[-120.88618,40.04555,2186.11],[-120.88618,40.04555,2186.11],[-120.88619,40.04555,2186.1],[-120.88619,40.04555,2186.1],[-120.88619,40.04556,2185.86],[-120.88619,40.04556,2185.86],[-120.8862,40.04556,2185.85],[-120.8862,40.04556,2185.85],[-120.88621,40.04557,2185.62],[-120.88621,40.04557,2185.62],[-120.88622,40.04557,2185.61],[-120.88623,40.04562,2184.54],[-120.88623,40.04562,2184.54],[-120.88639,40.04569,2182.56],[-120.88645,40.04569,2183.23],[-120.8865,40.04565,2184.65],[-120.8866,40.04549,2184.27],[-120.88672,40.04543,2182.29],[-120.88693,40.04527,2180.43],[-120.88698,40.04526,2179.72],[-120.88702,40.04528,2178.66],[-120.88701,40.04533,2177.98],[-120.88692,40.04544,2178.43],[-120.88682,40.04564,2178.95],[-120.88681,40.04567,2178.94],[-120.88683,40.04569,2178.44],[-120.88687,40.04567,2177.79],[-120.8869,40.04563,2177.37],[-120.88694,40.04558,2176.92],[-120.8871,40.04548,2174.67],[-120.88736,40.04538,2171.56],[-120.88747,40.04531,2170.93],[-120.88761,40.04527,2169.41],[-120.88772,40.04519,2168.78],[-120.88777,40.04518,2168.12],[-120.88781,40.0452,2167.25],[-120.88777,40.04529,2166.78],[-120.88778,40.04534,2166.03],[-120.8878,40.04538,2165.26],[-120.88789,40.04546,2163.01],[-120.88791,40.04551,2162.08],[-120.88786,40.04566,2160.89],[-120.88778,40.04576,2160.66],[-120.88772,40.0459,2159.62],[-120.88771,40.04596,2158.77],[-120.88773,40.04609,2156.36],[-120.88772,40.04614,2155.65],[-120.88755,40.04636,2151.76],[-120.88754,40.04641,2150.49],[-120.88755,40.04646,2148.53],[-120.88764,40.04656,2145.26],[-120.88777,40.04666,2143.25],[-120.88786,40.04677,2140.8],[-120.88797,40.04687,2138.73],[-120.88802,40.04693,2137.62],[-120.88805,40.04699,2136.67],[-120.88812,40.04733,2132.29],[-120.88812,40.04748,2130.49],[-120.88819,40.04782,2130.06],[-120.88817,40.04805,2128.42],[-120.88821,40.04813,2129.26],[-120.88821,40.04829,2129.09],[-120.88826,40.04838,2129.69],[-120.88827,40.04843,2129.74],[-120.88826,40.04849,2129.76],[-120.88828,40.04854,2129.66],[-120.88831,40.04858,2129.51],[-120.88837,40.04863,2129.41],[-120.88857,40.04871,2129.63],[-120.88867,40.0488,2129.25],[-120.88873,40.04882,2129.2],[-120.88879,40.04886,2129.19],[-120.8888,40.04885,2129.22],[-120.8888,40.04886,2129.21],[-120.8888,40.04887,2129.2],[-120.88881,40.04885,2129.23],[-120.88905,40.04846,2125.78],[-120.88907,40.0484,2125.31],[-120.88906,40.04834,2125.21],[-120.88902,40.04826,2125.38],[-120.88891,40.04812,2126.62],[-120.88886,40.04807,2127.12],[-120.88883,40.04802,2127.41],[-120.88882,40.04796,2127.56],[-120.8888,40.04789,2127.92],[-120.88881,40.04779,2128.02],[-120.8888,40.04771,2128.31],[-120.8888,40.04765,2128.44],[-120.88888,40.04755,2127.4],[-120.8889,40.04749,2127.09],[-120.88883,40.04727,2128.34],[-120.88883,40.04718,2128.44],[-120.88887,40.04712,2127.97],[-120.8889,40.04705,2127.78],[-120.88894,40.04692,2128.01],[-120.88898,40.04686,2128.3],[-120.88904,40.04682,2128.04],[-120.88909,40.04677,2128.01],[-120.88923,40.04657,2128.47],[-120.88945,40.04636,2127.1],[-120.88973,40.04589,2124.94],[-120.88979,40.04576,2124.51],[-120.88978,40.04567,2125.42],[-120.88983,40.04555,2124.98],[-120.88989,40.04544,2124.1],[-120.8899,40.0453,2124.5],[-120.88989,40.04517,2125.28],[-120.8899,40.04498,2125.82],[-120.89007,40.04465,2121.07],[-120.89014,40.0445,2118],[-120.89011,40.04412,2114.68],[-120.89007,40.04392,2112.64],[-120.89,40.0438,2112.55],[-120.88995,40.04363,2111.27],[-120.88986,40.04352,2111.97],[-120.88977,40.04347,2113.68],[-120.88972,40.04342,2114.24],[-120.88971,40.04338,2113.89],[-120.88976,40.04337,2112.48],[-120.88979,40.04338,2111.86],[-120.89005,40.04358,2107.79],[-120.89037,40.04383,2101.75],[-120.8906,40.04405,2096.57],[-120.89076,40.04424,2092.49],[-120.89081,40.04435,2091.46],[-120.89087,40.04453,2090.19],[-120.89091,40.04474,2089.44],[-120.89091,40.04492,2089.85],[-120.89086,40.04527,2091.67],[-120.89084,40.04543,2091.99],[-120.89084,40.04564,2091.15],[-120.89085,40.04576,2090.05],[-120.89092,40.04595,2086.39],[-120.89093,40.046,2085.72],[-120.89087,40.0462,2086.4],[-120.89085,40.04625,2086.68],[-120.89085,40.04629,2086.34],[-120.89087,40.04632,2085.39],[-120.89093,40.0463,2083.45],[-120.89097,40.04625,2082.47],[-120.89098,40.04619,2082.64],[-120.89108,40.04608,2080.13],[-120.89122,40.04592,2076.35],[-120.89131,40.04577,2074.23],[-120.89141,40.0456,2071.77],[-120.89148,40.04543,2069.99],[-120.89157,40.04528,2067.13],[-120.89161,40.04519,2065.73],[-120.89166,40.04517,2063.98],[-120.8917,40.04518,2062.58],[-120.89174,40.04522,2061.18],[-120.89183,40.04563,2056.93],[-120.89187,40.04564,2055.51],[-120.89192,40.04562,2053.9],[-120.89195,40.04555,2053.13],[-120.89195,40.04548,2053.38],[-120.89197,40.04541,2052.94],[-120.89207,40.04531,2049.67],[-120.89216,40.04519,2046.64],[-120.89223,40.04502,2044.24],[-120.89231,40.04482,2041.37],[-120.89232,40.04469,2040.59],[-120.89235,40.04464,2039.44],[-120.89239,40.04467,2038.29],[-120.89242,40.04472,2037.54],[-120.89246,40.04485,2036.72],[-120.8925,40.04492,2035.53],[-120.89255,40.04494,2033.99],[-120.89258,40.04492,2033.06],[-120.8926,40.04488,2032.43],[-120.89293,40.04416,2017.89],[-120.89295,40.04347,2012.89],[-120.8929,40.04308,2010.34],[-120.89281,40.04273,2009.27],[-120.89279,40.04257,2007.65],[-120.89272,40.04245,2007.76],[-120.89258,40.04227,2008.04],[-120.89247,40.04198,2005.34],[-120.8924,40.04186,2005.29],[-120.89207,40.04154,2008.33],[-120.89187,40.04123,2007.35],[-120.89165,40.04109,2010.84],[-120.89142,40.04096,2014.39],[-120.89088,40.04051,2016.74],[-120.89076,40.04039,2015.89],[-120.89052,40.0403,2017.41],[-120.89023,40.04028,2021.38],[-120.8901,40.04024,2022.25],[-120.88994,40.04014,2021.52],[-120.88982,40.04006,2020.99],[-120.88958,40.03998,2022.48],[-120.88931,40.03984,2021.77],[-120.88881,40.03948,2015.22],[-120.88857,40.03937,2013.44],[-120.88843,40.03923,2009.46],[-120.88804,40.03903,2005.38],[-120.88768,40.03894,2004.43],[-120.88735,40.03878,2000.3],[-120.8873,40.03875,1999.35],[-120.88715,40.0387,1998.01],[-120.88699,40.03865,1996.52],[-120.88674,40.03861,1995.64],[-120.88659,40.03859,1995.2],[-120.88591,40.03845,1992.57],[-120.88552,40.03832,1989.56],[-120.88537,40.03826,1987.9],[-120.88525,40.03821,1986.69],[-120.88492,40.03804,1982.55],[-120.88476,40.03789,1978.48],[-120.88431,40.03778,1978.25],[-120.88407,40.03766,1975.77],[-120.88382,40.0376,1974.33],[-120.88355,40.0376,1973.79],[-120.88304,40.0377,1973.54],[-120.88292,40.03773,1974.85],[-120.88276,40.0377,1974.03],[-120.88263,40.03768,1975.98],[-120.88242,40.03755,1976.74],[-120.88212,40.03721,1973.11],[-120.88186,40.03698,1969.82],[-120.88159,40.03683,1966.07],[-120.88131,40.03676,1963.5],[-120.88095,40.0367,1962.61],[-120.88077,40.03661,1963.43],[-120.88051,40.03618,1962.5],[-120.88046,40.0361,1962.26],[-120.88033,40.03593,1960.74],[-120.88011,40.0358,1958.44],[-120.87992,40.03574,1956.99],[-120.87956,40.03566,1954.12],[-120.87921,40.03554,1949.38],[-120.87901,40.0355,1947.71],[-120.8788,40.03552,1949.13],[-120.87861,40.03548,1948.89],[-120.87836,40.03537,1950.32],[-120.87818,40.03518,1948.8],[-120.87807,40.03496,1944.71],[-120.878,40.0348,1941.63],[-120.87791,40.03456,1937.19],[-120.8779,40.03452,1936.39],[-120.87783,40.03441,1934.4],[-120.8778,40.03438,1933.88],[-120.87715,40.03395,1924.26],[-120.87712,40.03392,1923.62],[-120.87693,40.03381,1922.21],[-120.8769,40.03379,1921.92],[-120.87646,40.0334,1915.66],[-120.87643,40.03337,1915.12],[-120.87607,40.03317,1912.95],[-120.87602,40.03314,1912.51],[-120.8757,40.03286,1908.15],[-120.87565,40.03281,1907.55],[-120.87557,40.03269,1906.01],[-120.87555,40.03262,1905.02],[-120.87557,40.03229,1899.62],[-120.87558,40.03218,1898.11],[-120.87562,40.032,1895.39],[-120.87565,40.03174,1892.67],[-120.87562,40.03144,1891.01],[-120.8753,40.0308,1887.67],[-120.87485,40.03039,1886.26],[-120.87424,40.02996,1881.22],[-120.87366,40.02938,1880.1],[-120.87279,40.02924,1883.12],[-120.87256,40.02913,1884.45],[-120.87132,40.02825,1881.21],[-120.87081,40.02797,1881.1],[-120.87038,40.02764,1883.61],[-120.87016,40.02739,1882.9],[-120.87006,40.02729,1882.82],[-120.87002,40.02712,1880.84],[-120.86996,40.02695,1878.94],[-120.86972,40.02675,1878.44],[-120.86958,40.02646,1874.14],[-120.86938,40.02632,1873.28],[-120.86884,40.02629,1874.08],[-120.86844,40.02642,1872.57],[-120.86775,40.02697,1860.93],[-120.86769,40.02734,1857.99],[-120.86735,40.02813,1844.27],[-120.86753,40.02856,1845.09],[-120.8677,40.02882,1847.2],[-120.86796,40.02925,1854.11],[-120.86799,40.02936,1854.78],[-120.86792,40.02944,1852.45],[-120.86785,40.02956,1850.7],[-120.86767,40.02963,1846.72],[-120.86747,40.02964,1843.04],[-120.86725,40.02949,1836.22],[-120.86729,40.02931,1832.72],[-120.86717,40.02921,1830.75],[-120.86694,40.02919,1828.39],[-120.86676,40.02915,1828.3],[-120.86662,40.02922,1829.71],[-120.86647,40.02918,1829.55],[-120.86642,40.02902,1827.31],[-120.86626,40.02887,1825.7],[-120.86619,40.02868,1823.57],[-120.86569,40.02779,1812.44],[-120.86515,40.02697,1801.77],[-120.86449,40.0265,1795.86],[-120.8639,40.02617,1792.74],[-120.86374,40.0261,1792.31],[-120.86364,40.02586,1788.24],[-120.86329,40.0256,1786.43],[-120.86312,40.02554,1786.69],[-120.86301,40.02526,1782.81],[-120.86284,40.02518,1782.91],[-120.86265,40.02498,1781.06],[-120.86254,40.02482,1779.75],[-120.86245,40.0245,1776.08],[-120.8624,40.02428,1773.58],[-120.86234,40.02389,1769.25],[-120.86219,40.02347,1766.55],[-120.86195,40.02328,1769.31],[-120.86174,40.02298,1774.17],[-120.86188,40.02267,1772.05],[-120.86211,40.02248,1765.75],[-120.86218,40.02208,1763.9],[-120.86217,40.02168,1763.88],[-120.86217,40.02147,1764.65],[-120.86228,40.02128,1762.67],[-120.86228,40.02113,1763.28],[-120.86221,40.02105,1763.66],[-120.86212,40.02102,1764.11],[-120.86205,40.02095,1763.71],[-120.86205,40.02085,1762.64],[-120.86219,40.02075,1761.09],[-120.86228,40.0208,1761.38],[-120.86235,40.02075,1760.59],[-120.86237,40.02073,1760.3],[-120.86234,40.02059,1758.55],[-120.86232,40.0205,1757.24],[-120.86218,40.02039,1756.78],[-120.86199,40.0201,1756.09],[-120.86201,40.0197,1754.25],[-120.86212,40.01935,1750.12],[-120.86223,40.01926,1747.39],[-120.86222,40.01917,1746.4],[-120.86216,40.01909,1745.94],[-120.86209,40.01908,1746.12],[-120.86205,40.01913,1747.07],[-120.86195,40.01911,1747.1],[-120.86194,40.01905,1746.05],[-120.86203,40.01898,1744.55],[-120.86214,40.01895,1743.77],[-120.86228,40.01881,1740.75],[-120.86244,40.01873,1738.92],[-120.86248,40.01862,1737.27],[-120.86248,40.01856,1736.46],[-120.86242,40.01852,1736.07],[-120.86216,40.01844,1735.67],[-120.86201,40.0184,1735.65],[-120.86177,40.01832,1735.59],[-120.86142,40.01816,1734.94],[-120.86116,40.01797,1733.04],[-120.86106,40.0179,1732.19],[-120.86105,40.01784,1731.41],[-120.8611,40.0178,1730.91],[-120.86117,40.01776,1730.31],[-120.86148,40.01776,1729.73],[-120.86167,40.01775,1728.67],[-120.86179,40.01762,1725.73],[-120.86187,40.01746,1722.09],[-120.86198,40.01729,1718.14],[-120.86202,40.01718,1716.22],[-120.86197,40.01705,1715.21],[-120.86202,40.01693,1713.67],[-120.86192,40.01674,1712.63],[-120.8619,40.01655,1710.88],[-120.86175,40.01637,1710.29],[-120.86168,40.01634,1710.48],[-120.86164,40.01626,1710.18],[-120.8617,40.01612,1708.67],[-120.86168,40.016,1707.7],[-120.86167,40.01592,1707.06],[-120.86161,40.01589,1707.35],[-120.86152,40.01588,1708.34],[-120.86144,40.01584,1708.84],[-120.86139,40.0158,1708.81],[-120.86134,40.01573,1708.56],[-120.86127,40.01558,1707.58],[-120.86118,40.0155,1707.86],[-120.8611,40.01538,1708],[-120.86108,40.01534,1707.69],[-120.861,40.01516,1706.6],[-120.8608,40.01486,1705.98],[-120.86064,40.01439,1697.22],[-120.8604,40.01402,1691.26],[-120.86035,40.01383,1689.71],[-120.86015,40.01364,1689.18],[-120.85996,40.01337,1688.52],[-120.85978,40.0125,1696.84],[-120.86006,40.01217,1692.64],[-120.86005,40.01195,1693.67],[-120.86011,40.01178,1693.14],[-120.86012,40.01163,1693.85],[-120.86018,40.0115,1693.52],[-120.86018,40.01148,1693.68],[-120.86017,40.01135,1694.99],[-120.86023,40.01121,1695.15],[-120.86025,40.01108,1696.6],[-120.86035,40.01098,1696.81],[-120.86051,40.01094,1694.98],[-120.86069,40.01084,1693.97],[-120.86086,40.01064,1694.37],[-120.86102,40.0105,1691.4],[-120.86109,40.01033,1691.22],[-120.86108,40.0101,1693.93],[-120.86113,40.00981,1689.32],[-120.86104,40.00964,1687.34],[-120.86098,40.00957,1686.69],[-120.86093,40.00943,1684.5],[-120.86093,40.00932,1682.73],[-120.86111,40.00922,1681.35],[-120.86126,40.00908,1678.68],[-120.86159,40.0084,1685.91],[-120.86178,40.00816,1687.82],[-120.86218,40.00781,1691.61],[-120.8624,40.00764,1692.42],[-120.86248,40.00746,1696.04],[-120.86267,40.00723,1694.28],[-120.86283,40.00665,1699.3],[-120.86299,40.00637,1698.89],[-120.86317,40.00621,1697.82],[-120.86346,40.00591,1700.23],[-120.86355,40.00571,1699.8],[-120.86344,40.00552,1701.49],[-120.86312,40.00529,1704.49],[-120.8623,40.00489,1706.7],[-120.86169,40.00451,1707.94],[-120.86162,40.00444,1708.02],[-120.86135,40.00418,1708.75],[-120.86113,40.00382,1708.03],[-120.86099,40.00329,1707.03],[-120.86098,40.00288,1708.77],[-120.86111,40.00246,1708.89],[-120.86126,40.00226,1708.54],[-120.86119,40.00197,1708.52],[-120.86122,40.00183,1707.06],[-120.86117,40.00156,1703.29],[-120.86121,40.00122,1698.58],[-120.86127,40.00112,1697.53],[-120.86139,40.00109,1697.5],[-120.86163,40.00104,1697.54],[-120.86204,40.00098,1697.58],[-120.86224,40.00087,1695.91],[-120.86254,40.00085,1696.43],[-120.86268,40.00079,1695.56],[-120.86274,40.00072,1694.14],[-120.86272,40.0006,1691.03],[-120.86263,40.00054,1689.2],[-120.86243,40.00042,1685.76],[-120.86213,40.00023,1680.93],[-120.86198,40.00012,1678.91],[-120.86185,40.00004,1676.97],[-120.86187,39.99995,1673.62],[-120.86185,39.99983,1670.01],[-120.86173,39.99977,1669.42],[-120.86163,39.99972,1668.78],[-120.86152,39.99964,1667.33],[-120.86143,39.99956,1665.54],[-120.86132,39.99952,1664.8],[-120.86124,39.99935,1660.21],[-120.86121,39.99931,1659.45],[-120.86118,39.99927,1658.69],[-120.86119,39.99919,1656.92],[-120.86151,39.99913,1654.72],[-120.86171,39.99903,1652.17],[-120.8619,39.99904,1650.86],[-120.86223,39.99909,1648.56],[-120.86249,39.9991,1646.41],[-120.86262,39.99902,1644.87],[-120.86259,39.99893,1643.09],[-120.86232,39.99883,1642.48],[-120.86199,39.99869,1642.93],[-120.86168,39.99844,1641.93],[-120.86159,39.99834,1641.1],[-120.86154,39.99821,1639.29],[-120.86168,39.99812,1635.8],[-120.86181,39.99812,1634.22],[-120.86194,39.99808,1632.88],[-120.86206,39.99811,1632.5],[-120.86214,39.99816,1632.4],[-120.86225,39.99816,1631.97],[-120.86228,39.99811,1631.51],[-120.86219,39.99804,1631.3],[-120.8621,39.99795,1631.71],[-120.86198,39.99782,1632.24],[-120.86188,39.99764,1634.42],[-120.86184,39.9975,1636.55],[-120.86175,39.99746,1637.73],[-120.86169,39.9974,1639.36],[-120.8617,39.99734,1640.66],[-120.86177,39.99729,1641.69],[-120.86186,39.9973,1641.66],[-120.8621,39.9973,1642.59],[-120.86233,39.99727,1643.9],[-120.86252,39.99727,1643.55],[-120.86271,39.99724,1641.35],[-120.86305,39.99709,1638.19],[-120.86329,39.99696,1637.02],[-120.86348,39.9969,1635.11],[-120.86359,39.99678,1633.97],[-120.86363,39.99664,1632.84],[-120.86369,39.99656,1631.51],[-120.86381,39.99649,1629.73],[-120.86392,39.99641,1627.95],[-120.86403,39.99636,1626.4],[-120.86409,39.99633,1625.56],[-120.8641,39.99629,1625.17],[-120.86408,39.99625,1625.08],[-120.86403,39.99616,1624.93],[-120.86394,39.99604,1624.98],[-120.86381,39.99594,1625.31],[-120.8638,39.99587,1624.81],[-120.86383,39.99578,1623.92],[-120.8639,39.99569,1622.71],[-120.86397,39.99563,1621.35],[-120.86409,39.9956,1619.88],[-120.86428,39.99548,1616.59],[-120.86439,39.99545,1615.4],[-120.86452,39.99548,1614.89],[-120.86519,39.99572,1615.07],[-120.86556,39.99581,1615.18],[-120.86579,39.99591,1617.25],[-120.86592,39.99601,1618.63],[-120.8661,39.99613,1621.16],[-120.86629,39.9962,1623.57],[-120.86645,39.99623,1623.66],[-120.86661,39.99617,1623.84],[-120.86671,39.99608,1621.09],[-120.86682,39.99596,1618.36],[-120.86691,39.99584,1615.78],[-120.86701,39.99571,1613.8],[-120.8671,39.99553,1614.05],[-120.86719,39.99537,1616.46],[-120.86726,39.9953,1618.72],[-120.86734,39.99525,1620.41],[-120.86747,39.99528,1620.55],[-120.86759,39.99526,1621.6],[-120.86814,39.99506,1627.38],[-120.86826,39.99505,1628.55],[-120.86835,39.99507,1628.68],[-120.86852,39.99519,1627.01],[-120.86866,39.99528,1626.6],[-120.86899,39.99539,1623.89],[-120.8691,39.99538,1622.55],[-120.86916,39.99534,1621.73],[-120.86919,39.99527,1621.29],[-120.86924,39.99512,1620.78],[-120.86922,39.99499,1622.22],[-120.86915,39.99493,1623.43],[-120.86908,39.99485,1624.9],[-120.86909,39.99477,1626.14],[-120.86917,39.99473,1626.14],[-120.86935,39.99476,1624.14],[-120.86962,39.99477,1622.36],[-120.86987,39.99476,1620.47],[-120.87036,39.99464,1616.48],[-120.87052,39.99459,1614.44],[-120.87064,39.99458,1612.64],[-120.87081,39.99461,1609.5],[-120.87097,39.99459,1606.26],[-120.8712,39.99454,1600.83],[-120.8714,39.99448,1595.54],[-120.87147,39.99442,1593.67],[-120.87153,39.99442,1592.04],[-120.87157,39.99444,1590.95],[-120.87157,39.99447,1590.95],[-120.87157,39.99454,1590.95],[-120.87155,39.99461,1591.48],[-120.87154,39.99466,1591.35],[-120.87157,39.99473,1589.97],[-120.87162,39.99479,1588.19],[-120.87171,39.9948,1585.79],[-120.8718,39.99478,1583.93],[-120.87191,39.99476,1581.97],[-120.87198,39.99471,1580.95],[-120.87204,39.99467,1580.03],[-120.87212,39.99458,1578.8],[-120.87216,39.99452,1578.01],[-120.87222,39.99452,1577.12],[-120.87226,39.99452,1576.52],[-120.87229,39.99456,1576.26],[-120.87234,39.99474,1575.31],[-120.87246,39.9948,1573.6],[-120.87264,39.99479,1571.79],[-120.8728,39.99475,1570.13],[-120.87281,39.99475,1570.05],[-120.8729,39.99472,1569.24],[-120.87297,39.99463,1568.39],[-120.87308,39.99457,1566.87],[-120.87324,39.99451,1565.93],[-120.87342,39.9943,1563.91],[-120.8735,39.99423,1563.5],[-120.87365,39.99416,1564.61],[-120.87381,39.9941,1566.21],[-120.87388,39.99404,1566.97],[-120.87393,39.99399,1567.51],[-120.87386,39.99391,1565.61],[-120.87374,39.99385,1563.13],[-120.87365,39.99375,1560.81],[-120.87354,39.99355,1557.03],[-120.87348,39.99343,1554.28],[-120.87353,39.99321,1551.52],[-120.87348,39.99303,1547.23],[-120.87347,39.99277,1541.02],[-120.87359,39.99246,1535.37],[-120.8742,39.99195,1530.83],[-120.87471,39.99142,1521.13],[-120.875,39.99121,1518.24],[-120.87513,39.99107,1515.92],[-120.87523,39.99089,1511.87],[-120.87528,39.99072,1507.34],[-120.87532,39.99055,1502.37],[-120.8753,39.99038,1496.21],[-120.87532,39.99026,1492.29],[-120.8755,39.9901,1490],[-120.87576,39.99002,1490.08],[-120.87594,39.98992,1487.85],[-120.87612,39.98984,1485.07],[-120.87626,39.98982,1483.78],[-120.87645,39.98989,1483.42],[-120.87649,39.98988,1482.66],[-120.8765,39.98984,1481.4],[-120.87642,39.9898,1481.28],[-120.8763,39.98975,1481.57],[-120.87621,39.98962,1479.75],[-120.87615,39.98953,1477.05],[-120.87606,39.98952,1476.72],[-120.87597,39.98954,1477.37],[-120.87592,39.98959,1479.09],[-120.87585,39.98961,1479.51],[-120.87579,39.9896,1478.36],[-120.87577,39.98956,1476.68],[-120.87581,39.98946,1473.7],[-120.87582,39.98935,1469.96],[-120.87587,39.98928,1467.88],[-120.87593,39.9892,1464.87],[-120.87603,39.98914,1462.78],[-120.8762,39.98912,1462.55],[-120.87643,39.98907,1458.5],[-120.87666,39.98911,1456.6],[-120.87684,39.98916,1454.61],[-120.87696,39.98926,1455.95],[-120.87702,39.98927,1455.82],[-120.87707,39.98922,1453.89],[-120.87704,39.98916,1452.27],[-120.87692,39.98903,1449.55],[-120.87684,39.98884,1445.62],[-120.87668,39.98866,1441.46],[-120.87651,39.98858,1439.48],[-120.87611,39.98856,1438.27],[-120.87602,39.9885,1436],[-120.87597,39.98834,1430.35],[-120.8759,39.98824,1426.81],[-120.87575,39.9882,1425.43],[-120.87562,39.98823,1426.59],[-120.87556,39.98816,1424.1],[-120.8756,39.98803,1419.34],[-120.87577,39.98798,1416.93],[-120.87618,39.98801,1417.43],[-120.87653,39.98802,1418.62],[-120.87708,39.98785,1412.76],[-120.87798,39.98783,1407.81],[-120.87901,39.98727,1397.77],[-120.87951,39.98715,1394.19],[-120.88017,39.98723,1400.12],[-120.88082,39.98718,1397.85],[-120.8813,39.98742,1399.87],[-120.88153,39.98751,1398.9],[-120.88184,39.98755,1394.37],[-120.88222,39.9876,1389.35],[-120.88286,39.98786,1385.72],[-120.88317,39.98815,1385.06],[-120.8834,39.98831,1383.72],[-120.8838,39.98832,1377.43],[-120.88446,39.98853,1372.31],[-120.88468,39.98856,1370.17],[-120.88486,39.98859,1368.07],[-120.88498,39.98856,1366.14],[-120.88497,39.98845,1365.26],[-120.88492,39.98832,1364.65],[-120.88465,39.98791,1362.65],[-120.88437,39.98764,1361.14],[-120.88418,39.98749,1360.58],[-120.88414,39.98729,1357.85],[-120.8841,39.98714,1355.67],[-120.884,39.98695,1353.12],[-120.88399,39.98689,1351.93],[-120.88406,39.98686,1350.7],[-120.88416,39.98686,1349.84],[-120.88427,39.98693,1350.29],[-120.88442,39.98699,1350.14],[-120.88462,39.98702,1349.38],[-120.88481,39.98702,1348.31],[-120.88493,39.98701,1348.01],[-120.885,39.98688,1345.45],[-120.88511,39.98679,1343.79],[-120.88516,39.98669,1341.98],[-120.88526,39.98663,1340.94],[-120.88544,39.98662,1340.96],[-120.8857,39.98666,1341.27],[-120.88592,39.98663,1340.6],[-120.88624,39.98652,1339.76],[-120.88632,39.98642,1339.21],[-120.88627,39.98622,1337.16],[-120.88628,39.98612,1336.47],[-120.88632,39.98606,1336.51],[-120.88634,39.98592,1335.9],[-120.88619,39.98573,1332.65],[-120.88599,39.98556,1328.97],[-120.88598,39.9852,1326.76],[-120.88601,39.98485,1322.36],[-120.88603,39.98467,1319.05],[-120.8861,39.98456,1316.93],[-120.88622,39.98454,1315.85],[-120.8864,39.98457,1313.27],[-120.88656,39.9846,1311.43],[-120.88673,39.98464,1309.2],[-120.88699,39.98473,1311.59],[-120.88716,39.9848,1315.56],[-120.88722,39.98481,1316.78],[-120.88727,39.98478,1317.92],[-120.8873,39.98466,1316.43],[-120.88727,39.98411,1303.53],[-120.88731,39.98367,1294.69],[-120.88739,39.98331,1295.21],[-120.88741,39.98318,1292.97],[-120.88748,39.98304,1290.54],[-120.8876,39.983,1289.34],[-120.8878,39.983,1288.26],[-120.88885,39.98316,1286.58],[-120.88913,39.98316,1288.11],[-120.88926,39.98307,1285.47],[-120.88944,39.98292,1282.65],[-120.89044,39.98281,1286.63],[-120.89086,39.98272,1288.39],[-120.89121,39.98256,1281.17],[-120.89147,39.98256,1276.23],[-120.89165,39.98265,1273.18],[-120.89209,39.98325,1266.75],[-120.89225,39.98335,1266.46],[-120.89246,39.98336,1264.09],[-120.89281,39.98324,1256.23],[-120.89323,39.98322,1253.34],[-120.89361,39.98316,1246.09],[-120.89383,39.98316,1243.03],[-120.89388,39.98316,1242.19],[-120.89388,39.98316,1242.19],[-120.8939,39.98316,1241.86],[-120.8939,39.98316,1241.86],[-120.89391,39.98315,1241.16],[-120.89391,39.98315,1241.16],[-120.89392,39.98315,1241],[-120.89392,39.98315,1241],[-120.89394,39.98315,1240.67],[-120.89394,39.98315,1240.67],[-120.89396,39.98315,1240.34],[-120.89396,39.98315,1240.34],[-120.89397,39.98315,1240.17],[-120.89397,39.98315,1240.17],[-120.89398,39.98315,1240.01],[-120.89398,39.98315,1240.01],[-120.894,39.98315,1239.68],[-120.894,39.98315,1239.68],[-120.89403,39.98315,1239.18],[-120.89403,39.98315,1239.18],[-120.89404,39.98315,1239.02],[-120.89404,39.98315,1239.02],[-120.89404,39.98315,1239.02],[-120.89404,39.98315,1239.02],[-120.89406,39.98315,1238.69],[-120.89406,39.98315,1238.69],[-120.89406,39.98315,1238.69],[-120.89406,39.98315,1238.69],[-120.89408,39.98315,1238.23],[-120.89408,39.98315,1238.23],[-120.89409,39.98315,1237.94],[-120.89409,39.98315,1237.94],[-120.8941,39.98315,1237.65],[-120.8941,39.98315,1237.65],[-120.89411,39.98315,1237.36],[-120.89411,39.98315,1237.36],[-120.89413,39.98315,1236.79],[-120.89413,39.98315,1236.79],[-120.89413,39.98315,1236.79],[-120.89413,39.98315,1236.79],[-120.89414,39.98315,1236.5],[-120.89414,39.98315,1236.5],[-120.89415,39.98315,1236.21],[-120.89415,39.98315,1236.21],[-120.89417,39.98315,1235.63],[-120.89417,39.98315,1235.63],[-120.89417,39.98315,1235.63],[-120.89417,39.98315,1235.63],[-120.89418,39.98315,1235.34],[-120.89418,39.98315,1235.34],[-120.89419,39.98315,1235.05],[-120.89419,39.98315,1235.05],[-120.89419,39.98315,1235.05],[-120.8942,39.98315,1234.76],[-120.8942,39.98315,1234.76],[-120.89421,39.98315,1234.48],[-120.89421,39.98315,1234.48],[-120.89422,39.98315,1234.19],[-120.89422,39.98315,1234.19],[-120.89423,39.98314,1233.47],[-120.89423,39.98314,1233.47],[-120.89423,39.98314,1233.47],[-120.89423,39.98314,1233.47],[-120.89424,39.98314,1233.18],[-120.89424,39.98314,1233.18],[-120.89425,39.98314,1232.9],[-120.89425,39.98314,1232.9],[-120.89426,39.98314,1232.61],[-120.89426,39.98314,1232.61],[-120.89427,39.98314,1232.33],[-120.89427,39.98314,1232.33],[-120.89428,39.98313,1231.63],[-120.89428,39.98313,1231.63],[-120.89429,39.98313,1231.35],[-120.89429,39.98313,1231.35],[-120.8943,39.98313,1231.07],[-120.8943,39.98313,1231.07],[-120.8943,39.98313,1231.07],[-120.8943,39.98313,1231.07],[-120.89431,39.98313,1230.79],[-120.89431,39.98313,1230.79],[-120.89433,39.98313,1230.23],[-120.89433,39.98313,1230.23],[-120.89434,39.98312,1229.57],[-120.89434,39.98312,1229.57],[-120.89435,39.98312,1229.3],[-120.89435,39.98312,1229.3],[-120.89436,39.98312,1229.02],[-120.89436,39.98312,1229.02],[-120.89437,39.98312,1228.75],[-120.89437,39.98312,1228.75],[-120.89438,39.98312,1228.47],[-120.89438,39.98312,1228.47],[-120.89439,39.98312,1228.2],[-120.89439,39.98312,1228.2],[-120.89439,39.98311,1227.84],[-120.89439,39.98311,1227.84],[-120.89441,39.98311,1227.3],[-120.89441,39.98311,1227.3],[-120.89441,39.98311,1227.3],[-120.89441,39.98311,1227.3],[-120.89442,39.98311,1227.02],[-120.89442,39.98311,1227.02],[-120.89443,39.98311,1226.75],[-120.89443,39.98311,1226.75],[-120.89445,39.9831,1225.88],[-120.89445,39.9831,1225.88],[-120.89446,39.9831,1225.61],[-120.89446,39.9831,1225.61],[-120.89446,39.9831,1225.61],[-120.89446,39.9831,1225.61],[-120.89447,39.9831,1225.35],[-120.89447,39.9831,1225.35],[-120.89448,39.9831,1225.08],[-120.89448,39.9831,1225.08],[-120.8945,39.9831,1224.55],[-120.8945,39.9831,1224.55],[-120.89451,39.98309,1224.01],[-120.89451,39.98309,1224.01],[-120.89453,39.98309,1223.49],[-120.89453,39.98309,1223.49],[-120.89455,39.98309,1222.98],[-120.89455,39.98309,1222.98],[-120.89457,39.98308,1222.24],[-120.89457,39.98308,1222.24],[-120.89459,39.98308,1221.74],[-120.8946,39.98308,1221.49],[-120.8946,39.98308,1221.49],[-120.89461,39.98308,1221.24],[-120.89461,39.98308,1221.24],[-120.89461,39.98308,1221.24],[-120.89461,39.98308,1221.24],[-120.89462,39.98308,1220.99],[-120.89462,39.98308,1220.99],[-120.89463,39.98308,1220.74],[-120.89463,39.98308,1220.74],[-120.89465,39.98308,1220.24],[-120.89465,39.98308,1220.24],[-120.89465,39.98308,1220.24],[-120.89465,39.98308,1220.24],[-120.89466,39.98308,1219.99],[-120.89466,39.98308,1219.99],[-120.89467,39.98308,1219.74],[-120.89467,39.98308,1219.74],[-120.89468,39.98308,1219.49],[-120.89468,39.98308,1219.49],[-120.89469,39.98308,1219.24],[-120.89469,39.98308,1219.24],[-120.8947,39.98308,1218.99],[-120.8947,39.98308,1218.99],[-120.89471,39.98308,1218.74],[-120.89471,39.98308,1218.74],[-120.89473,39.98308,1218.24],[-120.89473,39.98308,1218.24],[-120.89474,39.98308,1217.99],[-120.89474,39.98308,1217.99],[-120.89477,39.98308,1217.58],[-120.89477,39.98308,1217.58],[-120.89478,39.98308,1217.58],[-120.89478,39.98308,1217.58],[-120.89479,39.98308,1217.58],[-120.89479,39.98308,1217.58],[-120.89479,39.98308,1217.58],[-120.89479,39.98308,1217.58],[-120.8948,39.98308,1217.57],[-120.8948,39.98308,1217.57],[-120.89481,39.98308,1217.57],[-120.89481,39.98308,1217.57],[-120.89482,39.98308,1217.57],[-120.89482,39.98308,1217.57],[-120.89483,39.98308,1217.57],[-120.89483,39.98308,1217.57],[-120.89484,39.98308,1217.56],[-120.89484,39.98308,1217.56],[-120.89485,39.98308,1217.56],[-120.89485,39.98308,1217.56],[-120.89485,39.98308,1217.56],[-120.89485,39.98308,1217.56],[-120.89486,39.98308,1217.56],[-120.89486,39.98308,1217.56],[-120.89487,39.98308,1217.56],[-120.89487,39.98308,1217.56],[-120.89489,39.98308,1217.55],[-120.89489,39.98308,1217.55],[-120.8949,39.98308,1217.55],[-120.8949,39.98308,1217.55],[-120.89492,39.98308,1217.54],[-120.89492,39.98308,1217.54],[-120.89494,39.98308,1217.54],[-120.89494,39.98308,1217.54],[-120.89496,39.98308,1217.53],[-120.89496,39.98308,1217.53],[-120.89497,39.98308,1217.53],[-120.89497,39.98308,1217.53],[-120.89498,39.98308,1217.53],[-120.89498,39.98308,1217.53],[-120.89499,39.98308,1217.53],[-120.89499,39.98308,1217.53],[-120.895,39.98308,1217.52],[-120.895,39.98308,1217.52],[-120.89501,39.98308,1217.52],[-120.89501,39.98308,1217.52],[-120.89501,39.98308,1217.52],[-120.89501,39.98308,1217.52],[-120.89502,39.98308,1217.52],[-120.89502,39.98308,1217.52],[-120.89503,39.98309,1217.38],[-120.89515,39.98309,1217.68],[-120.89581,39.98303,1224.07],[-120.89617,39.98307,1222.13],[-120.89652,39.98324,1211.52],[-120.89692,39.98321,1208.04],[-120.8976,39.98325,1194.59],[-120.89811,39.98313,1192.88],[-120.89827,39.98307,1194.58],[-120.8984,39.98312,1191.26],[-120.89872,39.98318,1186.38],[-120.89917,39.98315,1184.03],[-120.89942,39.98315,1179.9],[-120.89962,39.98311,1177.68],[-120.89987,39.98298,1176.95],[-120.90004,39.98292,1175.15],[-120.90012,39.98277,1176.37],[-120.90021,39.98272,1173.58],[-120.90026,39.98276,1173.43],[-120.90025,39.98282,1173.22],[-120.9002,39.98294,1171.93],[-120.90003,39.98317,1167.03],[-120.89984,39.98333,1163.19],[-120.89961,39.98342,1164.61],[-120.89867,39.98358,1162.52],[-120.89844,39.98364,1161.25],[-120.89832,39.9839,1151.46],[-120.89808,39.98405,1149.45],[-120.8978,39.98419,1148.19],[-120.89739,39.98438,1146.73],[-120.89709,39.98447,1145.58],[-120.89691,39.98444,1149.5],[-120.89679,39.98448,1147.97],[-120.89679,39.98474,1132.95],[-120.89655,39.98539,1124.78],[-120.89653,39.98551,1122.75],[-120.8966,39.98566,1117.82],[-120.89678,39.98568,1113.9],[-120.89694,39.98562,1112.72],[-120.89706,39.9855,1111.04],[-120.89718,39.9853,1109.1],[-120.89748,39.98502,1110.55],[-120.89765,39.9849,1112.86],[-120.89836,39.98462,1114.85],[-120.89863,39.98451,1116.43],[-120.89897,39.98451,1108.2],[-120.89937,39.9845,1100.55],[-120.89976,39.9846,1093.84],[-120.89998,39.9847,1089.84],[-120.90026,39.98471,1087.5],[-120.90034,39.98469,1086.84],[-120.90055,39.98463,1084.57],[-120.901,39.98444,1083.64],[-120.90129,39.98447,1078.93],[-120.90166,39.98433,1076.03],[-120.9019,39.98432,1072.18],[-120.90203,39.98421,1073.02],[-120.90221,39.98417,1071.18],[-120.90241,39.98403,1072.14],[-120.90252,39.984,1072.03],[-120.90265,39.98402,1069.63],[-120.90265,39.98403,1069.21],[-120.90283,39.98388,1074.39],[-120.90295,39.98384,1075.41],[-120.90333,39.98375,1071.82],[-120.90344,39.98367,1070.37],[-120.90356,39.98348,1070.55],[-120.90398,39.98293,1072.34],[-120.90416,39.98276,1074.09],[-120.90435,39.98259,1075.42],[-120.90435,39.9825,1077.32],[-120.90415,39.98243,1076.27],[-120.90403,39.98243,1076.72],[-120.90387,39.98239,1079.67],[-120.90374,39.9824,1082.91],[-120.90367,39.98241,1084.74],[-120.90359,39.9824,1087.15],[-120.90354,39.98235,1088.64],[-120.90355,39.98228,1088.19],[-120.90362,39.98226,1085.51],[-120.90372,39.9822,1083.9],[-120.90383,39.98213,1082.5],[-120.90388,39.98202,1083.71],[-120.90395,39.98193,1083.77],[-120.90388,39.98202,1083.71],[-120.90383,39.98213,1082.5],[-120.90372,39.9822,1083.9],[-120.90362,39.98226,1085.51],[-120.90355,39.98228,1088.19],[-120.90354,39.98235,1088.64],[-120.90359,39.9824,1087.15],[-120.90367,39.98241,1084.74],[-120.90374,39.9824,1082.91],[-120.90387,39.98239,1079.67],[-120.90403,39.98243,1076.72],[-120.90415,39.98243,1076.27],[-120.90435,39.9825,1077.32],[-120.90435,39.98259,1075.42],[-120.90416,39.98276,1074.09],[-120.90398,39.98293,1072.34],[-120.90356,39.98348,1070.55],[-120.90344,39.98367,1070.37],[-120.90333,39.98375,1071.82],[-120.90295,39.98384,1075.41],[-120.90283,39.98388,1074.39],[-120.90281,39.9839,1073.66],[-120.90283,39.98388,1074.39],[-120.90295,39.98384,1075.41],[-120.90333,39.98375,1071.82],[-120.90344,39.98367,1070.37],[-120.90356,39.98348,1070.55],[-120.90398,39.98293,1072.34],[-120.90416,39.98276,1074.09],[-120.90435,39.98259,1075.42],[-120.90435,39.9825,1077.32],[-120.90415,39.98243,1076.27],[-120.90403,39.98243,1076.72],[-120.90387,39.98239,1079.67],[-120.90374,39.9824,1082.91],[-120.90367,39.98241,1084.74],[-120.90359,39.9824,1087.15],[-120.90354,39.98235,1088.64],[-120.90355,39.98228,1088.19],[-120.90362,39.98226,1085.51],[-120.90372,39.9822,1083.9],[-120.90383,39.98213,1082.5],[-120.90388,39.98202,1083.71],[-120.90405,39.98179,1084.61],[-120.90412,39.98154,1088.85],[-120.90421,39.98139,1087.08],[-120.90417,39.98123,1091.16],[-120.90415,39.98113,1092.25],[-120.90409,39.98099,1094.87],[-120.90408,39.9809,1094.47],[-120.90404,39.98079,1094.73],[-120.90401,39.98074,1095.25],[-120.90401,39.98074,1095.25],[-120.90401,39.98073,1095.07],[-120.90401,39.98073,1095.07],[-120.90401,39.98073,1095.07],[-120.90399,39.98068,1094.96],[-120.90399,39.98068,1094.96],[-120.90399,39.98067,1094.76],[-120.90399,39.98067,1094.76],[-120.90399,39.98066,1094.48],[-120.90399,39.98066,1094.48],[-120.90398,39.98064,1094.33],[-120.90398,39.98064,1094.33],[-120.90398,39.98063,1094.04],[-120.90398,39.98063,1094.04],[-120.90398,39.98062,1093.76],[-120.90398,39.98062,1093.76],[-120.90397,39.98061,1093.9],[-120.90397,39.98061,1093.9],[-120.90397,39.9806,1093.62],[-120.90397,39.9806,1093.62],[-120.90397,39.98059,1093.34],[-120.90397,39.98059,1093.34],[-120.90397,39.98058,1093.06],[-120.90397,39.98058,1093.06],[-120.90396,39.98057,1093.21],[-120.90396,39.98057,1093.21],[-120.90396,39.98056,1092.93],[-120.90396,39.98056,1092.93],[-120.90396,39.98055,1092.66],[-120.90396,39.98055,1092.66],[-120.90395,39.98054,1092.81],[-120.90395,39.98054,1092.81],[-120.90395,39.98053,1092.54],[-120.90395,39.98053,1092.54],[-120.90395,39.98052,1092.26],[-120.90395,39.98052,1092.26],[-120.90394,39.98051,1092.43],[-120.90394,39.98051,1092.43],[-120.90394,39.98049,1091.88],[-120.90394,39.98049,1091.88],[-120.90394,39.98048,1091.6],[-120.90394,39.98048,1091.6],[-120.90393,39.98047,1091.78],[-120.90393,39.98047,1091.78],[-120.90393,39.98046,1091.5],[-120.90393,39.98046,1091.5],[-120.90393,39.98045,1091.23],[-120.90393,39.98045,1091.23],[-120.90392,39.98043,1091.14],[-120.90392,39.98043,1091.14],[-120.90392,39.98043,1091.14],[-120.90391,39.98042,1091.33],[-120.90391,39.98042,1091.33],[-120.90391,39.98041,1091.06],[-120.90391,39.98041,1091.06],[-120.9039,39.9804,1091.2],[-120.9039,39.9804,1091.2],[-120.90389,39.98039,1091.33],[-120.90389,39.98039,1091.33],[-120.90388,39.98038,1091.46],[-120.90388,39.98038,1091.46],[-120.90387,39.98037,1091.6],[-120.90387,39.98037,1091.6],[-120.90386,39.98035,1091.42],[-120.90386,39.98035,1091.42],[-120.90385,39.98034,1091.56],[-120.90385,39.98034,1091.56],[-120.90384,39.98032,1091.39],[-120.90384,39.98032,1091.39],[-120.90384,39.98031,1091.07],[-120.90384,39.98031,1091.07],[-120.90383,39.98031,1091.54],[-120.90383,39.98031,1091.54],[-120.90383,39.9803,1091.22],[-120.90383,39.9803,1091.22],[-120.90382,39.98028,1091.06],[-120.90382,39.98028,1091.06],[-120.90381,39.98027,1091.22],[-120.90381,39.98027,1091.22],[-120.9038,39.98026,1091.39],[-120.9038,39.98026,1091.39],[-120.9038,39.98025,1091.07],[-120.9038,39.98025,1091.07],[-120.90379,39.98024,1091.24],[-120.90379,39.98024,1091.24],[-120.90378,39.98023,1091.41],[-120.90378,39.98023,1091.41],[-120.90377,39.98022,1091.59],[-120.90377,39.98022,1091.59],[-120.90377,39.98021,1091.27],[-120.90377,39.98021,1091.27],[-120.90376,39.9802,1091.45],[-120.90376,39.9802,1091.45],[-120.90375,39.98019,1091.64],[-120.90366,39.98006,1091.05],[-120.90359,39.9799,1087.47],[-120.90348,39.97968,1082.27],[-120.90338,39.97954,1080.06],[-120.90315,39.97941,1081.55],[-120.90303,39.97919,1076.82],[-120.90288,39.97909,1078.47],[-120.9028,39.979,1080.4],[-120.90288,39.97889,1075.47],[-120.90286,39.97878,1074.82],[-120.90291,39.97859,1069.32],[-120.90282,39.97848,1071.23],[-120.90278,39.97832,1068.32],[-120.90263,39.97819,1068.12],[-120.90245,39.97812,1068.53],[-120.90225,39.97809,1069.5],[-120.90199,39.97808,1068.33],[-120.90179,39.97804,1065.4],[-120.90159,39.97795,1061.6],[-120.9014,39.97789,1060.23],[-120.90116,39.9779,1060.93],[-120.90093,39.97795,1061.93],[-120.90068,39.97798,1061.65],[-120.90058,39.978,1061.66],[-120.90045,39.97796,1062.44],[-120.90035,39.97791,1063.13],[-120.90035,39.97784,1062.68],[-120.90043,39.97779,1061.13],[-120.90064,39.97776,1058.48],[-120.90077,39.97769,1058.22],[-120.90086,39.9776,1057.53],[-120.90096,39.97751,1056.28],[-120.90096,39.97747,1057.51],[-120.90089,39.97745,1059.07],[-120.90078,39.97748,1059.99],[-120.90069,39.97755,1060.17],[-120.90063,39.97755,1061.09],[-120.90061,39.97751,1062],[-120.90062,39.97746,1063.24],[-120.90084,39.97734,1063.24],[-120.90113,39.97719,1065.61],[-120.9012,39.97716,1066.27],[-120.90122,39.97713,1067.58],[-120.90116,39.97711,1069.56],[-120.90109,39.97712,1070.08],[-120.90101,39.97711,1071.87],[-120.90091,39.97716,1070.3],[-120.90082,39.97715,1071.8],[-120.90088,39.97708,1075.21],[-120.90103,39.97703,1076.17],[-120.90119,39.97695,1078.21],[-120.90166,39.97669,1081.44],[-120.90176,39.97661,1082.96],[-120.90186,39.97649,1086.23],[-120.90216,39.97634,1083.35],[-120.90241,39.97614,1084.16],[-120.90244,39.97611,1084.79],[-120.9025,39.97583,1099.61],[-120.90261,39.97571,1103.29],[-120.90288,39.97564,1095.97],[-120.903,39.97556,1096.19],[-120.90308,39.97546,1099.17],[-120.90318,39.97543,1096.18],[-120.9036,39.97505,1102.26],[-120.90372,39.97498,1101.22],[-120.90385,39.97487,1101.81],[-120.90412,39.97452,1105.74],[-120.9043,39.97438,1104.1],[-120.90433,39.97434,1104.91],[-120.90433,39.97429,1107.88],[-120.9043,39.97428,1109.69],[-120.90419,39.97435,1110.44],[-120.90402,39.97449,1111.74],[-120.90386,39.97464,1112.75],[-120.90371,39.97473,1115.58],[-120.90304,39.97511,1123.11],[-120.90294,39.97515,1124.61],[-120.90249,39.9752,1135.74],[-120.90219,39.97529,1139.1],[-120.90206,39.9754,1137.2],[-120.90191,39.97549,1136.26],[-120.90182,39.97556,1134.75],[-120.90167,39.97563,1134.5],[-120.90148,39.97567,1135.08],[-120.90136,39.97567,1136.14],[-120.90107,39.97556,1140.76],[-120.901,39.97552,1141.94],[-120.90091,39.97547,1143.18],[-120.90081,39.97538,1144.95],[-120.90069,39.97535,1145.01],[-120.9006,39.97527,1145.95],[-120.90036,39.97518,1145.54],[-120.9002,39.97509,1145.26],[-120.90004,39.97505,1145.09],[-120.8999,39.97499,1144.52],[-120.89966,39.97491,1145.96],[-120.89959,39.97488,1146.27],[-120.89951,39.9748,1146.54],[-120.8995,39.97472,1145.98],[-120.89953,39.97435,1141.37],[-120.89952,39.97425,1139.86],[-120.89949,39.97415,1138.57],[-120.89929,39.97379,1134.74],[-120.8992,39.97352,1133.57],[-120.89921,39.97346,1133.61],[-120.89938,39.97316,1130.63],[-120.8996,39.97292,1124.25],[-120.89966,39.97284,1122.92],[-120.89969,39.97276,1121.92],[-120.89969,39.9726,1121],[-120.89956,39.97234,1124.93],[-120.89955,39.97225,1126.14],[-120.8996,39.9722,1126.88],[-120.89982,39.97209,1124.96],[-120.89992,39.97202,1124.17],[-120.90012,39.97182,1118.43],[-120.90016,39.97175,1117.19],[-120.90017,39.97168,1117.23],[-120.90009,39.97143,1121.67],[-120.90014,39.97132,1122.74],[-120.90019,39.97128,1122.87],[-120.90027,39.97126,1122.39],[-120.90038,39.97129,1120.39],[-120.90065,39.97129,1117.45],[-120.90074,39.97126,1117.2],[-120.90083,39.97117,1117.82],[-120.90084,39.97112,1117.86],[-120.90081,39.97097,1119.24],[-120.90069,39.97078,1119.88],[-120.90058,39.9707,1121.21],[-120.9004,39.97064,1124.68],[-120.90022,39.97057,1127.36],[-120.90008,39.9705,1129.18],[-120.90004,39.97044,1128.81],[-120.9,39.97026,1130.21],[-120.8999,39.97007,1135.19],[-120.8999,39.97,1137.47],[-120.89994,39.96993,1139.21],[-120.89998,39.96988,1140.34],[-120.90019,39.96963,1143.37],[-120.90027,39.96953,1142.19],[-120.90061,39.96942,1138.63]]}}
