{"type":"Feature","properties":{"name":"Beckwourth Peak — BKXC September 25 ride","sourceUrl":"https://www.trailforks.com/ridelog/view/124349783/","note":"Cleaned phone recording with healed shared stem. This is a different recording from the planner’s original route link."},"geometry":{"type":"LineString","coordinates":[[-120.4654840887232,39.80560190801293,1485.2],[-120.4654139522838,39.805503093783685,1485.4],[-120.46530874762469,39.80527851598994,1485.5],[-120.46518016415244,39.805179701760686,1485.7],[-120.4651217171196,39.80511681997844,1485.8],[-120.46503989127363,39.805089870643194,1485.9],[-120.46438528450584,39.80493715774344,1487.5],[-120.46431514806643,39.80481139417894,1487.7],[-120.46420994340733,39.80475749550845,1488],[-120.46417487518762,39.80472156306144,1488.1],[-120.46389432943,39.804452069708944,1488.5],[-120.46382419299059,39.80439817103845,1488.4],[-120.46376574595776,39.804389187926695,1488.4],[-120.46364885189207,39.804389187926695,1488.6],[-120.4635670260461,39.804326306144446,1488.3],[-120.4632046544425,39.80438020481495,1489.2],[-120.46311113918996,39.80439817103845,1489.6],[-120.46293579809145,39.8043712217032,1489.9],[-120.46260849470755,39.804272407473945,1490.1],[-120.46246822182874,39.8041915594682,1489.9],[-120.46225781251053,39.8041556270212,1490.4],[-120.46212922903828,39.80411071146245,1490.5],[-120.46198895615947,39.80409274523895,1490.9],[-120.46182530446752,39.8041017283507,1491.5],[-120.4610421142275,39.80421850880345,1496],[-120.46085508372241,39.8042095256917,1497.2],[-120.4604927121188,39.80423647502695,1499.3],[-120.46023554517433,39.804182576356446,1500.1],[-120.45994331001013,39.8040478296802,1500.4],[-120.45953418078027,39.8038142687747,1501.2],[-120.45934715027518,39.80378731943945,1501.8],[-120.45927701383577,39.803823251886456,1502],[-120.45924194561607,39.8037783363277,1502.2],[-120.45920687739637,39.803688505210204,1502.3],[-120.45923025620951,39.80351782608695,1502.2],[-120.45910167273726,39.80341002874596,1502.5],[-120.45907829392412,39.80326629895796,1502.4],[-120.45893802104531,39.80320341717571,1502.6],[-120.45880943757307,39.80315850161696,1502.9],[-120.45870423291396,39.803068670499464,1502.9],[-120.45854058122201,39.80305070427596,1503.4],[-120.4584353765629,39.802951890046714,1503.3],[-120.45797948970676,39.80285307581746,1506.1],[-120.45769894394914,39.802628498023715,1509.2],[-120.4576054286966,39.80255663312972,1510.2],[-120.45748853463093,39.802511717570965,1511.4],[-120.457243057093,39.80226917355372,1513.1],[-120.45725474649957,39.80218832554797,1512.6],[-120.457243057093,39.80220629177147,1512.8],[-120.45716123124703,39.80217035932447,1513],[-120.45706771599448,39.80215239310097,1513.5],[-120.45688068548941,39.80197273086597,1513.2],[-120.45682223845657,39.80194578153072,1513.3],[-120.45657676091865,39.80178408551922,1512.9],[-120.45642479863326,39.80170323751347,1512.4],[-120.45631959397416,39.80166730506647,1512.6],[-120.45614425287565,39.801577473948974,1512.5],[-120.4557585024589,39.80144272727273,1512.4],[-120.45562991898666,39.80132594681998,1511.7],[-120.45554809314069,39.80121814947898,1510.9],[-120.45562991898666,39.80117323392023,1509.7],[-120.45573512364578,39.80121814947898,1509.6],[-120.45584032830489,39.80121814947898,1508.7],[-120.45589877533772,39.80119120014373,1507.9],[-120.45603904821654,39.80108340280273,1505.8],[-120.45629621516102,39.80093967301473,1505.9],[-120.4564131092267,39.80091272367948,1506.6],[-120.45656507151207,39.80090374056773,1507.1],[-120.45681054905,39.800930689902984,1506.6],[-120.45686899608283,39.80091272367948,1507.3],[-120.45690406430253,39.80087679123248,1508.4],[-120.45686899608283,39.80084984189723,1509.3],[-120.4567754808303,39.80085882500898,1508.7],[-120.45651831388581,39.800777977003236,1510.1],[-120.45643648803983,39.80073306144448,1510.7],[-120.4564131092267,39.80065221343874,1512],[-120.45643648803983,39.800544416097736,1514],[-120.45647155625953,39.800517466762486,1514.5],[-120.4564832456661,39.800436618756734,1515.7],[-120.45645986685297,39.80039170319799,1516.2],[-120.45640141982012,39.800346787639235,1516.5],[-120.45623776812819,39.80035577075099,1515.9],[-120.4559806011837,39.80029288896874,1516.4],[-120.45588708593115,39.80023899029824,1517.5],[-120.45584032830489,39.80014017606899,1518.8],[-120.45574681305234,39.80008627739849,1519.5],[-120.45560654017353,39.80013119295724,1519.3],[-120.45553640373413,39.80024797340999,1518],[-120.45545457788815,39.80030187208049,1517.1],[-120.45543119907501,39.80029288896874,1517.3],[-120.4553961308553,39.80014915918074,1519.5],[-120.4553259944159,39.80010424362199,1520.4],[-120.45524416856993,39.79998746316924,1522.1],[-120.45510389569112,39.79995153072224,1522.9],[-120.45502206984514,39.79988864893999,1524],[-120.45491686518604,39.79973593604024,1526.2],[-120.45490517577947,39.799700003593244,1526.7],[-120.45490517577947,39.799664071146246,1527],[-120.45498700162544,39.799520341358246,1528.3],[-120.45557147195383,39.799241864894,1528.6],[-120.45554809314069,39.79917898311175,1529.7],[-120.45548964610785,39.7991520337765,1530.9],[-120.45544288848158,39.799098135106,1532.3],[-120.45518572153709,39.79898135465325,1535.6],[-120.45511558509769,39.79898135465325,1535.4],[-120.45496362281231,39.798882540424,1536.3],[-120.4548934863729,39.79880169241825,1537.1],[-120.45490517577947,39.79869389507726,1538.9],[-120.45495193340574,39.798648979518504,1539.7],[-120.45499869103202,39.79863101329501,1540.1],[-120.45503375925172,39.79860406395976,1540.7],[-120.45510389569112,39.79857711462451,1541.1],[-120.45511558509769,39.79855016528926,1541.6],[-120.45511558509769,39.79854118217751,1541.7],[-120.45502206984514,39.79855016528926,1541.4],[-120.45496362281231,39.798532199065754,1541.6],[-120.45488179696633,39.798532199065754,1541.2],[-120.45474152408752,39.79845135106001,1541.7],[-120.45465969824156,39.798352536830755,1543],[-120.45453111476931,39.79830762127201,1543.7],[-120.45428563723138,39.79828965504851,1544.5],[-120.45416874316571,39.79822677326626,1545.6],[-120.45407522791317,39.79817287459576,1546.6],[-120.4539934020672,39.79805609414301,1548.6],[-120.4539232656278,39.79800219547251,1549.5],[-120.45386481859495,39.797966263025515,1549.3],[-120.45382975037525,39.797912364355014,1550],[-120.45372454571614,39.797795583902264,1550.4],[-120.4537713033424,39.797822533237515,1550.7],[-120.45387650800151,39.79777761767876,1553.1],[-120.45405184910003,39.797822533237515,1553.7],[-120.45448435714303,39.79775066834351,1556.7],[-120.45492855459261,39.797786600790516,1556.6],[-120.45527923678964,39.79774168523176,1557.5],[-120.45546626729472,39.79766083722601,1558.3],[-120.45545457788815,39.79763388789077,1559.1],[-120.45544288848158,39.797615921667266,1559.5],[-120.45538444144874,39.797642871002516,1559.4],[-120.45494024399918,39.79757998922027,1562.7],[-120.45482334993349,39.79755303988502,1563.5],[-120.45462463002184,39.79751710743802,1564.1],[-120.45451942536273,39.79751710743802,1563.8],[-120.4544609783299,39.797499141214516,1564.3],[-120.45447266773647,39.79745422565577,1565.9],[-120.45449604654961,39.79742727632052,1566.7],[-120.45456618298901,39.797418293208764,1567.4],[-120.45482334993349,39.79743625943227,1567.2],[-120.45512727450425,39.79740931009702,1567.7],[-120.4553259944159,39.79736439453827,1568.5],[-120.45538444144874,39.79731947897952,1569.7],[-120.45552471432755,39.797265580309016,1571],[-120.45564160839324,39.79725659719727,1571],[-120.45580526008519,39.797265580309016,1570.8],[-120.45603904821654,39.79731947897952,1569.4],[-120.4560858058428,39.79731947897952,1568.9],[-120.45622607872161,39.79729252964427,1568.5],[-120.4563429727873,39.79722964786202,1569],[-120.45643648803983,39.79720269852677,1568.3],[-120.45658845032521,39.79712185052102,1568.4],[-120.45664689735806,39.79706795185052,1569],[-120.45675210201716,39.79689727272727,1570.6],[-120.45679885964343,39.79671761049227,1572.2],[-120.45679885964343,39.79660981315128,1573.2],[-120.4568456172697,39.79652896514553,1573.2],[-120.45685730667627,39.79643015091628,1572.9],[-120.45678717023686,39.79616065756378,1573.3],[-120.45670534439088,39.79592709665828,1573.2],[-120.45656507151207,39.79581929931728,1575.1],[-120.45654169269895,39.79572048508803,1575.3],[-120.45656507151207,39.79557675530003,1575.3],[-120.45662351854492,39.795513873517784,1574.5],[-120.45663520795148,39.795450991735535,1574.5],[-120.45661182913835,39.79534319439454,1576.1],[-120.45661182913835,39.79528929572404,1576.5],[-120.45663520795148,39.795244380165286,1576.3],[-120.45663520795148,39.79510065037729,1576.9],[-120.45650662447925,39.79486708947179,1580.3],[-120.45649493507267,39.79475929213079,1580.2],[-120.45645986685297,39.79469641034854,1580.7],[-120.45643648803983,39.794597596119296,1580],[-120.45638973041356,39.794480815666546,1579.7],[-120.4563429727873,39.794426916996045,1580.2],[-120.45624945753475,39.79428318720805,1580.1],[-120.45607411643624,39.7940226769673,1583],[-120.4560858058428,39.7939867445203,1583],[-120.45613256346907,39.79395979518505,1582.4],[-120.4564832456661,39.79388793029105,1577],[-120.45661182913835,39.79379809917355,1576.6],[-120.45671703379746,39.793663352497305,1577.7],[-120.45671703379746,39.793546572044555,1579.9],[-120.45670534439088,39.79344775781531,1582.2],[-120.45669365498432,39.79330402802731,1584.6],[-120.45667027617118,39.79327707869206,1585.1],[-120.45661182913835,39.793286061803805,1586.5],[-120.45654169269895,39.793456740927056,1585.5],[-120.45640141982012,39.793627420050306,1585],[-120.4563429727873,39.79365436938556,1585.8],[-120.45628452575446,39.79365436938556,1587],[-120.45626114694132,39.793627420050306,1588],[-120.4563079045676,39.793573521379805,1588.3],[-120.45635466219386,39.79344775781531,1590.2],[-120.45635466219386,39.793339960474306,1592.2],[-120.4563429727873,39.79312436579231,1596.1],[-120.45629621516102,39.793016568451314,1598.2],[-120.45628452575446,39.79296266978081,1599],[-120.45635466219386,39.79268419331657,1598.8],[-120.4563429727873,39.79259436219907,1599.4],[-120.45628452575446,39.79245063241107,1600.8],[-120.45623776812819,39.792378767517064,1601.7],[-120.45603904821654,39.79216317283507,1606.7],[-120.45592215415085,39.791992493711824,1608.9],[-120.45584032830489,39.791929611929575,1610.7],[-120.45574681305234,39.791758932806324,1611.6],[-120.45566498720636,39.791669101688825,1612.9],[-120.45562991898666,39.79162418613007,1613.5],[-120.4555831613604,39.79157028745958,1614.8],[-120.45554809314069,39.791498422565574,1615.9],[-120.45540782026188,39.79132774344233,1620.8],[-120.4553961308553,39.79124689543658,1621.5],[-120.4553961308553,39.791201979877826,1622.6],[-120.45545457788815,39.79113909809558,1623.4],[-120.45553640373413,39.79109418253683,1623.8],[-120.45554809314069,39.79105825008983,1624.6],[-120.45552471432755,39.79104028386633,1625.3],[-120.45550133551443,39.79103130075458,1625.7],[-120.45541950966845,39.79106723320158,1625.2],[-120.45524416856993,39.79122892921308,1625.1],[-120.45518572153709,39.791462490118576,1627],[-120.45523247916337,39.791606219906576,1626.2],[-120.4552207897568,39.79176791591807,1627.7],[-120.45523247916337,39.791875713259074,1628.4],[-120.4553259944159,39.79210927416457,1627.7],[-120.45534937322904,39.79224402084082,1628.1],[-120.45531430500934,39.792288936399565,1629.3],[-120.4552909261962,39.79230690262307,1630.2],[-120.45524416856993,39.79230690262307,1631.4],[-120.45518572153709,39.79213622349982,1631.8],[-120.45510389569112,39.79211825727632,1633.7],[-120.45508051687798,39.79216317283507,1634.4],[-120.45510389569112,39.79221707150557,1634.1],[-120.45508051687798,39.79242368307582,1634.8],[-120.45504544865828,39.792468598634564,1635.5],[-120.45498700162544,39.792459615522816,1636.6],[-120.45497531221888,39.792432666187565,1637.1],[-120.45492855459261,39.79221707150557,1638.2],[-120.45487010755977,39.79211825727632,1639.4],[-120.4548584181532,39.79206435860582,1639.6],[-120.45479997112037,39.79196554437657,1640.9],[-120.45465969824156,39.79166011857708,1644.4],[-120.45463631942842,39.79156130434782,1645.1],[-120.45458956180214,39.79148943945383,1646.4],[-120.45450773595617,39.791291810995325,1648.6],[-120.45448435714303,39.79128282788358,1649.3],[-120.45448435714303,39.79136367588933,1648.9],[-120.45443759951677,39.791435540783326,1649.3],[-120.4543908418905,39.79148045634208,1650],[-120.45422719019855,39.79154333812433,1651.7],[-120.45415705375915,39.79154333812433,1651.4],[-120.45407522791317,39.79148045634208,1651.9],[-120.45407522791317,39.79141757455983,1652.8],[-120.45407522791317,39.79136367588933,1653.6],[-120.45411029613287,39.79130977721883,1654.2],[-120.45422719019855,39.79115706431908,1655.3],[-120.45423887960511,39.79112113187208,1655.7],[-120.45422719019855,39.790968418972334,1657.5],[-120.45433239485766,39.790725874955086,1658.4],[-120.45429732663796,39.79060909450234,1661],[-120.45430901604452,39.79054621272009,1661.7],[-120.45435577367078,39.79048333093784,1662],[-120.45435577367078,39.79039349982034,1663.2],[-120.45441422070363,39.79028570247934,1663.7],[-120.45441422070363,39.79010604024434,1666.2],[-120.45444928892333,39.79005214157384,1665.9],[-120.45449604654961,39.78987247933884,1666.9],[-120.45456618298901,39.78974671577434,1667],[-120.45456618298901,39.789647901545095,1668.5],[-120.45453111476931,39.78962993532159,1669.6],[-120.45441422070363,39.789710783327344,1670.8],[-120.45428563723138,39.789737732662594,1673],[-120.45420381138541,39.78984553000359,1673.8],[-120.45413367494601,39.78989942867409,1674.7],[-120.45405184910003,39.78998027667984,1675.2],[-120.45397002325406,39.79004315846209,1675.9],[-120.45375961393584,39.79012400646784,1678],[-120.4536660986833,39.79018688825009,1678.5],[-120.45354920461762,39.79024977003234,1679.3],[-120.45338555292568,39.790321634926336,1680],[-120.45325696945343,39.790321634926336,1681.3],[-120.45310500716805,39.790357567373334,1681.9],[-120.45305824954178,39.79033960114984,1682.5],[-120.45305824954178,39.790267736255835,1683.5],[-120.45315176479433,39.79019587136184,1684],[-120.45316345420089,39.79016892202659,1684],[-120.45314007538775,39.79015095580309,1684.1],[-120.45317514360745,39.79015993891484,1684],[-120.45331541648626,39.79007010779734,1683.5],[-120.45338555292568,39.789971293568094,1683.7],[-120.45353751521105,39.789818580668346,1683.6],[-120.45354920461762,39.78972874955085,1684],[-120.45354920461762,39.789504171757095,1684.2],[-120.45343231055195,39.78924366151635,1682.6],[-120.4533387952994,39.7891089148401,1681.5],[-120.45331541648626,39.7890190837226,1681.5],[-120.45332710589284,39.7889292526051,1682],[-120.45343231055195,39.7888034890406,1683.8],[-120.45360765165046,39.788677725476106,1685.9],[-120.45361934105703,39.78849806324111,1686.8],[-120.45353751521105,39.788183654329856,1688.5],[-120.45345568936509,39.78800399209486,1689.3],[-120.45342062114538,39.78786924541861,1690.1],[-120.45336217411254,39.78778839741286,1690.4],[-120.45331541648626,39.78761771828962,1691.4],[-120.45318683301403,39.78749195472512,1691.7],[-120.45305824954178,39.787393140495865,1691.6],[-120.45277770378415,39.787276360043116,1689.8],[-120.45264912031192,39.78719551203737,1689.5],[-120.45234519574116,39.78689906934962,1691.6],[-120.45221661226891,39.78681822134387,1692.3],[-120.45208802879667,39.78676432267337,1691.6],[-120.45198282413756,39.786683474667626,1691.2],[-120.45192437710472,39.78662059288538,1691.2],[-120.45190099829158,39.786539744879626,1692.2],[-120.45183086185217,39.786485846209125,1691.6],[-120.4517490360062,39.78636008264463,1691.1],[-120.45170227837993,39.78629720086238,1690.8],[-120.45151524787485,39.785892960833635,1690.4],[-120.45144511143545,39.78582109593963,1690.7],[-120.45123470211723,39.78567736615163,1692],[-120.45111780805155,39.78550668702839,1693.8],[-120.451024292799,39.785461771469635,1694.6],[-120.45097753517274,39.785398889687386,1695.2],[-120.45089570932676,39.78535397412864,1696],[-120.45081388348079,39.78526414301114,1697.1],[-120.45063854238228,39.78515634567014,1698.9],[-120.45058009534944,39.78513837944664,1699.5],[-120.45038137543779,39.78512939633489,1700.7],[-120.45024110255898,39.78500363277039,1703],[-120.45014758730643,39.78497668343514,1703.8],[-120.44985535214224,39.78503058210564,1704.4],[-120.44972676867,39.78502159899389,1705],[-120.44950466994521,39.784958717211644,1707],[-120.44950466994521,39.78491380165289,1708],[-120.44951635935178,39.78487786920589,1708.4],[-120.44991379917508,39.78450057851239,1711.3],[-120.44993717798822,39.7843927811714,1712.5],[-120.45012420849329,39.78404243981315,1713],[-120.45010082968017,39.7839975242544,1713.5],[-120.45003069324076,39.78398854114265,1714.6],[-120.44999562502106,39.78391667624865,1715.4],[-120.44996055680136,39.7838897269134,1716.1],[-120.44991379917508,39.78389871002515,1716.8],[-120.44989042036194,39.7839256593604,1717],[-120.44973845807657,39.7840334567014,1718.5],[-120.44943453350581,39.78415023715415,1721.2],[-120.4493293288467,39.78416820337765,1721.5],[-120.449294260627,39.78420413582465,1721.4],[-120.44906047249565,39.7841771864894,1722.4],[-120.4489669572431,39.7841412540424,1722.7],[-120.44885006317742,39.7839256593604,1723.7],[-120.44881499495771,39.7837639633489,1724.1],[-120.4486747220789,39.783494469996405,1723.1],[-120.44861627504608,39.783350740208405,1722.7],[-120.44846431276069,39.78300938196191,1722.7],[-120.44846431276069,39.78289260150916,1723],[-120.44844093394755,39.782757854832916,1723.6],[-120.44835910810158,39.782533277039164,1724.9],[-120.4483123504753,39.782470395256915,1725.6],[-120.44834741869502,39.78237158102767,1726.4],[-120.44840586572785,39.78237158102767,1726],[-120.44852275979353,39.782326665468915,1725.3],[-120.4486747220789,39.78220988501617,1724.7],[-120.44876823733145,39.78206615522817,1725],[-120.44881499495771,39.781967340998925,1725.6],[-120.44895526783654,39.781760729428676,1726.3],[-120.44904878308907,39.781679881422924,1726.4],[-120.44906047249565,39.78160801652893,1727.2],[-120.44918905596789,39.781383438735176,1728.6],[-120.44931763944012,39.78122174272368,1728.8],[-120.44943453350581,39.78089835070068,1729.3],[-120.44957480638462,39.78074563780093,1728],[-120.44962156401088,39.78067377290694,1727.8],[-120.4496566322306,39.780503093783686,1728.6],[-120.44968001104372,39.78029648221344,1729.8],[-120.44971507926343,39.780215634207686,1730.2],[-120.44978521570283,39.78017970176069,1730.2],[-120.44985535214224,39.78026953287819,1728.9],[-120.44992548858166,39.78026953287819,1728.4],[-120.44997224620792,39.78025156665469,1728.3],[-120.45003069324076,39.78018868487244,1728.8],[-120.45005407205389,39.78012580309019,1729.5],[-120.45010082968017,39.78008987064319,1729.7],[-120.45012420849329,39.78008987064319,1729.5],[-120.450159276713,39.780035971972694,1730],[-120.45020603433927,39.77981139417894,1731.4],[-120.45021772374584,39.77972156306144,1731.9],[-120.45019434493271,39.7796766475027,1732.6],[-120.45018265552613,39.779631731943944,1733],[-120.45013589789987,39.7795868163852,1733.6],[-120.45008914027359,39.7795868163852,1734.2],[-120.44999562502106,39.779622748832196,1735.2],[-120.44990210976852,39.779595799496946,1736.3],[-120.44987873095538,39.77952393460295,1737.1],[-120.44984366273567,39.779488002155944,1737.9],[-120.44977352629627,39.779479019044196,1738.9],[-120.44971507926343,39.779505968379446,1739.3],[-120.44963325341746,39.77947003593245,1740.8],[-120.44943453350581,39.779488002155944,1742.7],[-120.4492241241876,39.77946105282069,1744.4],[-120.44915398774819,39.77941613726195,1745.5],[-120.44914229834161,39.77929037369745,1747.3],[-120.44920074537445,39.7791196945742,1748.8],[-120.44917736656132,39.7790837621272,1749.4],[-120.44909554071535,39.7790837621272,1750.2],[-120.44901371486937,39.7790837621272,1751],[-120.44902540427594,39.7791017283507,1750.6],[-120.44895526783654,39.7791196945742,1750.9],[-120.4488968208037,39.7791196945742,1751.3],[-120.448861752584,39.77905681279195,1752.5],[-120.448861752584,39.779011897233204,1753.3],[-120.4489318890234,39.778778336327704,1755.1],[-120.4490020254628,39.77873342076895,1754.5],[-120.44902540427594,39.7786705389867,1754.7],[-120.44909554071535,39.778598674092706,1754.4],[-120.44910723012191,39.778598674092706,1754.2],[-120.44911891952847,39.7785807078692,1754.4],[-120.44916567715475,39.7785807078692,1754.2],[-120.44920074537445,39.77852680919871,1754.9],[-120.4492591924073,39.77853579231046,1754.6],[-120.449294260627,39.778517826086954,1754.9],[-120.4493293288467,39.77846392741645,1756],[-120.4493643970664,39.778427994969455,1756.6],[-120.44949298053865,39.77838307941071,1758],[-120.44950466994521,39.778401045634205,1757.7],[-120.44958649579118,39.778338163851956,1759.7],[-120.44983197332911,39.778374096298954,1760.9],[-120.450159276713,39.77843697808121,1762.2],[-120.45019434493271,39.77843697808121,1762.4],[-120.45019434493271,39.77841901185771,1763],[-120.45017096611957,39.77841901185771,1762.9],[-120.45025279196554,39.77843697808121,1762.7],[-120.45050995891003,39.77846392741645,1763.3],[-120.4506268529757,39.77843697808121,1763.4],[-120.45070867882168,39.77841002874596,1763.9],[-120.45072036822825,39.77839206252246,1764.4],[-120.45072036822825,39.77841002874596,1763.9],[-120.45079050466765,39.778427994969455,1763],[-120.45082557288735,39.77841002874596,1763.5],[-120.45081388348079,39.778427994969455,1763],[-120.45073205763482,39.77843697808121,1763],[-120.45070867882168,39.778427994969455,1763.4],[-120.4506969894151,39.77838307941071,1764.8],[-120.45089570932676,39.77821240028746,1767.8],[-120.45109442923841,39.77808663672296,1769],[-120.45116456567781,39.77802375494071,1770.5],[-120.45130483855664,39.77797883938196,1770.5],[-120.45137497499604,39.77790697448796,1772.1],[-120.45151524787485,39.77784409270571,1773.5],[-120.4517139677865,39.77770934602946,1776.1],[-120.45179579363247,39.77761951491196,1777.7],[-120.45188930888501,39.77758358246496,1778],[-120.45195944532442,39.777520700682715,1778.7],[-120.45209971820323,39.777430869565215,1778.6],[-120.45218154404921,39.777287139777215,1779.1],[-120.45222830167548,39.77709849443047,1779.2],[-120.45222830167548,39.776873916636724,1779.1],[-120.45215816523607,39.77671222062522,1779.8],[-120.45215816523607,39.77658645706072,1779.5],[-120.45214647582951,39.77656849083723,1779.6],[-120.45214647582951,39.77650560905498,1779.5],[-120.45209971820323,39.77636187926698,1780.1],[-120.4520763393901,39.77632594681998,1780.4],[-120.4520412711704,39.77612831836148,1780.9],[-120.45192437710472,39.77588577434423,1784.1],[-120.45192437710472,39.775840858785486,1784.3],[-120.4520412711704,39.77570611210923,1783.4],[-120.45220492286234,39.77554441609774,1784.4],[-120.45227505930174,39.77542763564499,1786.3],[-120.45243871099369,39.77530187208049,1787.5],[-120.45252053683967,39.77521204096299,1788.7],[-120.45256729446594,39.77512220984549,1790],[-120.45269587793818,39.77494254761049,1791.7],[-120.45275432497102,39.774843733381246,1792.4],[-120.45276601437759,39.774708986704994,1793.9],[-120.45281277200387,39.774592206252244,1794.7],[-120.45281277200387,39.7745113582465,1795.5],[-120.45277770378415,39.774385594681995,1797.1],[-120.45277770378415,39.774062202659,1799.2],[-120.45270756734475,39.77389152353575,1801.1],[-120.45269587793818,39.773819658641756,1801.4],[-120.45262574149878,39.77378372619475,1802.5],[-120.45255560505937,39.773675928853756,1804],[-120.4525439156528,39.77360406395975,1804.2],[-120.45259067327908,39.77340643550126,1802.2],[-120.45259067327908,39.77337050305426,1802],[-120.45257898387251,39.77330762127201,1801.9],[-120.45253222624623,39.77322677326626,1802.4],[-120.45249715802653,39.77313694214876,1802.4],[-120.4525088474331,39.77308304347826,1801.7],[-120.45246208980683,39.77298422924901,1802.9],[-120.45247377921339,39.77292134746676,1802.7],[-120.45242702158713,39.77286744879626,1803.5],[-120.45241533218056,39.77278660079051,1803.5],[-120.45245040040027,39.77275066834351,1803.8],[-120.4525088474331,39.77273270212002,1803.5],[-120.45269587793818,39.772768634567015,1802.8],[-120.45310500716805,39.77290338124326,1801.5],[-120.45345568936509,39.77292134746676,1802.1],[-120.45360765165046,39.77287643190801,1803.6],[-120.45371285630956,39.77284049946101,1804.5],[-120.45385312918837,39.77275066834351,1806.3],[-120.45401678088032,39.772687786561264,1806.4],[-120.45412198553943,39.77257998922027,1807.7],[-120.45422719019855,39.77251710743801,1807.6],[-120.45435577367078,39.772391343873515,1808.3],[-120.45448435714303,39.772301512756016,1807.4],[-120.45478828171379,39.77201405318002,1806.7],[-120.45491686518604,39.77192422206252,1805.8],[-120.45497531221888,39.771861340280275,1806.1],[-120.45534937322904,39.77150201581028,1806.5],[-120.4556883660195,39.77135828602228,1802.3],[-120.45626114694132,39.77114269134028,1794.9],[-120.45643648803983,39.77105286022278,1792.7],[-120.45656507151207,39.77092709665828,1791.9],[-120.45643648803983,39.77064862019404,1794.7],[-120.45651831388581,39.770397093065036,1792.8],[-120.45651831388581,39.77014556593604,1791.9],[-120.45658845032521,39.76974132590729,1789.6],[-120.45663520795148,39.769606579231045,1788],[-120.45672872320402,39.7692921703198,1782.1],[-120.45690406430253,39.7694179338843,1780.7],[-120.45703264777478,39.769660477901546,1781.7],[-120.45707940540106,39.769777258354296,1781.6],[-120.45709109480762,39.769516748113546,1778.6],[-120.45718461006017,39.769579629895794,1777.8],[-120.45723136768643,39.7695975961193,1777.2],[-120.457243057093,39.769633528566295,1777.5],[-120.45716123124703,39.769399967660796,1775.2],[-120.45707940540106,39.7692921703198,1774.6],[-120.45696251133538,39.76915742364355,1774.2],[-120.45678717023686,39.76901369385555,1776.3],[-120.45669365498432,39.76888793029105,1777.6],[-120.45672872320402,39.76885199784405,1776.7],[-120.4568456172697,39.768843014732305,1774.7],[-120.45709109480762,39.768789116061804,1773.3],[-120.45712616302733,39.76876216672655,1774.2],[-120.45721967827987,39.768636403162056,1778.5],[-120.45746515581779,39.768555555156304,1780.1],[-120.45762880750974,39.76853758893281,1779.6],[-120.45789766386079,39.768438774703554,1780.1],[-120.45804962614616,39.76833996047431,1781.1],[-120.45811976258558,39.76821419690981,1781.9],[-120.45811976258558,39.76810639956881,1783],[-120.45808469436588,39.768052500898314,1784.1],[-120.45808469436588,39.767845889328065,1785.5],[-120.4580379367396,39.767756058210566,1786.7],[-120.4580379367396,39.767702159540065,1787],[-120.4580028685199,39.76763029464607,1788.1],[-120.45797948970676,39.76754046352857,1788.9],[-120.45787428504765,39.76736080129357,1791.8],[-120.45786259564109,39.76728893639957,1792.6],[-120.45780414860825,39.76724402084082,1794.1],[-120.45775739098198,39.76725300395257,1794.8],[-120.4577457015754,39.76731588573482,1794.7],[-120.4577106333557,39.76734283507007,1795.1],[-120.45766387572944,39.76745063241107,1795.3],[-120.4576054286966,39.767531480416814,1795.9],[-120.45754698166377,39.767558429752064,1796.7],[-120.45747684522435,39.76763029464607,1797.5],[-120.45734826175212,39.767845889328065,1797.5],[-120.4572781253127,39.767908771110314,1798],[-120.45717292065359,39.76799860222781,1798.5],[-120.45711447362076,39.76799860222781,1799.6],[-120.45706771599448,39.76795368666906,1801.1],[-120.45710278421419,39.767872838663315,1801.9],[-120.45709109480762,39.76762131153431,1805.4],[-120.45711447362076,39.76736978440532,1806.9],[-120.45710278421419,39.76731588573482,1807.6],[-120.45706771599448,39.76728893639957,1808.3],[-120.45699757955508,39.767351818181815,1809.3],[-120.45691575370911,39.767495547969816,1809.5],[-120.45682223845657,39.767648260869564,1809.4],[-120.45662351854492,39.76782792310456,1809.7],[-120.45655338210551,39.76783690621631,1810.4],[-120.45653000329237,39.767818939992814,1811],[-120.45651831388581,39.767756058210566,1812.3],[-120.45658845032521,39.76743266618757,1815.5],[-120.45656507151207,39.76715418972332,1818.9],[-120.45660013973178,39.76695656126482,1819.9],[-120.45654169269895,39.76680384836507,1822.5],[-120.45651831388581,39.766651135465324,1823.6],[-120.45645986685297,39.766561304347825,1825.4],[-120.45638973041356,39.76648943945383,1827.2],[-120.45631959397416,39.76636367588933,1828.8],[-120.45628452575446,39.76621096298958,1829.3],[-120.45619101050191,39.76604926697808,1831.1],[-120.45616763168877,39.76596841897233,1831.3],[-120.4560858058428,39.76586960474308,1833],[-120.4560507376231,39.76577977362558,1833.4],[-120.4559806011837,39.76568994250808,1834.8],[-120.45591046474429,39.76551926338484,1835.9],[-120.45585201771145,39.765474347826085,1837.1],[-120.45580526008519,39.76533960114984,1837.7],[-120.45581694949175,39.76536655048509,1837.4],[-120.45580526008519,39.765393499820334,1837.9],[-120.45579357067861,39.765420449155584,1838.3],[-120.45580526008519,39.765447398490835,1838.1],[-120.45573512364578,39.76560909450234,1840.2],[-120.45573512364578,39.765797739849084,1840.5],[-120.45570005542606,39.76589655407833,1841.6],[-120.4557234342392,39.76595045274883,1841.3],[-120.4556883660195,39.766031300754584,1842.1],[-120.45570005542606,39.76612113187208,1842.1],[-120.45562991898666,39.76624689543658,1844],[-120.45562991898666,39.76642655767158,1844.5],[-120.45559485076696,39.76648943945383,1845.3],[-120.4556182295801,39.76660621990658,1844.8],[-120.45555978254725,39.766651135465324,1846.3],[-120.45552471432755,39.766642152353576,1847.3],[-120.45545457788815,39.76657028745957,1849],[-120.45537275204218,39.76633672655408,1850.8],[-120.45537275204218,39.76629181099533,1850.7],[-120.4552909261962,39.76613909809558,1852.4],[-120.45526754738307,39.76602231764283,1852.7],[-120.45520910035023,39.76584265540783,1854],[-120.45497531221888,39.76552824649659,1860.1],[-120.45495193340574,39.765420449155584,1860.4],[-120.45484672874663,39.76533960114984,1862.9],[-120.45481166052693,39.76527671936759,1863.7],[-120.45476490290066,39.76525875314409,1864.7],[-120.45471814527438,39.76513298957959,1865.3],[-120.45464800883498,39.76508807402084,1866.9],[-120.45462463002184,39.76504315846209,1867.2],[-120.45456618298901,39.76500722601509,1868.3],[-120.45453111476931,39.76492637800934,1868.6],[-120.45440253129706,39.76486349622709,1871.3],[-120.45429732663796,39.76475569888609,1872.3],[-120.45418043257227,39.7647018002156,1874.4],[-120.45415705375915,39.76466586776859,1874.3],[-120.45415705375915,39.764629935321594,1873.6],[-120.45413367494601,39.764620952209846,1874.2],[-120.45413367494601,39.76460298598634,1873.8],[-120.45405184910003,39.764513154868844,1874.6],[-120.45400509147376,39.7642885770751,1873.6],[-120.45400509147376,39.76413586417535,1874.5],[-120.45426225841825,39.7639112863816,1876],[-120.45450773595617,39.76381247215235,1875.3],[-120.45475321349409,39.7636417930291,1876.4],[-120.45490517577947,39.763426198347105,1878.8],[-120.45499869103202,39.76325551922386,1880.5],[-120.45505713806484,39.763219586776856,1879.9],[-120.4552909261962,39.76294111031261,1880.7],[-120.45559485076696,39.762626701401366,1880.4],[-120.45574681305234,39.76238415738412,1882.4],[-120.4557585024589,39.76230330937837,1884.3],[-120.45579357067861,39.76223144448437,1885.2],[-120.45589877533772,39.76206076536112,1886.1],[-120.45589877533772,39.76197991735537,1888.2],[-120.45603904821654,39.761431947538625,1894.7],[-120.45631959397416,39.76109058929213,1893.6],[-120.45657676091865,39.76097380883938,1891],[-120.45682223845657,39.760901943945385,1889.3],[-120.45716123124703,39.760614484369384,1892.6],[-120.45725474649957,39.760587535034134,1892.4],[-120.45739501937838,39.76054261947539,1892.6],[-120.45789766386079,39.76045278835789,1892.6],[-120.4580379367396,39.76038990657564,1893.6],[-120.45814314139871,39.760407872799135,1893],[-120.45818989902499,39.760380923463885,1893.5],[-120.45826003546439,39.76036295724039,1893.7],[-120.45842368715634,39.76035397412864,1893.7],[-120.45852889181545,39.76028210923464,1894.7],[-120.45870423291396,39.76021024434064,1895.8],[-120.45882112697963,39.760201261228886,1896.2],[-120.45891464223217,39.76017431189364,1896.9],[-120.45906660451756,39.76006651455264,1898.4],[-120.45910167273726,39.76003058210564,1898.8],[-120.45908998333068,39.75997668343514,1899.1],[-120.45912505155039,39.75994075098814,1899.6],[-120.45935883968174,39.75982397053539,1901.6],[-120.45935883968174,39.75974312252964,1901.4],[-120.45931208205548,39.75968922385914,1901],[-120.45921856680293,39.75965329141214,1900.3],[-120.45901984689128,39.7594826122889,1897.8],[-120.45890295282561,39.75950956162415,1897.5],[-120.45864578588112,39.7596083758534,1897.3],[-120.45830679309066,39.759698206970896,1896.6],[-120.45822496724469,39.7596622745239,1896.3],[-120.45815483080528,39.759698206970896,1896.4],[-120.45801455792646,39.7597521056414,1896.5],[-120.45790935326735,39.75982397053539,1897],[-120.45782752742139,39.759841936758896,1897.2],[-120.45772232276228,39.75980600431189,1896.9],[-120.4572781253127,39.75988685231764,1896.6],[-120.45725474649957,39.75992278476464,1896.7],[-120.45711447362076,39.75997668343514,1896.6],[-120.45702095836822,39.75998566654689,1896.5],[-120.45682223845657,39.76008448077614,1896.9],[-120.45664689735806,39.76012041322314,1897.3],[-120.45650662447925,39.76017431189364,1897.8],[-120.45643648803983,39.76018329500539,1898],[-120.456378041007,39.76017431189364,1898.1],[-120.45621438931505,39.76018329500539,1898.7],[-120.45578188127205,39.76012041322314,1900.1],[-120.45566498720636,39.76004854832914,1899.3],[-120.45546626729472,39.76003058210564,1900.9],[-120.45530261560278,39.75994075098814,1900.6],[-120.45519741094367,39.75992278476464,1901.6],[-120.45502206984514,39.759788038088395,1900.7],[-120.45490517577947,39.75974312252964,1901.1],[-120.45478828171379,39.75970719008264,1902.4],[-120.45474152408752,39.7597521056414,1904.6],[-120.45469476646126,39.75968922385914,1903.5],[-120.45455449358244,39.75962634207689,1904.6],[-120.45451942536273,39.759581426518146,1903.9],[-120.4544259101102,39.75950956162415,1903.6],[-120.45435577367078,39.7594826122889,1904.4],[-120.45430901604452,39.7594287136184,1903.6],[-120.45374792452927,39.7591232878189,1907.3],[-120.45360765165046,39.758997524254404,1906.8],[-120.45350244699135,39.7589436255839,1907.8],[-120.45338555292568,39.75882684513115,1907.2],[-120.45306993894835,39.758674132231405,1910.1],[-120.45296473428924,39.758557351778656,1908.9],[-120.45289459784983,39.758530402443405,1909.9],[-120.45284784022357,39.75849446999641,1909.5],[-120.45257898387251,39.75835074020841,1911.3],[-120.45242702158713,39.758323790873156,1913.1],[-120.45227505930174,39.75826090909091,1913.9],[-120.45179579363247,39.75817107797341,1916.1],[-120.45144511143545,39.75819802730866,1919],[-120.45114118686469,39.758180061085156,1919.2],[-120.4509190881399,39.758207010420406,1920.3],[-120.45087233051363,39.75824294286741,1921.3],[-120.45077881526109,39.758269892202655,1921.9],[-120.45070867882168,39.75827887531441,1921.8],[-120.45056840594287,39.75833277398491,1922],[-120.45045151187719,39.758413621990655,1922.1],[-120.45035799662465,39.758584301113906,1923.2],[-120.45033461781152,39.758620233560904,1923.4],[-120.45034630721808,39.75868311534315,1924.8],[-120.45047489069033,39.758440571325906,1923.1],[-120.45021772374584,39.758997524254404,1927.7],[-120.45014758730643,39.75909633848365,1927.8],[-120.45000731442762,39.75945566295365,1930.4],[-120.45000731442762,39.759590409629894,1932.8],[-120.44998393561448,39.75962634207689,1932.5],[-120.44999562502106,39.75970719008264,1934],[-120.44993717798822,39.759877869205894,1934.8],[-120.44992548858166,39.76001261588214,1935.5],[-120.44994886739478,39.76005753144089,1936.9],[-120.44992548858166,39.76019227811714,1937.4],[-120.44994886739478,39.76027312612289,1938.6],[-120.44994886739478,39.760380923463885,1939.3],[-120.44997224620792,39.760461771469636,1940.4],[-120.44996055680136,39.76056956881064,1940.6],[-120.44992548858166,39.76062346748113,1939.8],[-120.44997224620792,39.760731264822134,1941.6],[-120.44994886739478,39.76093787639238,1941.8],[-120.44999562502106,39.76123431908013,1944.7],[-120.45005407205389,39.76127025152713,1946.7],[-120.45004238264733,39.76133313330938,1946.5],[-120.45011251908673,39.76147686309738,1949.4],[-120.45010082968017,39.761602626661876,1948.9],[-120.45013589789987,39.76180025512037,1950.3],[-120.45019434493271,39.76191703557312,1952.4],[-120.45033461781152,39.76210568091987,1959.2],[-120.45033461781152,39.76214161336687,1959.4],[-120.45032292840494,39.76229432626662,1960],[-120.45028786018524,39.76241110671937,1960.2],[-120.45020603433927,39.762518904060364,1958.6],[-120.45018265552613,39.762662633848365,1959.3],[-120.45013589789987,39.76276144807761,1959.3],[-120.45012420849329,39.76285127919511,1960.2],[-120.45008914027359,39.76293212720086,1960.2],[-120.44999562502106,39.76302195831836,1959],[-120.4496917004503,39.76323755300036,1956],[-120.44957480638462,39.76339026590011,1957.4],[-120.44946960172551,39.76349806324111,1957.9],[-120.44941115469267,39.76353399568811,1957.3],[-120.44918905596789,39.76372264103485,1957.4],[-120.4489669572431,39.76395620194035,1958.7],[-120.44872147970518,39.76409993172835,1956.5],[-120.44862796445264,39.76420772906935,1958.1],[-120.44851107038696,39.7642885770751,1958.2],[-120.44814869878337,39.7644143406396,1953.7],[-120.44776294836663,39.764683833992095,1951.1],[-120.44771619074037,39.76471976643909,1951.6],[-120.44770450133379,39.764800614444844,1954.5],[-120.44763436489438,39.76483654689184,1955],[-120.44742395557617,39.76483654689184,1951.6],[-120.44712003100541,39.764683833992095,1942.2],[-120.44662907592956,39.764683833992095,1941.9],[-120.44639528779821,39.764620952209846,1939.9],[-120.44631346195224,39.764620952209846,1939.4],[-120.44624332551284,39.76463891843334,1939.6],[-120.44617318907343,39.76466586776859,1940.2],[-120.44603291619462,39.76481858066834,1945],[-120.44588095390924,39.76489942867409,1946.6],[-120.44560040815162,39.764944344232845,1944.7],[-120.44549520349251,39.76496231045634,1944],[-120.44536662002027,39.76504315846209,1945.7],[-120.44526141536116,39.76514197269134,1948.6],[-120.44519127892175,39.76517790513834,1949.2],[-120.44501593782323,39.76516892202659,1945.7],[-120.44478214969187,39.76521383758534,1945.8],[-120.44467694503277,39.765240786920586,1946.4],[-120.44458342978022,39.765240786920586,1946.3],[-120.44446653571455,39.76522282069709,1945.4],[-120.44432626283574,39.76523180380884,1945.9],[-120.4443028840226,39.76522282069709,1945.4],[-120.44429119461604,39.76523180380884,1945.8],[-120.44424443698976,39.76523180380884,1945.6],[-120.44408078529781,39.76517790513834,1943.1],[-120.443940512419,39.76517790513834,1942.6],[-120.44385868657304,39.76523180380884,1944.2],[-120.44378855013363,39.76522282069709,1943.3],[-120.44367165606795,39.765240786920586,1943.4],[-120.44361320903512,39.76527671936759,1944.6],[-120.44348462556287,39.765267736255836,1943.4],[-120.44321576921182,39.76536655048509,1945.5],[-120.44312225395927,39.765357567373336,1944.9],[-120.44300535989359,39.765330618038085,1943.6],[-120.44287677642136,39.76531265181459,1943.2],[-120.44288846582792,39.76518688825009,1939.3],[-120.44285339760822,39.76507909090909,1936.3],[-120.44286508701478,39.76498925979159,1933.4],[-120.44305211751987,39.764917394897594,1930.2],[-120.44304042811329,39.764827563780095,1927.8],[-120.44307549633301,39.76474671577434,1925.9],[-120.44314563277241,39.764710783327345,1924.5],[-120.44316901158554,39.764656884656844,1923.2],[-120.44326252683808,39.76454908731584,1920.2],[-120.44321576921182,39.764540104204094,1920.4],[-120.44315732217898,39.76454908731584,1921.2],[-120.44316901158554,39.76457603665109,1921.6],[-120.44312225395927,39.76460298598634,1922.4],[-120.44301704930017,39.764567053539345,1922.8],[-120.44300535989359,39.764513154868844,1922.2],[-120.44300535989359,39.764423323751345,1921],[-120.44293522345419,39.764333492633845,1920.6],[-120.44284170820166,39.7641089148401,1921.4],[-120.44280663998194,39.7640729823931,1922],[-120.4426079200703,39.763893320158104,1926.5],[-120.44251440481776,39.76375857348185,1928.1],[-120.4423156849061,39.763632809917354,1932.3],[-120.4421754120273,39.76349806324111,1934.4],[-120.44198838152221,39.76327348544736,1935],[-120.44194162389594,39.76314772188286,1933.4],[-120.441777972204,39.763012975206614,1934.6],[-120.44169614635801,39.76288721164211,1933.6],[-120.44135715356755,39.76259076895437,1933.7],[-120.44120519128218,39.762491954725114,1934.3],[-120.44106491840337,39.76233025871362,1931.1],[-120.44099478196397,39.762222461372616,1928.6],[-120.44092464552455,39.76214161336687,1927.2],[-120.44085450908514,39.76200686669062,1923.9],[-120.44073761501947,39.76195296802012,1921.9],[-120.44077268323917,39.76200686669062,1923.6],[-120.44066747858007,39.76197093424362,1922.1],[-120.44060903154723,39.76197093424362,1921.9],[-120.44058565273409,39.761988900467124,1922.3],[-120.44052720570126,39.76208771469637,1924.6],[-120.44031679638303,39.76224941070787,1925.3],[-120.43975570486779,39.76247398850162,1921.9],[-120.43965050020867,39.762491954725114,1920.7],[-120.43941671207733,39.76247398850162,1917.3],[-120.43934657563791,39.762456022278116,1916.8],[-120.43927643919851,39.76241110671937,1915],[-120.43921799216568,39.762339241825366,1912.7],[-120.4391712345394,39.76224941070787,1909.7],[-120.43911278750656,39.76221347826087,1909.7],[-120.43905434047373,39.76219551203737,1910.7],[-120.43898420403433,39.76212364714337,1909.9],[-120.43885562056208,39.76206076536112,1910.6],[-120.43862183243073,39.76182720445562,1910],[-120.43838804429937,39.76164754222062,1910],[-120.43823608201399,39.76155771110312,1910.1],[-120.43797891506951,39.76144093065038,1909.7],[-120.43774512693815,39.761378048868124,1909.4],[-120.43760485405934,39.76136906575638,1909.3],[-120.43724248245574,39.76142296442688,1909.5],[-120.43712558839006,39.761467879985624,1910.3],[-120.43704376254409,39.76153076176787,1911.3],[-120.43703207313753,39.761575677326626,1913.1],[-120.43697362610469,39.76164754222062,1914.7],[-120.43693855788499,39.76173737333812,1917.6],[-120.43690348966528,39.76179127200862,1918.7],[-120.43684504263244,39.761836187567376,1919.4],[-120.43680997441274,39.761899069349624,1921.1],[-120.43677490619304,39.761926018684875,1921.5],[-120.43670476975363,39.76204279913762,1924.9],[-120.43662294390765,39.76210568091987,1926.9],[-120.43652942865512,39.76212364714337,1926],[-120.436424223996,39.76215957959037,1926.5],[-120.43636577696317,39.76215957959037,1926.3],[-120.43619043586465,39.76213263025512,1924.9],[-120.43596833713987,39.76214161336687,1925.8],[-120.43585144307418,39.76210568091987,1924.8],[-120.43554751850343,39.76213263025512,1926.7],[-120.43540724562462,39.76210568091987,1926.2],[-120.4351617680867,39.76215957959037,1928.7],[-120.43506825283416,39.76219551203737,1930.4],[-120.4348344647028,39.76226737693137,1932.6],[-120.43463574479115,39.76235720804887,1934.7],[-120.43458898716489,39.762402123607615,1935.5],[-120.43457729775831,39.76244703916637,1937.3],[-120.43446040369264,39.762545853395615,1938.2],[-120.43439026725324,39.76268060007187,1941.1],[-120.4343668884401,39.762743481854116,1942.7],[-120.43421492615472,39.762950093424365,1941],[-120.43414478971532,39.763219586776856,1940.1],[-120.4340746532759,39.763309417894355,1937.5],[-120.43413310030874,39.76347111390586,1940.5],[-120.43414478971532,39.76356094502336,1941.1],[-120.43409803208904,39.76367772547611,1939.7],[-120.43412141090218,39.76381247215235,1941.2],[-120.4341097214956,39.76390230326985,1942.1],[-120.43414478971532,39.76406399928135,1946.6],[-120.43414478971532,39.76409993172835,1947.1],[-120.43402789564963,39.7641628135106,1944.3],[-120.43393438039709,39.76418976284585,1942.6],[-120.43391100158397,39.76427959396335,1944.9],[-120.43380579692484,39.76436942508085,1945.3],[-120.43374734989202,39.76444128997485,1946.9],[-120.43358369820007,39.764477222421846,1946.2],[-120.43290571261915,39.76445925619835,1947.1],[-120.43269530330092,39.76453112109235,1948.3],[-120.43199393890686,39.764567053539345,1946.8],[-120.43170170374268,39.764683833992095,1948.7],[-120.43163156730327,39.764683833992095,1948.1],[-120.43150298383102,39.764710783327345,1947.6],[-120.43132764273251,39.76481858066834,1949.5],[-120.43117568044713,39.76483654689184,1948],[-120.43103540756832,39.76489942867409,1948],[-120.43090682409607,39.76500722601509,1950.1],[-120.43073148299756,39.76509705713259,1950.4],[-120.43048600545964,39.76531265181459,1953.4],[-120.43007687622976,39.765564178943585,1954.1],[-120.42992491394439,39.765680959396335,1955.5],[-120.42969112581304,39.76577977362558,1954.8],[-120.42960929996705,39.76578875673734,1953.8],[-120.42945733768168,39.76586062163133,1954.3],[-120.42907158726494,39.76596841897233,1953.3],[-120.42882610972703,39.76606723320158,1953.6],[-120.42877935210076,39.76610316564858,1954],[-120.42860401100225,39.76615706431908,1953.5],[-120.42826501821177,39.76633672655408,1953.2],[-120.42812474533297,39.76648943945383,1954.9],[-120.42799616186072,39.766678084800574,1957.1],[-120.42792602542131,39.766758932806326,1957.5],[-120.4277156161031,39.76713622349982,1960.6],[-120.42757534322429,39.76734283507007,1960.6],[-120.42743507034548,39.76748656485807,1959],[-120.42736493390608,39.76759436219906,1958.7],[-120.42715452458785,39.767791990657564,1954.9],[-120.42703763052218,39.76792673733381,1952.8],[-120.4269558046762,39.76809741645706,1951.5],[-120.42674539535798,39.76827707869206,1946],[-120.42674539535798,39.768411825368304,1946.7],[-120.42668694832514,39.76853758893281,1946.1],[-120.42661681188574,39.76865436938555,1944.7],[-120.42641809197409,39.768896913402806,1940.7],[-120.42628950850185,39.76901369385555,1938.1],[-120.42620768265587,39.7691125080848,1937.1],[-120.4260907885902,39.7692203054258,1934.9],[-120.4259855839311,39.769283187208046,1932.5],[-120.42582193223915,39.7694718325548,1929.7],[-120.4257284169866,39.769543697448796,1927.7],[-120.42566996995376,39.76961556234279,1926.7],[-120.4256232123275,39.76973234279554,1926.3],[-120.42561152292092,39.76982217391304,1927.1],[-120.4254361818224,39.76993895436579,1923.1],[-120.42538942419614,39.77001980237154,1922.7],[-120.42494522674657,39.77046895795904,1919.7],[-120.42473481742834,39.77058573841178,1917.3],[-120.4245711657364,39.77090913043478,1916.7],[-120.42459454454954,39.77128642112828,1918.5],[-120.42466468098894,39.77146608336328,1921.9],[-120.42459454454954,39.77184337405677,1914.4],[-120.42458285514297,39.77207693496227,1911.3],[-120.42462961276924,39.77215778296802,1912.7],[-120.42473481742834,39.77234642831477,1915.3],[-120.42474650683492,39.77243625943227,1915.7],[-120.42471143861522,39.77254405677326,1913.4],[-120.42472312802178,39.772678803449516,1912.9],[-120.42465299158238,39.772831516349264,1908.3],[-120.42465299158238,39.77289439813151,1906.5],[-120.42482833268089,39.77309202659001,1904.1],[-120.4250738102188,39.77316389148401,1905.3],[-120.42531928775674,39.77319982393101,1908.1],[-120.42568165936032,39.77330762127201,1901.5],[-120.42571672758004,39.77330762127201,1901.2],[-120.42577517461287,39.773271688825005,1903.4],[-120.4260206521508,39.77320880704276,1905.8],[-120.4261609250296,39.77325372260151,1902.5],[-120.42646484960036,39.77321779015451,1906.7],[-120.42671032713828,39.77326270571326,1907.9],[-120.42679215298426,39.77328965504851,1907.5],[-120.42688566823679,39.773298638160256,1911.8],[-120.42697918348934,39.773325587495506,1916.2],[-120.42701425170904,39.77337948616601,1919],[-120.4269558046762,39.773478300395254,1917.4],[-120.42682722120396,39.773586097736256,1910.8],[-120.42676877417112,39.7737208444125,1911],[-120.42672201654484,39.773765759971255,1909.5],[-120.42665188010544,39.77380169241825,1906.1],[-120.42667525891858,39.774277797341,1898.9],[-120.42676877417112,39.77453830758174,1897.6],[-120.42681553179739,39.774789834710745,1904.6],[-120.42680384239083,39.77489763205174,1908.8],[-120.42678046357769,39.77495153072224,1911.4],[-120.42673370595142,39.774969496945744,1911],[-120.42662850129231,39.77493356449874,1905.3],[-120.42649991782007,39.77503237872799,1906.9],[-120.42646484960036,39.77507729428674,1908.2],[-120.42645316019379,39.77559831476824,1916.1],[-120.42633626612812,39.775786960114985,1911.7],[-120.4261609250296,39.77594865612648,1907.1],[-120.42613754621647,39.77602950413223,1907.8],[-120.42607909918362,39.77612831836148,1907.5],[-120.42590375808511,39.77628103126123,1902.4],[-120.42584531105227,39.77635289615523,1900.4],[-120.42583362164571,39.77645171038448,1899.4],[-120.42590375808511,39.776577473948976,1899.1],[-120.4260907885902,39.77680205174272,1898.3],[-120.42617261443617,39.77693679841897,1896.7],[-120.42640640256752,39.77720629177147,1892.5],[-120.42674539535798,39.77747578512397,1887.2],[-120.42689735764337,39.77756561624147,1888.3],[-120.42701425170904,39.777664430470715,1890],[-120.42704931992874,39.77773629536471,1890.1],[-120.42706100933532,39.77788900826446,1888.3],[-120.42702594111562,39.77805968738771,1885],[-120.42702594111562,39.77823036651096,1882.6],[-120.4269908728959,39.77841002874596,1878.5],[-120.42700256230248,39.778607657204454,1873.9],[-120.42708438814844,39.7787603701042,1869.3],[-120.42722466102725,39.77887715055695,1865],[-120.42732986568637,39.7789040998922,1864.3],[-120.42740000212578,39.778868167445204,1865.2],[-120.42754027500459,39.77884121810995,1866.5],[-120.427610411444,39.778778336327704,1869.5],[-120.42773899491624,39.778778336327704,1870.2],[-120.42789095720161,39.778742403880706,1872.9],[-120.42796109364102,39.7787603701042,1873.5],[-120.42798447245416,39.778778336327704,1873.3],[-120.42810136651984,39.77878731943945,1875.2],[-120.42820657117895,39.7788502012217,1876.6],[-120.42828839702491,39.7789579985627,1877.6],[-120.42830008643148,39.779011897233204,1877.3],[-120.42838191227746,39.7790478296802,1879.2],[-120.42842866990372,39.7791196945742,1879.8],[-120.42854556396941,39.77955986704995,1875.2],[-120.42870921566136,39.779712579949695,1876.6],[-120.42884948854017,39.77987427596119,1876],[-120.42894300379271,39.77990122529644,1876.3],[-120.42902482963868,39.779892242184694,1877.5],[-120.42928199658317,39.78001800574919,1875.7],[-120.42936382242914,39.78002698886094,1876],[-120.42944564827512,39.78000003952569,1877.5],[-120.42971450462618,39.77998207330219,1879.8],[-120.429772951659,39.78001800574919,1878.5],[-120.4298080198787,39.78011681997844,1874.8],[-120.42987815631811,39.78014376931369,1874.1],[-120.4301353232626,39.78012580309019,1870.6],[-120.43040417961366,39.77999105641394,1876],[-120.43054445249247,39.77996410707869,1877.6],[-120.43067303596472,39.77996410707869,1879.6],[-120.4307899300304,39.77997309019044,1881.9],[-120.43088344528293,39.78006292130794,1879.2],[-120.43100033934861,39.78008987064319,1880.7],[-120.43103540756832,39.78017970176069,1877],[-120.43109385460116,39.780215634207686,1876.5],[-120.43114061222742,39.78028749910169,1874.8],[-120.43122243807339,39.78035038088394,1874.6],[-120.43129257451281,39.78043122888969,1873.2],[-120.43158480967699,39.780619874236436,1873.1],[-120.43170170374268,39.780646823571686,1872.4],[-120.4323796893236,39.78067377290694,1870.1],[-120.43254334101555,39.780655806683434,1869.5],[-120.43303429609138,39.780539026230684,1868],[-120.4331395007505,39.780476144448436,1868],[-120.43333822066215,39.780386313330936,1867],[-120.43356031938693,39.78034139777219,1864.5],[-120.43371228167231,39.780242583542936,1864.5],[-120.43375903929858,39.78019766798419,1864.8],[-120.43391100158397,39.78011681997844,1864.6],[-120.43406296386934,39.77999105641394,1865.9],[-120.43415647912188,39.77993715774344,1866.1],[-120.43435519903353,39.779919191519944,1864.4],[-120.43458898716489,39.77988325907294,1863],[-120.43484615410937,39.779892242184694,1860],[-120.43495135876849,39.77991020840819,1858.3],[-120.43504487402102,39.77993715774344,1856.7],[-120.43510332105386,39.77990122529644,1857],[-120.43529035155895,39.77987427596119,1855.7],[-120.43534879859178,39.77983834351419,1855.8],[-120.4354890714706,39.77983834351419,1854.2],[-120.43562934434941,39.779766478620196,1854.1],[-120.43586313248076,39.779766478620196,1851.4],[-120.43594495832673,39.779712579949695,1851.9],[-120.43614367823838,39.77964071505569,1852.1],[-120.43616705705152,39.77957783327344,1853.8],[-120.43617874645808,39.779622748832196,1852.7],[-120.43615536764494,39.779622748832196,1852.7],[-120.43617874645808,39.77961376572045,1853],[-120.43615536764494,39.77961376572045,1852.9],[-120.43616705705152,39.779631731943944,1852.4],[-120.43615536764494,39.77964969816745,1851.8],[-120.43609692061212,39.779685630614445,1850.8],[-120.43613198883182,39.77966766439094,1851.3],[-120.43615536764494,39.77961376572045,1852.9],[-120.43616705705152,39.779595799496946,1853.2],[-120.43614367823838,39.779595799496946,1853.2],[-120.43616705705152,39.779595799496946,1853.2],[-120.43616705705152,39.77955986704995,1854.4],[-120.43628395111719,39.779541900826445,1855.2],[-120.43648267102884,39.779631731943944,1853.2],[-120.43661125450109,39.77966766439094,1853.3],[-120.43680997441274,39.77978444484369,1851.2],[-120.4370788307638,39.77987427596119,1849.6],[-120.43733599770829,39.77990122529644,1848.7],[-120.43753471761993,39.77988325907294,1849],[-120.43779188456442,39.779802411067195,1850.5],[-120.43797891506951,39.779766478620196,1850.1],[-120.43828283964027,39.77975749550844,1848.2],[-120.43849324895848,39.77979342795544,1845.8],[-120.43865690065043,39.779766478620196,1844.8],[-120.43941671207733,39.77983834351419,1835.3],[-120.43975570486779,39.77981139417894,1832.4],[-120.43994273537287,39.779748512396694,1832.3],[-120.44009469765825,39.779739529284946,1831.3],[-120.44016483409766,39.779712579949695,1831.5],[-120.4402232811305,39.77966766439094,1832.3],[-120.44056227392096,39.7796766475027,1830.1],[-120.44100647137053,39.779766478620196,1827.1],[-120.4411233654362,39.77975749550844,1827.5],[-120.4412285700953,39.779766478620196,1827.4],[-120.44160263110548,39.77982037729069,1827],[-120.44168445695145,39.77983834351419,1826.9],[-120.44175459339085,39.77983834351419,1827.4],[-120.44182472983026,39.77987427596119,1827.1],[-120.44212865440102,39.78006292130794,1824.4],[-120.44235075312581,39.78025156665469,1820.7],[-120.44272481413597,39.78043122888969,1816.1],[-120.44356645140884,39.78049411067194,1808.9],[-120.44367165606795,39.78045817822494,1808.6],[-120.4439755806387,39.78029648221344,1808],[-120.44432626283574,39.78006292130794,1806.5],[-120.44447822512112,39.78000003952569,1804.5],[-120.44460680859336,39.77961376572045,1805.8],[-120.44468863443934,39.77946105282069,1804.5],[-120.44468863443934,39.7792274919152,1804.5],[-120.44473539206561,39.7790657959037,1803],[-120.44473539206561,39.7789579985627,1802.5],[-120.4446652556262,39.7787963025512,1803.3],[-120.44458342978022,39.7787244376572,1804.5],[-120.44457174037366,39.77867952209846,1804.4],[-120.44450160393426,39.77861664031621,1805.6],[-120.4444899145277,39.77858969098096,1805.6],[-120.44444315690141,39.77849985986346,1806],[-120.44438470986857,39.778374096298954,1805.8],[-120.44434964164887,39.77829324829321,1806],[-120.44432626283574,39.778221383399206,1806],[-120.44432626283574,39.77819443406396,1805.9],[-120.44453667215396,39.77807765361121,1803.1],[-120.44458342978022,39.77803273805246,1803],[-120.4446301874065,39.77805070427596,1802.2],[-120.44467694503277,39.77819443406396,1801],[-120.44473539206561,39.77815850161696,1800.6],[-120.44500424841667,39.77813155228171,1798.3],[-120.44508607426263,39.77805070427596,1798],[-120.44515621070204,39.77803273805246,1797.4],[-120.44524972595458,39.77805968738771,1796],[-120.44529648358086,39.77808663672296,1795.2],[-120.4454250670531,39.77809561983471,1793.7],[-120.44547182467937,39.77813155228171,1792.9],[-120.44547182467937,39.77814951850521,1792.7],[-120.44550689289908,39.77814951850521,1792.3],[-120.44553027171222,39.77817646784046,1791.8],[-120.44564716577788,39.77819443406396,1790.3],[-120.44565885518445,39.77823036651096,1789.9],[-120.44568223399759,39.77821240028746,1789.8],[-120.44574068103043,39.778221383399206,1788.9],[-120.44577574925013,39.77824833273446,1788.2],[-120.44581081746983,39.77830223140496,1787.3],[-120.44583419628297,39.77832019762846,1786.6],[-120.4458926433158,39.77832019762846,1785.8],[-120.44597446916178,39.77835613007546,1784.2],[-120.44597446916178,39.77841002874596,1783.8],[-120.44610305263403,39.77844596119296,1782],[-120.44630177254568,39.77838307941071,1780.4],[-120.44639528779821,39.778401045634205,1779.3],[-120.44652387127046,39.778374096298954,1779.1],[-120.44669921236897,39.778374096298954,1778.3],[-120.44682779584122,39.77841901185771,1776.5],[-120.44703820515944,39.77841002874596,1775.6],[-120.44708496278571,39.77844596119296,1774.4],[-120.44713172041197,39.778427994969455,1774.7],[-120.44763436489438,39.778481893639956,1771.4],[-120.44823052462934,39.77829324829321,1769.1],[-120.44830066106874,39.77824833273446,1768.3],[-120.44837079750815,39.77814951850521,1768],[-120.44840586572785,39.77802375494071,1768.5],[-120.4485344492001,39.77790697448796,1768.5],[-120.44879161614459,39.77782612648221,1768.5],[-120.44892019961684,39.777808160258715,1769.1],[-120.44888513139713,39.77794290693496,1766.5],[-120.4488968208037,39.77796087315846,1766.1],[-120.448861752584,39.77803273805246,1764.7],[-120.44887344199056,39.77809561983471,1763.4],[-120.44888513139713,39.77807765361121,1763.7],[-120.44888513139713,39.77812256916996,1763],[-120.44895526783654,39.77815850161696,1762],[-120.44915398774819,39.77817646784046,1761.2],[-120.44938777587953,39.77823036651096,1761],[-120.44946960172551,39.77825731584621,1760.6],[-120.44958649579118,39.778338163851956,1759.7],[-120.44950466994521,39.778401045634205,1757.7],[-120.44949298053865,39.77838307941071,1758],[-120.4493643970664,39.778427994969455,1756.6],[-120.4493293288467,39.77846392741645,1756],[-120.449294260627,39.778517826086954,1754.9],[-120.4492591924073,39.77853579231046,1754.6],[-120.44920074537445,39.77852680919871,1754.9],[-120.44916567715475,39.7785807078692,1754.2],[-120.44911891952847,39.7785807078692,1754.4],[-120.44910723012191,39.778598674092706,1754.2],[-120.44909554071535,39.778598674092706,1754.4],[-120.44902540427594,39.7786705389867,1754.7],[-120.4490020254628,39.77873342076895,1754.5],[-120.4489318890234,39.778778336327704,1755.1],[-120.448861752584,39.779011897233204,1753.3],[-120.448861752584,39.77905681279195,1752.5],[-120.4488968208037,39.7791196945742,1751.3],[-120.44895526783654,39.7791196945742,1750.9],[-120.44902540427594,39.7791017283507,1750.6],[-120.44901371486937,39.7790837621272,1751],[-120.44909554071535,39.7790837621272,1750.2],[-120.44917736656132,39.7790837621272,1749.4],[-120.44920074537445,39.7791196945742,1748.8],[-120.44914229834161,39.77929037369745,1747.3],[-120.44915398774819,39.77941613726195,1745.5],[-120.4492241241876,39.77946105282069,1744.4],[-120.44943453350581,39.779488002155944,1742.7],[-120.44963325341746,39.77947003593245,1740.8],[-120.44971507926343,39.779505968379446,1739.3],[-120.44977352629627,39.779479019044196,1738.9],[-120.44984366273567,39.779488002155944,1737.9],[-120.44987873095538,39.77952393460295,1737.1],[-120.44990210976852,39.779595799496946,1736.3],[-120.44999562502106,39.779622748832196,1735.2],[-120.45008914027359,39.7795868163852,1734.2],[-120.45013589789987,39.7795868163852,1733.6],[-120.45018265552613,39.779631731943944,1733],[-120.45019434493271,39.7796766475027,1732.6],[-120.45021772374584,39.77972156306144,1731.9],[-120.45020603433927,39.77981139417894,1731.4],[-120.450159276713,39.780035971972694,1730],[-120.45012420849329,39.78008987064319,1729.5],[-120.45010082968017,39.78008987064319,1729.7],[-120.45005407205389,39.78012580309019,1729.5],[-120.45003069324076,39.78018868487244,1728.8],[-120.44997224620792,39.78025156665469,1728.3],[-120.44992548858166,39.78026953287819,1728.4],[-120.44985535214224,39.78026953287819,1728.9],[-120.44978521570283,39.78017970176069,1730.2],[-120.44971507926343,39.780215634207686,1730.2],[-120.44968001104372,39.78029648221344,1729.8],[-120.4496566322306,39.780503093783686,1728.6],[-120.44962156401088,39.78067377290694,1727.8],[-120.44957480638462,39.78074563780093,1728],[-120.44943453350581,39.78089835070068,1729.3],[-120.44931763944012,39.78122174272368,1728.8],[-120.44918905596789,39.781383438735176,1728.6],[-120.44906047249565,39.78160801652893,1727.2],[-120.44904878308907,39.781679881422924,1726.4],[-120.44895526783654,39.781760729428676,1726.3],[-120.44881499495771,39.781967340998925,1725.6],[-120.44876823733145,39.78206615522817,1725],[-120.4486747220789,39.78220988501617,1724.7],[-120.44852275979353,39.782326665468915,1725.3],[-120.44840586572785,39.78237158102767,1726],[-120.44834741869502,39.78237158102767,1726.4],[-120.4483123504753,39.782470395256915,1725.6],[-120.44835910810158,39.782533277039164,1724.9],[-120.44844093394755,39.782757854832916,1723.6],[-120.44846431276069,39.78289260150916,1723],[-120.44846431276069,39.78300938196191,1722.7],[-120.44861627504608,39.783350740208405,1722.7],[-120.4486747220789,39.783494469996405,1723.1],[-120.44881499495771,39.7837639633489,1724.1],[-120.44885006317742,39.7839256593604,1723.7],[-120.4489669572431,39.7841412540424,1722.7],[-120.44906047249565,39.7841771864894,1722.4],[-120.449294260627,39.78420413582465,1721.4],[-120.4493293288467,39.78416820337765,1721.5],[-120.44943453350581,39.78415023715415,1721.2],[-120.44973845807657,39.7840334567014,1718.5],[-120.44989042036194,39.7839256593604,1717],[-120.44991379917508,39.78389871002515,1716.8],[-120.44996055680136,39.7838897269134,1716.1],[-120.44999562502106,39.78391667624865,1715.4],[-120.45003069324076,39.78398854114265,1714.6],[-120.45010082968017,39.7839975242544,1713.5],[-120.45012420849329,39.78404243981315,1713],[-120.44993717798822,39.7843927811714,1712.5],[-120.44991379917508,39.78450057851239,1711.3],[-120.44951635935178,39.78487786920589,1708.4],[-120.44950466994521,39.78491380165289,1708],[-120.44950466994521,39.784958717211644,1707],[-120.44972676867,39.78502159899389,1705],[-120.44985535214224,39.78503058210564,1704.4],[-120.45014758730643,39.78497668343514,1703.8],[-120.45024110255898,39.78500363277039,1703],[-120.45038137543779,39.78512939633489,1700.7],[-120.45058009534944,39.78513837944664,1699.5],[-120.45063854238228,39.78515634567014,1698.9],[-120.45081388348079,39.78526414301114,1697.1],[-120.45089570932676,39.78535397412864,1696],[-120.45097753517274,39.785398889687386,1695.2],[-120.451024292799,39.785461771469635,1694.6],[-120.45111780805155,39.78550668702839,1693.8],[-120.45123470211723,39.78567736615163,1692],[-120.45144511143545,39.78582109593963,1690.7],[-120.45151524787485,39.785892960833635,1690.4],[-120.45170227837993,39.78629720086238,1690.8],[-120.4517490360062,39.78636008264463,1691.1],[-120.45183086185217,39.786485846209125,1691.6],[-120.45190099829158,39.786539744879626,1692.2],[-120.45192437710472,39.78662059288538,1691.2],[-120.45198282413756,39.786683474667626,1691.2],[-120.45208802879667,39.78676432267337,1691.6],[-120.45221661226891,39.78681822134387,1692.3],[-120.45234519574116,39.78689906934962,1691.6],[-120.45264912031192,39.78719551203737,1689.5],[-120.45277770378415,39.787276360043116,1689.8],[-120.45305824954178,39.787393140495865,1691.6],[-120.45318683301403,39.78749195472512,1691.7],[-120.45331541648626,39.78761771828962,1691.4],[-120.45336217411254,39.78778839741286,1690.4],[-120.45342062114538,39.78786924541861,1690.1],[-120.45345568936509,39.78800399209486,1689.3],[-120.45353751521105,39.788183654329856,1688.5],[-120.45361934105703,39.78849806324111,1686.8],[-120.45360765165046,39.788677725476106,1685.9],[-120.45343231055195,39.7888034890406,1683.8],[-120.45332710589284,39.7889292526051,1682],[-120.45331541648626,39.7890190837226,1681.5],[-120.4533387952994,39.7891089148401,1681.5],[-120.45343231055195,39.78924366151635,1682.6],[-120.45354920461762,39.789504171757095,1684.2],[-120.45354920461762,39.78972874955085,1684],[-120.45353751521105,39.789818580668346,1683.6],[-120.45338555292568,39.789971293568094,1683.7],[-120.45331541648626,39.79007010779734,1683.5],[-120.45317514360745,39.79015993891484,1684],[-120.45314007538775,39.79015095580309,1684.1],[-120.45316345420089,39.79016892202659,1684],[-120.45315176479433,39.79019587136184,1684],[-120.45305824954178,39.790267736255835,1683.5],[-120.45305824954178,39.79033960114984,1682.5],[-120.45310500716805,39.790357567373334,1681.9],[-120.45325696945343,39.790321634926336,1681.3],[-120.45338555292568,39.790321634926336,1680],[-120.45354920461762,39.79024977003234,1679.3],[-120.4536660986833,39.79018688825009,1678.5],[-120.45375961393584,39.79012400646784,1678],[-120.45397002325406,39.79004315846209,1675.9],[-120.45405184910003,39.78998027667984,1675.2],[-120.45413367494601,39.78989942867409,1674.7],[-120.45420381138541,39.78984553000359,1673.8],[-120.45428563723138,39.789737732662594,1673],[-120.45441422070363,39.789710783327344,1670.8],[-120.45453111476931,39.78962993532159,1669.6],[-120.45456618298901,39.789647901545095,1668.5],[-120.45456618298901,39.78974671577434,1667],[-120.45449604654961,39.78987247933884,1666.9],[-120.45444928892333,39.79005214157384,1665.9],[-120.45441422070363,39.79010604024434,1666.2],[-120.45441422070363,39.79028570247934,1663.7],[-120.45435577367078,39.79039349982034,1663.2],[-120.45435577367078,39.79048333093784,1662],[-120.45430901604452,39.79054621272009,1661.7],[-120.45429732663796,39.79060909450234,1661],[-120.45433239485766,39.790725874955086,1658.4],[-120.45422719019855,39.790968418972334,1657.5],[-120.45423887960511,39.79112113187208,1655.7],[-120.45422719019855,39.79115706431908,1655.3],[-120.45411029613287,39.79130977721883,1654.2],[-120.45407522791317,39.79136367588933,1653.6],[-120.45407522791317,39.79141757455983,1652.8],[-120.45407522791317,39.79148045634208,1651.9],[-120.45415705375915,39.79154333812433,1651.4],[-120.45422719019855,39.79154333812433,1651.7],[-120.4543908418905,39.79148045634208,1650],[-120.45443759951677,39.791435540783326,1649.3],[-120.45448435714303,39.79136367588933,1648.9],[-120.45448435714303,39.79128282788358,1649.3],[-120.45450773595617,39.791291810995325,1648.6],[-120.45458956180214,39.79148943945383,1646.4],[-120.45463631942842,39.79156130434782,1645.1],[-120.45465969824156,39.79166011857708,1644.4],[-120.45479997112037,39.79196554437657,1640.9],[-120.4548584181532,39.79206435860582,1639.6],[-120.45487010755977,39.79211825727632,1639.4],[-120.45492855459261,39.79221707150557,1638.2],[-120.45497531221888,39.792432666187565,1637.1],[-120.45498700162544,39.792459615522816,1636.6],[-120.45504544865828,39.792468598634564,1635.5],[-120.45508051687798,39.79242368307582,1634.8],[-120.45510389569112,39.79221707150557,1634.1],[-120.45508051687798,39.79216317283507,1634.4],[-120.45510389569112,39.79211825727632,1633.7],[-120.45518572153709,39.79213622349982,1631.8],[-120.45524416856993,39.79230690262307,1631.4],[-120.4552909261962,39.79230690262307,1630.2],[-120.45531430500934,39.792288936399565,1629.3],[-120.45534937322904,39.79224402084082,1628.1],[-120.4553259944159,39.79210927416457,1627.7],[-120.45523247916337,39.791875713259074,1628.4],[-120.4552207897568,39.79176791591807,1627.7],[-120.45523247916337,39.791606219906576,1626.2],[-120.45518572153709,39.791462490118576,1627],[-120.45524416856993,39.79122892921308,1625.1],[-120.45541950966845,39.79106723320158,1625.2],[-120.45550133551443,39.79103130075458,1625.7],[-120.45552471432755,39.79104028386633,1625.3],[-120.45554809314069,39.79105825008983,1624.6],[-120.45553640373413,39.79109418253683,1623.8],[-120.45545457788815,39.79113909809558,1623.4],[-120.4553961308553,39.791201979877826,1622.6],[-120.4553961308553,39.79124689543658,1621.5],[-120.45540782026188,39.79132774344233,1620.8],[-120.45554809314069,39.791498422565574,1615.9],[-120.4555831613604,39.79157028745958,1614.8],[-120.45562991898666,39.79162418613007,1613.5],[-120.45566498720636,39.791669101688825,1612.9],[-120.45574681305234,39.791758932806324,1611.6],[-120.45584032830489,39.791929611929575,1610.7],[-120.45592215415085,39.791992493711824,1608.9],[-120.45603904821654,39.79216317283507,1606.7],[-120.45623776812819,39.792378767517064,1601.7],[-120.45628452575446,39.79245063241107,1600.8],[-120.4563429727873,39.79259436219907,1599.4],[-120.45635466219386,39.79268419331657,1598.8],[-120.45628452575446,39.79296266978081,1599],[-120.45629621516102,39.793016568451314,1598.2],[-120.4563429727873,39.79312436579231,1596.1],[-120.45635466219386,39.793339960474306,1592.2],[-120.45635466219386,39.79344775781531,1590.2],[-120.4563079045676,39.793573521379805,1588.3],[-120.45626114694132,39.793627420050306,1588],[-120.45628452575446,39.79365436938556,1587],[-120.4563429727873,39.79365436938556,1585.8],[-120.45640141982012,39.793627420050306,1585],[-120.45654169269895,39.793456740927056,1585.5],[-120.45661182913835,39.793286061803805,1586.5],[-120.45667027617118,39.79327707869206,1585.1],[-120.45669365498432,39.79330402802731,1584.6],[-120.45670534439088,39.79344775781531,1582.2],[-120.45671703379746,39.793546572044555,1579.9],[-120.45671703379746,39.793663352497305,1577.7],[-120.45661182913835,39.79379809917355,1576.6],[-120.4564832456661,39.79388793029105,1577],[-120.45613256346907,39.79395979518505,1582.4],[-120.4560858058428,39.7939867445203,1583],[-120.45607411643624,39.7940226769673,1583],[-120.45624945753475,39.79428318720805,1580.1],[-120.4563429727873,39.794426916996045,1580.2],[-120.45638973041356,39.794480815666546,1579.7],[-120.45643648803983,39.794597596119296,1580],[-120.45645986685297,39.79469641034854,1580.7],[-120.45649493507267,39.79475929213079,1580.2],[-120.45650662447925,39.79486708947179,1580.3],[-120.45663520795148,39.79510065037729,1576.9],[-120.45663520795148,39.795244380165286,1576.3],[-120.45661182913835,39.79528929572404,1576.5],[-120.45661182913835,39.79534319439454,1576.1],[-120.45663520795148,39.795450991735535,1574.5],[-120.45662351854492,39.795513873517784,1574.5],[-120.45656507151207,39.79557675530003,1575.3],[-120.45654169269895,39.79572048508803,1575.3],[-120.45656507151207,39.79581929931728,1575.1],[-120.45670534439088,39.79592709665828,1573.2],[-120.45678717023686,39.79616065756378,1573.3],[-120.45685730667627,39.79643015091628,1572.9],[-120.4568456172697,39.79652896514553,1573.2],[-120.45679885964343,39.79660981315128,1573.2],[-120.45679885964343,39.79671761049227,1572.2],[-120.45675210201716,39.79689727272727,1570.6],[-120.45664689735806,39.79706795185052,1569],[-120.45658845032521,39.79712185052102,1568.4],[-120.45643648803983,39.79720269852677,1568.3],[-120.4563429727873,39.79722964786202,1569],[-120.45622607872161,39.79729252964427,1568.5],[-120.4560858058428,39.79731947897952,1568.9],[-120.45603904821654,39.79731947897952,1569.4],[-120.45580526008519,39.797265580309016,1570.8],[-120.45564160839324,39.79725659719727,1571],[-120.45552471432755,39.797265580309016,1571],[-120.45538444144874,39.79731947897952,1569.7],[-120.4553259944159,39.79736439453827,1568.5],[-120.45512727450425,39.79740931009702,1567.7],[-120.45482334993349,39.79743625943227,1567.2],[-120.45456618298901,39.797418293208764,1567.4],[-120.45449604654961,39.79742727632052,1566.7],[-120.45447266773647,39.79745422565577,1565.9],[-120.4544609783299,39.797499141214516,1564.3],[-120.45451942536273,39.79751710743802,1563.8],[-120.45462463002184,39.79751710743802,1564.1],[-120.45482334993349,39.79755303988502,1563.5],[-120.45494024399918,39.79757998922027,1562.7],[-120.45538444144874,39.797642871002516,1559.4],[-120.45544288848158,39.797615921667266,1559.5],[-120.45545457788815,39.79763388789077,1559.1],[-120.45546626729472,39.79766083722601,1558.3],[-120.45527923678964,39.79774168523176,1557.5],[-120.45492855459261,39.797786600790516,1556.6],[-120.45448435714303,39.79775066834351,1556.7],[-120.45405184910003,39.797822533237515,1553.7],[-120.45387650800151,39.79777761767876,1553.1],[-120.4537713033424,39.797822533237515,1550.7],[-120.45372454571614,39.797795583902264,1550.4],[-120.45382975037525,39.797912364355014,1550],[-120.45386481859495,39.797966263025515,1549.3],[-120.4539232656278,39.79800219547251,1549.5],[-120.4539934020672,39.79805609414301,1548.6],[-120.45407522791317,39.79817287459576,1546.6],[-120.45416874316571,39.79822677326626,1545.6],[-120.45428563723138,39.79828965504851,1544.5],[-120.45453111476931,39.79830762127201,1543.7],[-120.45465969824156,39.798352536830755,1543],[-120.45474152408752,39.79845135106001,1541.7],[-120.45488179696633,39.798532199065754,1541.2],[-120.45496362281231,39.798532199065754,1541.6],[-120.45502206984514,39.79855016528926,1541.4],[-120.45511558509769,39.79854118217751,1541.7],[-120.45511558509769,39.79855016528926,1541.6],[-120.45510389569112,39.79857711462451,1541.1],[-120.45503375925172,39.79860406395976,1540.7],[-120.45499869103202,39.79863101329501,1540.1],[-120.45495193340574,39.798648979518504,1539.7],[-120.45490517577947,39.79869389507726,1538.9],[-120.4548934863729,39.79880169241825,1537.1],[-120.45496362281231,39.798882540424,1536.3],[-120.45511558509769,39.79898135465325,1535.4],[-120.45518572153709,39.79898135465325,1535.6],[-120.45544288848158,39.799098135106,1532.3],[-120.45548964610785,39.7991520337765,1530.9],[-120.45554809314069,39.79917898311175,1529.7],[-120.45557147195383,39.799241864894,1528.6],[-120.45498700162544,39.799520341358246,1528.3],[-120.45490517577947,39.799664071146246,1527],[-120.45490517577947,39.799700003593244,1526.7],[-120.45491686518604,39.79973593604024,1526.2],[-120.45502206984514,39.79988864893999,1524],[-120.45510389569112,39.79995153072224,1522.9],[-120.45524416856993,39.79998746316924,1522.1],[-120.4553259944159,39.80010424362199,1520.4],[-120.4553961308553,39.80014915918074,1519.5],[-120.45543119907501,39.80029288896874,1517.3],[-120.45545457788815,39.80030187208049,1517.1],[-120.45553640373413,39.80024797340999,1518],[-120.45560654017353,39.80013119295724,1519.3],[-120.45574681305234,39.80008627739849,1519.5],[-120.45584032830489,39.80014017606899,1518.8],[-120.45588708593115,39.80023899029824,1517.5],[-120.4559806011837,39.80029288896874,1516.4],[-120.45623776812819,39.80035577075099,1515.9],[-120.45640141982012,39.800346787639235,1516.5],[-120.45645986685297,39.80039170319799,1516.2],[-120.4564832456661,39.800436618756734,1515.7],[-120.45647155625953,39.800517466762486,1514.5],[-120.45643648803983,39.800544416097736,1514],[-120.4564131092267,39.80065221343874,1512],[-120.45643648803983,39.80073306144448,1510.7],[-120.45651831388581,39.800777977003236,1510.1],[-120.4567754808303,39.80085882500898,1508.7],[-120.45686899608283,39.80084984189723,1509.3],[-120.45690406430253,39.80087679123248,1508.4],[-120.45686899608283,39.80091272367948,1507.3],[-120.45681054905,39.800930689902984,1506.6],[-120.45656507151207,39.80090374056773,1507.1],[-120.4564131092267,39.80091272367948,1506.6],[-120.45629621516102,39.80093967301473,1505.9],[-120.45603904821654,39.80108340280273,1505.8],[-120.45589877533772,39.80119120014373,1507.9],[-120.45584032830489,39.80121814947898,1508.7],[-120.45573512364578,39.80121814947898,1509.6],[-120.45562991898666,39.80117323392023,1509.7],[-120.45554809314069,39.80121814947898,1510.9],[-120.45562991898666,39.80132594681998,1511.7],[-120.4557585024589,39.80144272727273,1512.4],[-120.45614425287565,39.801577473948974,1512.5],[-120.45631959397416,39.80166730506647,1512.6],[-120.45642479863326,39.80170323751347,1512.4],[-120.45657676091865,39.80178408551922,1512.9],[-120.45682223845657,39.80194578153072,1513.3],[-120.45688068548941,39.80197273086597,1513.2],[-120.45706771599448,39.80215239310097,1513.5],[-120.45716123124703,39.80217035932447,1513],[-120.457243057093,39.80220629177147,1512.8],[-120.45725474649957,39.80218832554797,1512.6],[-120.457243057093,39.80226917355372,1513.1],[-120.45748853463093,39.802511717570965,1511.4],[-120.4576054286966,39.80255663312972,1510.2],[-120.45769894394914,39.802628498023715,1509.2],[-120.45797948970676,39.80285307581746,1506.1],[-120.4584353765629,39.802951890046714,1503.3],[-120.45854058122201,39.80305070427596,1503.4],[-120.45870423291396,39.803068670499464,1502.9],[-120.45880943757307,39.80315850161696,1502.9],[-120.45893802104531,39.80320341717571,1502.6],[-120.45907829392412,39.80326629895796,1502.4],[-120.45910167273726,39.80341002874596,1502.5],[-120.45923025620951,39.80351782608695,1502.2],[-120.45920687739637,39.803688505210204,1502.3],[-120.45924194561607,39.8037783363277,1502.2],[-120.45927701383577,39.803823251886456,1502],[-120.45934715027518,39.80378731943945,1501.8],[-120.45953418078027,39.8038142687747,1501.2],[-120.45994331001013,39.8040478296802,1500.4],[-120.46023554517433,39.804182576356446,1500.1],[-120.4604927121188,39.80423647502695,1499.3],[-120.46085508372241,39.8042095256917,1497.2],[-120.4610421142275,39.80421850880345,1496],[-120.46182530446752,39.8041017283507,1491.5],[-120.46198895615947,39.80409274523895,1490.9],[-120.46212922903828,39.80411071146245,1490.5],[-120.46225781251053,39.8041556270212,1490.4],[-120.46246822182874,39.8041915594682,1489.9],[-120.46260849470755,39.804272407473945,1490.1],[-120.46293579809145,39.8043712217032,1489.9],[-120.46311113918996,39.80439817103845,1489.6],[-120.4632046544425,39.80438020481495,1489.2],[-120.4635670260461,39.804326306144446,1488.3],[-120.46364885189207,39.804389187926695,1488.6],[-120.46376574595776,39.804389187926695,1488.4],[-120.46382419299059,39.80439817103845,1488.4],[-120.46389432943,39.804452069708944,1488.5],[-120.46417487518762,39.80472156306144,1488.1],[-120.46420994340733,39.80475749550845,1488],[-120.46431514806643,39.80481139417894,1487.7],[-120.46438528450584,39.80493715774344,1487.5],[-120.46503989127363,39.805089870643194,1485.9],[-120.4651217171196,39.80511681997844,1485.8],[-120.46518016415244,39.805179701760686,1485.7],[-120.46530874762469,39.80527851598994,1485.5],[-120.4654139522838,39.805503093783685,1485.4],[-120.4654840887232,39.80560190801293,1485.2]]}}